{
"type": "FeatureCollection",
"name": "hydraulic_cells",
"crs": { "type": "name", "properties": { "name": "urn:ogc:def:crs:OGC:1.3:CRS84" } },
"features": [
{ "type": "Feature", "properties": { "cell_id": "gis-hydro-001", "station_m": 1119.188, "center_x_m": 302554.442, "center_y_m": 5127696.332, "length_m": 2238.375, "width_m": 88.883, "area_m2": 198953.594, "cross_section_source": "synthetic-boundary-width", "mean_depth_m": 0.686087, "mean_velocity_ms": 0.70234, "mean_water_surface_m": 22.113489, "flow_area_m2": 47.028216, "hydraulic_radius_m": 0.685645 }, "geometry": { "type": "Polygon", "coordinates": [ [ [ -119.54269085907039, 46.277439509627861 ], [ -119.542708251753538, 46.277434362331512 ], [ -119.543443451350981, 46.277238028682767 ], [ -119.544345451646251, 46.277051362372845 ], [ -119.545238851929255, 46.276747962097318 ], [ -119.545847651636663, 46.276599561709666 ], [ -119.547208452441552, 46.276353028741717 ], [ -119.548299919383538, 46.276238761891996 ], [ -119.548678919271126, 46.276113361587612 ], [ -119.548884519395173, 46.276054761851711 ], [ -119.549493852896447, 46.275987161963144 ], [ -119.550395718962832, 46.27575556124885 ], [ -119.551289252434188, 46.275605027883223 ], [ -119.552001519706081, 46.275517161602885 ], [ -119.552317319648637, 46.275505561497127 ], [ -119.55257005283454, 46.275522361475886 ], [ -119.555868653356228, 46.275462227755185 ], [ -119.556817653524988, 46.275301560624477 ], [ -119.557441920768085, 46.275161627206302 ], [ -119.558541254145965, 46.274826560860681 ], [ -119.559268853684159, 46.274720160516019 ], [ -119.561309720359887, 46.274255960623108 ], [ -119.5621315204681, 46.27401696037137 ], [ -119.563412921256472, 46.273560626534277 ], [ -119.563839454811415, 46.273357626790748 ], [ -119.56421932146371, 46.273110559946964 ], [ -119.564701654686914, 46.272838826273144 ], [ -119.564843720854583, 46.27273655988251 ], [ -119.565271054580037, 46.272380426292926 ], [ -119.565817053907438, 46.271733760009283 ], [ -119.566243921473756, 46.271278426357306 ], [ -119.566631253956402, 46.27100435964735 ], [ -119.566970854029734, 46.270861825888197 ], [ -119.567437520975275, 46.27074335927621 ], [ -119.568181253990829, 46.270672626162678 ], [ -119.568607521169099, 46.270662826087637 ], [ -119.569074855096858, 46.270688425678152 ], [ -119.569904854611806, 46.270777825991836 ], [ -119.571423322308419, 46.271009159316769 ], [ -119.571692255565836, 46.271061759293232 ], [ -119.572032454986655, 46.271058559276966 ], [ -119.571760854840988, 46.271504225736415 ], [ -119.571668322246722, 46.271656225426597 ], [ -119.571478321806168, 46.271790958937963 ], [ -119.570173321710044, 46.272013759074639 ], [ -119.570126854589887, 46.271897826012406 ], [ -119.56996812219154, 46.271757425736133 ], [ -119.569746521778455, 46.271703959002203 ], [ -119.569375121950088, 46.271680626268854 ], [ -119.568837455217775, 46.271557759556373 ], [ -119.568370721678065, 46.271505426182337 ], [ -119.567737921016885, 46.271505959154439 ], [ -119.567493120861059, 46.271534026132926 ], [ -119.567239654098827, 46.271620626430391 ], [ -119.567074054177027, 46.271709825989056 ], [ -119.566734054538699, 46.271942559365769 ], [ -119.565721854424922, 46.272851826590085 ], [ -119.565128121647689, 46.273274759922124 ], [ -119.564346454930075, 46.273724159871897 ], [ -119.563151320641111, 46.274277626536851 ], [ -119.562313454690269, 46.274588826767136 ], [ -119.56134832104415, 46.274885160471548 ], [ -119.560684853769303, 46.275066427111199 ], [ -119.559220920451807, 46.275720160539173 ], [ -119.558738853605249, 46.275870560535893 ], [ -119.557774320347164, 46.276081160832284 ], [ -119.557038853332529, 46.276178560633525 ], [ -119.555844320472133, 46.276241361075144 ], [ -119.554325920410207, 46.276279761222696 ], [ -119.55181925251307, 46.276281761312042 ], [ -119.550758919384435, 46.276355028109236 ], [ -119.550284452597154, 46.276531961773955 ], [ -119.549430652951443, 46.276712961899634 ], [ -119.548339119415289, 46.276886028762796 ], [ -119.547690852258938, 46.277035361880657 ], [ -119.547136318472909, 46.277137628879693 ], [ -119.546353718396446, 46.27733502871893 ], [ -119.54509631856186, 46.277597162052196 ], [ -119.544756252329378, 46.277712629255994 ], [ -119.544210651526456, 46.277806028966872 ], [ -119.543379918435136, 46.277869562542335 ], [ -119.542967650932468, 46.277953774971699 ], [ -119.54269085907039, 46.277439509627861 ] ] ] } },
{ "type": "Feature", "properties": { "cell_id": "gis-hydro-002", "station_m": 3357.563, "center_x_m": 305535.37, "center_y_m": 5127786.255, "length_m": 2238.375, "width_m": 92.23, "area_m2": 206445.457, "cross_section_source": "synthetic-boundary-width", "mean_depth_m": 0.695691, "mean_velocity_ms": 0.708856, "mean_water_surface_m": 19.891533, "flow_area_m2": 46.596071, "hydraulic_radius_m": 0.695209 }, "geometry": { "type": "Polygon", "coordinates": [ [ [ -119.514545974802857, 46.272842168857863 ], [ -119.515640701372007, 46.27281770244236 ], [ -119.515672112741996, 46.272848431763506 ], [ -119.51652551282271, 46.273608164977546 ], [ -119.516912446780907, 46.274081031287011 ], [ -119.517173046402675, 46.274331964616493 ], [ -119.517560610924392, 46.274599023149612 ], [ -119.517676140357281, 46.274590194723736 ], [ -119.518468455898315, 46.274633440691225 ], [ -119.519670758424951, 46.274731843498138 ], [ -119.520709312139587, 46.274855729416934 ], [ -119.521779893486112, 46.27501031761507 ], [ -119.521976535654261, 46.275070261239989 ], [ -119.52239997778311, 46.275199339105257 ], [ -119.52317969766186, 46.275446794254762 ], [ -119.523899984328153, 46.275644008156938 ], [ -119.524396591594723, 46.275721367365598 ], [ -119.524423700623146, 46.275728762952589 ], [ -119.52468511498293, 46.275736764109197 ], [ -119.525436048492736, 46.275823764115962 ], [ -119.526172647608178, 46.275893977789792 ], [ -119.526604991504129, 46.275817752290308 ], [ -119.527351966823133, 46.275891812988796 ], [ -119.528154025923143, 46.276052480546539 ], [ -119.528992477694558, 46.276207476031317 ], [ -119.529062958254926, 46.276252989073853 ], [ -119.529232248950265, 46.276252830131071 ], [ -119.529738448898428, 46.276196430574096 ], [ -119.530544516134825, 46.276178763447696 ], [ -119.531565116478347, 46.276061630219573 ], [ -119.531881449174264, 46.276068163438978 ], [ -119.532490849269692, 46.276158163420078 ], [ -119.533162916556805, 46.276228629823301 ], [ -119.533866649370069, 46.276253629879548 ], [ -119.534942117063537, 46.276432363299854 ], [ -119.535646050699825, 46.276605629546651 ], [ -119.536120850457976, 46.276770763348345 ], [ -119.536824117112076, 46.277146563334739 ], [ -119.537148250690237, 46.277269829610702 ], [ -119.538199317864937, 46.277547962883823 ], [ -119.539275050894545, 46.277722162693394 ], [ -119.539781917824897, 46.277859429336786 ], [ -119.540216918203782, 46.277917362623853 ], [ -119.540643317529856, 46.277903162483611 ], [ -119.541450517907606, 46.277768362731642 ], [ -119.542280918028084, 46.277560829035195 ], [ -119.542708251753538, 46.277434362331512 ], [ -119.543443451350981, 46.277238028682767 ], [ -119.544345451646251, 46.277051362372845 ], [ -119.545238851929255, 46.276747962097318 ], [ -119.545847651636663, 46.276599561709666 ], [ -119.547208452441552, 46.276353028741717 ], [ -119.548299919383538, 46.276238761891996 ], [ -119.548404951165153, 46.276204010038313 ], [ -119.548436341502452, 46.276870614289493 ], [ -119.548339119415289, 46.276886028762796 ], [ -119.547690852258938, 46.277035361880657 ], [ -119.547136318472909, 46.277137628879693 ], [ -119.546353718396446, 46.27733502871893 ], [ -119.54509631856186, 46.277597162052196 ], [ -119.544756252329378, 46.277712629255994 ], [ -119.544210651526456, 46.277806028966872 ], [ -119.543379918435136, 46.277869562542335 ], [ -119.542391651640443, 46.278071429413863 ], [ -119.541711251758272, 46.27830702900134 ], [ -119.541347451989168, 46.278468162691027 ], [ -119.541093918632754, 46.278541362558947 ], [ -119.540382118560544, 46.278534629705568 ], [ -119.539868851306508, 46.278487562995679 ], [ -119.539560317411812, 46.27842696291102 ], [ -119.539417317885281, 46.278348963144879 ], [ -119.539093051118755, 46.278117762923941 ], [ -119.538990717736155, 46.278084029347866 ], [ -119.538476117558233, 46.278059429268588 ], [ -119.538151850791721, 46.278053163100324 ], [ -119.53718751731617, 46.278065629991232 ], [ -119.536562650725571, 46.278007363163653 ], [ -119.535708850039313, 46.277814963312956 ], [ -119.533786916382695, 46.277177829960458 ], [ -119.532894249676076, 46.276950363143193 ], [ -119.532245049160863, 46.276811563784271 ], [ -119.531517249840164, 46.276755630119375 ], [ -119.531162115636988, 46.276763630406869 ], [ -119.529746115551831, 46.276938963994617 ], [ -119.529034248885466, 46.27699063052669 ], [ -119.528385515569951, 46.276986964103166 ], [ -119.528219849054011, 46.277017764066805 ], [ -119.52769764881684, 46.277029230802647 ], [ -119.52548311496038, 46.276956630875965 ], [ -119.52373551442615, 46.276869231359612 ], [ -119.523103247558836, 46.276788764707796 ], [ -119.522905114305658, 46.276739031173214 ], [ -119.522771122680666, 46.276633170340801 ], [ -119.5225846361229, 46.276586482451229 ], [ -119.522287927895434, 46.276430404210167 ], [ -119.522146244644205, 46.276321580407711 ], [ -119.522072733008741, 46.276190245462317 ], [ -119.522154001824077, 46.276058611014619 ], [ -119.522071027573745, 46.275857360277286 ], [ -119.521963102362236, 46.275788592876559 ], [ -119.521961127428995, 46.275731690836651 ], [ -119.521891983954603, 46.27556398201849 ], [ -119.521084853292649, 46.275296991478378 ], [ -119.520669767691146, 46.275135543517237 ], [ -119.520369431122106, 46.275158500069878 ], [ -119.520506499605688, 46.275256144604448 ], [ -119.520529545349433, 46.275312048154625 ], [ -119.520302230324447, 46.275371230525508 ], [ -119.519869677281164, 46.275355277010611 ], [ -119.519473997635984, 46.275428768001362 ], [ -119.519056716508004, 46.275731684363798 ], [ -119.518783789681692, 46.275774167792839 ], [ -119.51877113574956, 46.275776137694066 ], [ -119.518548446938055, 46.275705631152654 ], [ -119.518208113288367, 46.275546564972402 ], [ -119.517892046969138, 46.275364631774885 ], [ -119.516390845891237, 46.274290631547039 ], [ -119.515520846173999, 46.273558165316835 ], [ -119.514548444174011, 46.272895311803389 ], [ -119.514545974802857, 46.272842168857863 ] ], [ [ -119.5248151338497, 46.276548575885933 ], [ -119.525070109386036, 46.276556470482099 ], [ -119.525343528384866, 46.27660908599119 ], [ -119.525653337974063, 46.276656034928571 ], [ -119.526117434800994, 46.276607570650292 ], [ -119.526576921022453, 46.276547924295834 ], [ -119.52683601395124, 46.276471885977585 ], [ -119.527058222036089, 46.276306403902808 ], [ -119.526925504024533, 46.276172389903657 ], [ -119.526665670235658, 46.276105763957297 ], [ -119.526378668107924, 46.276067163750049 ], [ -119.525691132244575, 46.276043335187204 ], [ -119.525509183454957, 46.276071665227043 ], [ -119.524730429191578, 46.276014441278797 ], [ -119.524229700370427, 46.276021011902387 ], [ -119.523874285223101, 46.275957365426471 ], [ -119.523313872420843, 46.275866141750775 ], [ -119.522871607034617, 46.275732725053551 ], [ -119.522466220249115, 46.275688752836651 ], [ -119.522334734229617, 46.275792510382537 ], [ -119.522422074559969, 46.275957386283366 ], [ -119.52240485476527, 46.276150439216821 ], [ -119.523002391734295, 46.276378666668634 ], [ -119.523462613613162, 46.276461693539588 ], [ -119.524605766993119, 46.276557376666894 ], [ -119.524755445706433, 46.276450784061574 ], [ -119.524860252437975, 46.276470161347 ], [ -119.5248151338497, 46.276548575885933 ] ], [ [ -119.536119850504946, 46.277324163285044 ], [ -119.536214650422451, 46.277277163138784 ], [ -119.536294250221488, 46.277189829579605 ], [ -119.536294450004007, 46.277126829571863 ], [ -119.536199050738958, 46.277043429731009 ], [ -119.535788116867522, 46.276850029697748 ], [ -119.535551249741772, 46.276774229851071 ], [ -119.534372716129852, 46.276539363005107 ], [ -119.534238250021431, 46.276537963452554 ], [ -119.534167117046323, 46.276598029827007 ], [ -119.534175516235592, 46.276737430252041 ], [ -119.534317116244097, 46.276828630182422 ], [ -119.535890650032613, 46.277315830097038 ], [ -119.536002050627189, 46.277335829889999 ], [ -119.536119850504946, 46.277324163285044 ] ], [ [ -119.533874849817337, 46.276572829991927 ], [ -119.534024449450087, 46.276497630289732 ], [ -119.53403325028539, 46.276452363415267 ], [ -119.533969649734871, 46.276404363557575 ], [ -119.533874849817337, 46.276401829829041 ], [ -119.533628916520158, 46.276434563320116 ], [ -119.533621649431751, 46.276515429645166 ], [ -119.533747649756791, 46.276553363562719 ], [ -119.533874849817337, 46.276572829991927 ] ] ] } },
{ "type": "Feature", "properties": { "cell_id": "gis-hydro-003", "station_m": 5595.938, "center_x_m": 306509.114, "center_y_m": 5126947.287, "length_m": 2238.375, "width_m": 63.746, "area_m2": 142686.429, "cross_section_source": "synthetic-boundary-width", "mean_depth_m": 0.728466, "mean_velocity_ms": 0.730857, "mean_water_surface_m": 17.709536, "flow_area_m2": 45.193901, "hydraulic_radius_m": 0.72782 }, "geometry": { "type": "Polygon", "coordinates": [ [ [ -119.518383962478651, 46.275628754149587 ], [ -119.518208113288367, 46.275546564972402 ], [ -119.517892046969138, 46.275364631774885 ], [ -119.516390845891237, 46.274290631547039 ], [ -119.515520846173999, 46.273558165316835 ], [ -119.514011911848513, 46.272529565265089 ], [ -119.512866044756308, 46.271807432074475 ], [ -119.512130111582508, 46.271171231528768 ], [ -119.511585711555654, 46.270661232181695 ], [ -119.510804044838054, 46.269764764947503 ], [ -119.510700510679413, 46.269587031885948 ], [ -119.510645311399159, 46.269412832110312 ], [ -119.510590710425888, 46.268662431893354 ], [ -119.510543310987387, 46.268334965520978 ], [ -119.510378711018632, 46.267708564835353 ], [ -119.510354844293701, 46.267439032093669 ], [ -119.510291510119856, 46.267111964827343 ], [ -119.510039710292816, 46.266338964907476 ], [ -119.509896910548747, 46.266130565012539 ], [ -119.509621043173794, 46.265871031894349 ], [ -119.508949709463039, 46.26539083156608 ], [ -119.508419642789974, 46.265069565106444 ], [ -119.508079842934151, 46.264833965436914 ], [ -119.507954442997146, 46.264715031887008 ], [ -119.507653642350022, 46.264510231931993 ], [ -119.50732970959487, 46.2643329652389 ], [ -119.506815442387804, 46.264123565004667 ], [ -119.506128109428559, 46.263927165685011 ], [ -119.505717441933783, 46.26373363232161 ], [ -119.505061708947053, 46.263316032135599 ], [ -119.504437441703971, 46.263019232310384 ], [ -119.504115079791163, 46.262851085635262 ], [ -119.503834008800382, 46.26153580577278 ], [ -119.504019042002142, 46.261619831746955 ], [ -119.504296241260434, 46.261811832363136 ], [ -119.504477708282934, 46.262005832197865 ], [ -119.504515442202447, 46.262028632388528 ], [ -119.504556841922764, 46.262053565545031 ], [ -119.505007908144307, 46.262142565577342 ], [ -119.505647242317565, 46.262592031625857 ], [ -119.506050242118405, 46.262767965190946 ], [ -119.508049842262139, 46.263925565108948 ], [ -119.509013642984414, 46.264646964820251 ], [ -119.509574109894459, 46.265138765334832 ], [ -119.509732242945333, 46.265247631484797 ], [ -119.509945709505303, 46.265346564753514 ], [ -119.510325510603948, 46.26555876501758 ], [ -119.510704443897353, 46.265824831896737 ], [ -119.510893509938555, 46.266023231355653 ], [ -119.511051843812439, 46.266231364787281 ], [ -119.511391244103265, 46.267092231766924 ], [ -119.511351243900961, 46.267286631558257 ], [ -119.511351110712639, 46.267943832058734 ], [ -119.511476510649644, 46.268391031500393 ], [ -119.511572110737674, 46.268627365391261 ], [ -119.511674044555292, 46.268958231558173 ], [ -119.511839311506236, 46.269264964993184 ], [ -119.511974511191028, 46.269491431534263 ], [ -119.512084844197872, 46.2695792319508 ], [ -119.512581911380408, 46.270184765150717 ], [ -119.512788111892505, 46.270373832055739 ], [ -119.513815445530611, 46.271138564662564 ], [ -119.514273111858344, 46.271479765117014 ], [ -119.515672112741996, 46.272848431763506 ], [ -119.51652551282271, 46.273608164977546 ], [ -119.516912446780907, 46.274081031287011 ], [ -119.517173046402675, 46.274331964616493 ], [ -119.517560610924392, 46.274599023149612 ], [ -119.517676140357281, 46.274590194723736 ], [ -119.518167425480655, 46.274617010581608 ], [ -119.518383962478651, 46.275628754149587 ] ], [ [ -119.513228912207069, 46.27186263211415 ], [ -119.513229912160099, 46.271763565315759 ], [ -119.513173845074618, 46.271692832080362 ], [ -119.51300804537037, 46.271565964872515 ], [ -119.512914045623376, 46.271459965299201 ], [ -119.51281091207025, 46.271255231541481 ], [ -119.512549645466251, 46.270941565431798 ], [ -119.512202044728141, 46.270584764920933 ], [ -119.511918244323084, 46.270379431614629 ], [ -119.511783244420769, 46.2703462320124 ], [ -119.511752045053811, 46.270432565177977 ], [ -119.511855044378052, 46.270587831899405 ], [ -119.512020845122862, 46.270768565388273 ], [ -119.512178311191533, 46.270963165044634 ], [ -119.512628644877239, 46.27143476525918 ], [ -119.513134112289549, 46.271860165066443 ], [ -119.513228912207069, 46.27186263211415 ] ] ] } },
{ "type": "Feature", "properties": { "cell_id": "gis-hydro-004", "station_m": 7834.313, "center_x_m": 307848.629, "center_y_m": 5125630.959, "length_m": 2238.375, "width_m": 90.752, "area_m2": 203136.355, "cross_section_source": "synthetic-boundary-width", "mean_depth_m": 0.692755, "mean_velocity_ms": 0.706867, "mean_water_surface_m": 15.409757, "flow_area_m2": 46.727164, "hydraulic_radius_m": 0.692285 }, "geometry": { "type": "Polygon", "coordinates": [ [ [ -119.47309056422354, 46.253833954223879 ], [ -119.473207901329161, 46.253618768306438 ], [ -119.473310834059248, 46.253517634519341 ], [ -119.473682234928106, 46.253320567645503 ], [ -119.473967301662867, 46.253183834570386 ], [ -119.474401301048204, 46.253021434326108 ], [ -119.475112501772884, 46.252727167559492 ], [ -119.475207834443736, 46.252702567610839 ], [ -119.475347034981212, 46.252721567636506 ], [ -119.475476834295321, 46.252746167576639 ], [ -119.475665701594522, 46.252687968086526 ], [ -119.475919035168459, 46.252565634410438 ], [ -119.476038234564228, 46.252540567427729 ], [ -119.476330101187713, 46.252516034309785 ], [ -119.476883234415169, 46.252481634538547 ], [ -119.477476101468241, 46.252486834438415 ], [ -119.478416835636082, 46.252560967674299 ], [ -119.478962435398486, 46.25255803423547 ], [ -119.479302102066001, 46.252622833913776 ], [ -119.479532101668312, 46.252635833988833 ], [ -119.481097502644261, 46.252804233896363 ], [ -119.482844502790456, 46.253099433443722 ], [ -119.484339235909943, 46.253449567221288 ], [ -119.485928703393313, 46.25391883370645 ], [ -119.486560837072304, 46.254157033025628 ], [ -119.48709103693372, 46.254298633158193 ], [ -119.489170837264524, 46.255027233436344 ], [ -119.489439437551113, 46.25514763342801 ], [ -119.489518637785153, 46.255199766576922 ], [ -119.489565637658657, 46.255221166623045 ], [ -119.489834437727708, 46.255224433036034 ], [ -119.490056104734975, 46.255260166430084 ], [ -119.490261704859023, 46.255363766232968 ], [ -119.490799304997182, 46.255581432814601 ], [ -119.491226838505142, 46.255720632722458 ], [ -119.4918748382443, 46.25601243293314 ], [ -119.492570905444666, 46.256267232626818 ], [ -119.492793105205237, 46.256383832591588 ], [ -119.493037304973029, 46.256486633112615 ], [ -119.493245904956183, 46.25662603288977 ], [ -119.493258905386114, 46.256634766363206 ], [ -119.49350503846577, 46.256688032678873 ], [ -119.493780839246583, 46.256794365866355 ], [ -119.494732438668933, 46.257285832493572 ], [ -119.49498150605406, 46.257414365894121 ], [ -119.495244639375755, 46.25755003299745 ], [ -119.495568906142296, 46.257651032726315 ], [ -119.496027906434435, 46.257798365691386 ], [ -119.496280105826443, 46.257842565935363 ], [ -119.496391039221322, 46.257889432385618 ], [ -119.49662883970592, 46.257956366093616 ], [ -119.497079439768299, 46.25812656623976 ], [ -119.497553640178936, 46.258246765898704 ], [ -119.498036306372953, 46.258398165654391 ], [ -119.498376706616824, 46.258539165622132 ], [ -119.49877963982351, 46.258723965477756 ], [ -119.500014040738378, 46.259394832568354 ], [ -119.501149441100608, 46.259984965599237 ], [ -119.50278386956343, 46.260936847223007 ], [ -119.502070509331702, 46.261825357281758 ], [ -119.50201110822276, 46.261794232538456 ], [ -119.50159264088623, 46.261546965375352 ], [ -119.501149307912257, 46.261331365552778 ], [ -119.500014107332547, 46.260746165563354 ], [ -119.499793641101377, 46.260623232614911 ], [ -119.499746706781494, 46.26048483218154 ], [ -119.499587840154277, 46.260308232312696 ], [ -119.499525307191462, 46.260269232498786 ], [ -119.499351440228253, 46.260255032102179 ], [ -119.49920804009615, 46.2602131661261 ], [ -119.498860640181093, 46.26001363271088 ], [ -119.497808106894198, 46.259519032288196 ], [ -119.497475706274599, 46.259368965834661 ], [ -119.496953840048803, 46.25904276624685 ], [ -119.495569506530316, 46.258429365996911 ], [ -119.494715239684879, 46.258124166200801 ], [ -119.494687706118697, 46.258113366024162 ], [ -119.493813505766298, 46.257765766396837 ], [ -119.493284305857941, 46.25762443277727 ], [ -119.48997043758304, 46.256207033173659 ], [ -119.489408837531641, 46.256003166237797 ], [ -119.488562637945165, 46.255688766769623 ], [ -119.488000703882406, 46.255556833426766 ], [ -119.487107237005247, 46.255234233712727 ], [ -119.486949637748225, 46.255206367035839 ], [ -119.486877904385111, 46.255185233189586 ], [ -119.486822437687678, 46.255136966487505 ], [ -119.486790503703816, 46.254989033522406 ], [ -119.486664503378762, 46.254901966628488 ], [ -119.486245436694745, 46.254744566825337 ], [ -119.486110436792458, 46.254670966798962 ], [ -119.486023837322207, 46.254600766947611 ], [ -119.485564903624223, 46.254399233805572 ], [ -119.485335902934381, 46.254327833503865 ], [ -119.484576236224015, 46.254150767002486 ], [ -119.483200502717793, 46.253883634020745 ], [ -119.482544636542741, 46.253857433720839 ], [ -119.48210943638135, 46.253763234131938 ], [ -119.481477702267355, 46.25372756739494 ], [ -119.480963835665818, 46.253612833909138 ], [ -119.479943235322267, 46.253328967078296 ], [ -119.479168835693073, 46.253251033761671 ], [ -119.478275435410097, 46.253140034211619 ], [ -119.478124902418458, 46.253098367861085 ], [ -119.477746102313375, 46.253065967233212 ], [ -119.475714301809091, 46.253159634149775 ], [ -119.475453634552593, 46.253192167830051 ], [ -119.475082034941749, 46.253308234708669 ], [ -119.474939301791849, 46.25332036762471 ], [ -119.474867901399591, 46.25333543465505 ], [ -119.474132901584667, 46.253792234743671 ], [ -119.473753700874028, 46.254030034576374 ], [ -119.473714741389159, 46.254075281202141 ], [ -119.47309056422354, 46.253833954223879 ] ], [ [ -119.500014107332547, 46.260312632208759 ], [ -119.500179106866298, 46.260253632133796 ], [ -119.500133640739705, 46.260053032698977 ], [ -119.500068640671131, 46.259953632331275 ], [ -119.500014040738378, 46.259916566046364 ], [ -119.49976924058258, 46.259840765800575 ], [ -119.499326307173618, 46.259472565788627 ], [ -119.499184040182897, 46.259358565900676 ], [ -119.49896230658149, 46.259214832078847 ], [ -119.498194840029356, 46.258862632227107 ], [ -119.497823307012695, 46.258749232512812 ], [ -119.497585906093093, 46.258646432636368 ], [ -119.496969306543946, 46.25847543265715 ], [ -119.496811306681408, 46.258465365650558 ], [ -119.496692239433429, 46.25849943288835 ], [ -119.496716239346696, 46.258588832937697 ], [ -119.496858239960758, 46.258653365776162 ], [ -119.497451839549669, 46.259013766253567 ], [ -119.497784040386776, 46.259164032239831 ], [ -119.49809210708176, 46.259346432881728 ], [ -119.49889970702452, 46.259769766103652 ], [ -119.499152506804577, 46.259845232639655 ], [ -119.499500906672665, 46.260022165648394 ], [ -119.499659640111588, 46.260117765968424 ], [ -119.49985684104638, 46.260297832556866 ], [ -119.500014107332547, 46.260312632208759 ] ], [ [ -119.500766506954534, 46.260070965450289 ], [ -119.500821440898648, 46.260038165352356 ], [ -119.500781840261354, 46.259985165595729 ], [ -119.500575707383973, 46.259850032566831 ], [ -119.500354106970875, 46.259751365634209 ], [ -119.500275307342378, 46.259735165849179 ], [ -119.500196107108366, 46.259745965706394 ], [ -119.500196107108366, 46.259795365745568 ], [ -119.500259307053369, 46.259856965554448 ], [ -119.500647240964582, 46.260051032017373 ], [ -119.500766506954534, 46.260070965450289 ] ] ] } },
{ "type": "Feature", "properties": { "cell_id": "gis-hydro-005", "station_m": 10072.688, "center_x_m": 309310.227, "center_y_m": 5126313.501, "length_m": 2238.375, "width_m": 88.949, "area_m2": 199102.281, "cross_section_source": "synthetic-boundary-width", "mean_depth_m": 0.706364, "mean_velocity_ms": 0.71606, "mean_water_surface_m": 13.194709, "flow_area_m2": 46.127463, "hydraulic_radius_m": 0.705833 }, "geometry": { "type": "Polygon", "coordinates": [ [ [ -119.477449131141483, 46.274193179530236 ], [ -119.477388506207078, 46.273756635319984 ], [ -119.477286039636184, 46.273542968627368 ], [ -119.477222305897286, 46.273247169251256 ], [ -119.477056639381374, 46.272800835840961 ], [ -119.476969038917545, 46.272096235857134 ], [ -119.476984105847691, 46.27149736902485 ], [ -119.477030705115681, 46.271113635637946 ], [ -119.477007105807942, 46.270479835168246 ], [ -119.476808505355095, 46.26972803544701 ], [ -119.476784305659322, 46.269539569076265 ], [ -119.476698104713549, 46.269293968915079 ], [ -119.476674304582772, 46.26908756837836 ], [ -119.47661063847859, 46.268895235034456 ], [ -119.476405038354542, 46.268530768574365 ], [ -119.476262504987176, 46.268214368624193 ], [ -119.476183304753135, 46.268112635241387 ], [ -119.475866704640026, 46.2678627689424 ], [ -119.475819304161007, 46.267755835016914 ], [ -119.475509304154102, 46.266466568576142 ], [ -119.475406438018211, 46.266261635614718 ], [ -119.475280304504821, 46.265971968819606 ], [ -119.47522423741934, 46.265851635035908 ], [ -119.475153637197607, 46.265299768698704 ], [ -119.475081637457805, 46.265076235592467 ], [ -119.474400503999263, 46.264128035091595 ], [ -119.473800103481082, 46.263412035312584 ], [ -119.473577702897487, 46.263043235588263 ], [ -119.473419703034949, 46.262610168569246 ], [ -119.473285235885996, 46.262190168597137 ], [ -119.473190236185971, 46.261935635261942 ], [ -119.473008103221829, 46.261683035183346 ], [ -119.472920902323025, 46.261486968831875 ], [ -119.472659903136247, 46.261110035605199 ], [ -119.472382503054902, 46.260881968303195 ], [ -119.472296235514946, 46.260802834968487 ], [ -119.472041901987978, 46.260385435474241 ], [ -119.47203423533459, 46.260160568688441 ], [ -119.471963035765341, 46.260018168599323 ], [ -119.471907302691207, 46.259668168845693 ], [ -119.47185243534129, 46.259475968637879 ], [ -119.471828502022191, 46.259332435122623 ], [ -119.471930502433949, 46.259001635316523 ], [ -119.472049102482245, 46.258796568693576 ], [ -119.472176035125585, 46.258618235316995 ], [ -119.472325434975843, 46.258349768685143 ], [ -119.472357302365566, 46.258236434817611 ], [ -119.472444635412174, 46.25805443480693 ], [ -119.472490701926787, 46.257860035371081 ], [ -119.473131035012557, 46.256977767953067 ], [ -119.473312901600025, 46.256393168290664 ], [ -119.473352101631747, 46.256257235002515 ], [ -119.473328101718494, 46.255911368312134 ], [ -119.473272901397735, 46.255530034607581 ], [ -119.473240901860208, 46.255080568224813 ], [ -119.473129901871175, 46.254819034445262 ], [ -119.473121501641415, 46.254799635115489 ], [ -119.473010901217364, 46.254644768314158 ], [ -119.472806034669645, 46.254450968352167 ], [ -119.472734835100425, 46.254340168369865 ], [ -119.472655234260841, 46.254260834929866 ], [ -119.472551701142734, 46.253930034746347 ], [ -119.472567701431743, 46.253871168104531 ], [ -119.472615901040768, 46.253825168086486 ], [ -119.472742434119127, 46.253781968297204 ], [ -119.472797634439914, 46.253785367902104 ], [ -119.472804834934124, 46.2538210346016 ], [ -119.472773501338281, 46.254118768471059 ], [ -119.472820900776782, 46.254176234723538 ], [ -119.472900634804716, 46.254147568157471 ], [ -119.472963701561369, 46.254101234528399 ], [ -119.473073834785723, 46.253864634397708 ], [ -119.473207901329161, 46.253618768306438 ], [ -119.473310834059248, 46.253517634519341 ], [ -119.473682234928106, 46.253320567645503 ], [ -119.473967301662867, 46.253183834570386 ], [ -119.474401301048204, 46.253021434326108 ], [ -119.474626118761734, 46.252928414446394 ], [ -119.474867468521353, 46.253335703691079 ], [ -119.474132901584667, 46.253792234743671 ], [ -119.473753700874028, 46.254030034576374 ], [ -119.473619434548098, 46.254185967955699 ], [ -119.473588434963617, 46.254362168082878 ], [ -119.473628234342883, 46.254770768140361 ], [ -119.473739301966617, 46.254957434790178 ], [ -119.473928901801656, 46.255173768358787 ], [ -119.473960235397485, 46.255245034456465 ], [ -119.473912901512648, 46.255453167797292 ], [ -119.473976435469027, 46.255649767986903 ], [ -119.473968835409778, 46.255789567756558 ], [ -119.474008235224019, 46.25584716823731 ], [ -119.474063101533417, 46.255872968283164 ], [ -119.474174234710773, 46.255951568414901 ], [ -119.474205701494952, 46.256175834444512 ], [ -119.474245435320569, 46.256327968011433 ], [ -119.474253434944842, 46.256525834906611 ], [ -119.474237901855503, 46.256719634730615 ], [ -119.47419083538783, 46.256810634868316 ], [ -119.473834902054662, 46.257295434953896 ], [ -119.473464036020175, 46.257987435030316 ], [ -119.473314635129412, 46.258355368033463 ], [ -119.473116636105118, 46.258800434895974 ], [ -119.47291970258749, 46.259389835480377 ], [ -119.472879902167705, 46.259615768724856 ], [ -119.472887836238328, 46.25981803520272 ], [ -119.473117636058149, 46.260537568153161 ], [ -119.473308102657896, 46.260812435374135 ], [ -119.473671303079499, 46.261263635278084 ], [ -119.473901236087642, 46.261555635477961 ], [ -119.474098836587444, 46.261821435469656 ], [ -119.474115103253126, 46.261901968699284 ], [ -119.474280902957418, 46.262118968356916 ], [ -119.474541836590575, 46.262500235378724 ], [ -119.474922503413381, 46.263018635231688 ], [ -119.475095703394388, 46.263167768744452 ], [ -119.475468237404627, 46.263380368778037 ], [ -119.475507837001373, 46.263536968317403 ], [ -119.4756029043361, 46.264003035094625 ], [ -119.475689836777192, 46.264325035072225 ], [ -119.475935303915179, 46.264724835183543 ], [ -119.476220437244123, 46.265236034960097 ], [ -119.476354837798922, 46.265399568678909 ], [ -119.476719437738552, 46.266201968648595 ], [ -119.476782904060215, 46.266290568473522 ], [ -119.476956637835102, 46.266835768232198 ], [ -119.477139104810604, 46.267281835159423 ], [ -119.477162638564693, 46.267398235469464 ], [ -119.477345238728518, 46.268100835040052 ], [ -119.47750343837356, 46.268633034900454 ], [ -119.477528305051521, 46.268879968718984 ], [ -119.477796705555605, 46.269751568972431 ], [ -119.477948105311938, 46.27006336888855 ], [ -119.477940305470156, 46.270221168512435 ], [ -119.478169639130826, 46.271170035391123 ], [ -119.478225905998784, 46.27154683543619 ], [ -119.478304906450333, 46.271716035342074 ], [ -119.478368705742824, 46.271948835583039 ], [ -119.478423305675577, 46.272091568625392 ], [ -119.478756506465743, 46.273101568733203 ], [ -119.478875039919828, 46.273580368773736 ], [ -119.478947549300301, 46.273765987078029 ], [ -119.477449131141483, 46.274193179530236 ] ], [ [ -119.474795236758666, 46.263160968539609 ], [ -119.474740103032048, 46.263202635157562 ], [ -119.475001437270748, 46.263655835364176 ], [ -119.475278637569616, 46.264005434876282 ], [ -119.475397703777048, 46.26409296856621 ], [ -119.475460837127912, 46.264041968229712 ], [ -119.475461036910374, 46.2639834354353 ], [ -119.475373437487107, 46.263692835097885 ], [ -119.47524623742656, 46.263412035312584 ], [ -119.474937703531879, 46.26326123496753 ], [ -119.474795236758666, 46.263160968539609 ] ], [ [ -119.476102838189391, 46.26765976895431 ], [ -119.47603223796763, 46.267679368737916 ], [ -119.476000837777633, 46.267724968706432 ], [ -119.47603223796763, 46.26784116882704 ], [ -119.47609610489485, 46.267916435075165 ], [ -119.4762066376842, 46.267927435446204 ], [ -119.476245704527599, 46.267895235635443 ], [ -119.476158704451819, 46.267689968500534 ], [ -119.476102838189391, 46.26765976895431 ] ] ] } },
{ "type": "Feature", "properties": { "cell_id": "gis-hydro-006", "station_m": 12311.064, "center_x_m": 309353.117, "center_y_m": 5128312.268, "length_m": 2238.375, "width_m": 102.13, "area_m2": 228605.549, "cross_section_source": "synthetic-boundary-width", "mean_depth_m": 0.590102, "mean_velocity_ms": 0.635346, "mean_water_surface_m": 10.760288, "flow_area_m2": 51.985097, "hydraulic_radius_m": 0.589931 }, "geometry": { "type": "Polygon", "coordinates": [ [ [ -119.478177579452392, 46.271223209379727 ], [ -119.478225905998784, 46.27154683543619 ], [ -119.478304906450333, 46.271716035342074 ], [ -119.478368705742824, 46.271948835583039 ], [ -119.478423305675577, 46.272091568625392 ], [ -119.478756506465743, 46.273101568733203 ], [ -119.478875039919828, 46.273580368773736 ], [ -119.479422439805802, 46.274981635330441 ], [ -119.479636706536283, 46.275476568773634 ], [ -119.479755306584579, 46.275689769074233 ], [ -119.479826906759371, 46.275989969007533 ], [ -119.47988210708013, 46.276150635558295 ], [ -119.479881707515133, 46.276330568935606 ], [ -119.479866707179156, 46.276605569134396 ], [ -119.479827107582395, 46.276651368804373 ], [ -119.479645640559937, 46.276745368691735 ], [ -119.479432107405799, 46.276794969170226 ], [ -119.479273240778568, 46.276775968855922 ], [ -119.479115440698536, 46.276752369304255 ], [ -119.47906764065452, 46.276766835843596 ], [ -119.478680240537159, 46.277189235532006 ], [ -119.478538106734774, 46.277439769147193 ], [ -119.478388240725351, 46.278037169373256 ], [ -119.478293707184491, 46.278237169375487 ], [ -119.478024907115412, 46.278648169005152 ], [ -119.477400907289535, 46.279494035710506 ], [ -119.476429307766068, 46.280685235900251 ], [ -119.476128907724487, 46.280993169383223 ], [ -119.475946307560648, 46.281127636153073 ], [ -119.475582907356568, 46.281468436425747 ], [ -119.474974907819714, 46.281985769496579 ], [ -119.474626840922426, 46.282303836685017 ], [ -119.474405107321004, 46.282484169821004 ], [ -119.474247841034838, 46.282644969782474 ], [ -119.474050441358045, 46.282784236170329 ], [ -119.473765040611937, 46.282966036867123 ], [ -119.47304550729217, 46.28336417003765 ], [ -119.472745240438925, 46.283559436879798 ], [ -119.472302641041324, 46.284059636448006 ], [ -119.472105441147036, 46.284342970246385 ], [ -119.471986508127927, 46.284620170193513 ], [ -119.471734241101188, 46.285791170193036 ], [ -119.471639707560357, 46.286549037046051 ], [ -119.471663441096936, 46.286868036966162 ], [ -119.47180664144652, 46.287297037351394 ], [ -119.471861641984788, 46.287682836851857 ], [ -119.471957107843991, 46.288072236760421 ], [ -119.472075908715297, 46.288438770644163 ], [ -119.47229744149368, 46.289172037414822 ], [ -119.472520242682819, 46.290422570778688 ], [ -119.472575062402512, 46.290608820343422 ], [ -119.471196855235419, 46.291976897474591 ], [ -119.471153042594736, 46.291757370600564 ], [ -119.470946308288774, 46.290866237662087 ], [ -119.470890442026317, 46.290520970395974 ], [ -119.470842508793964, 46.28949597038612 ], [ -119.470770842025019, 46.28930837083697 ], [ -119.470778508678421, 46.289060770488234 ], [ -119.470842307970941, 46.288609436998584 ], [ -119.470881241626017, 46.288487170529855 ], [ -119.470873508378432, 46.288217237367348 ], [ -119.470833841147012, 46.288119037100415 ], [ -119.470810107610404, 46.287696636823945 ], [ -119.470817108322137, 46.287529970578305 ], [ -119.470770041854465, 46.287463436818712 ], [ -119.470754640912944, 46.28738723748058 ], [ -119.470794507926911, 46.287317770530393 ], [ -119.470801708421163, 46.287305370459471 ], [ -119.470825908116907, 46.28717417041856 ], [ -119.470714107957363, 46.287064036980745 ], [ -119.47067544171945, 46.286970370461859 ], [ -119.470674440725887, 46.286664570234116 ], [ -119.470753307989085, 46.286248837437086 ], [ -119.471053440613474, 46.28507217006463 ], [ -119.471132441065023, 46.284759970156195 ], [ -119.471416507846754, 46.284213836976747 ], [ -119.471590440363599, 46.283544036581411 ], [ -119.471653706902771, 46.283182636731709 ], [ -119.471693240945896, 46.283028769843639 ], [ -119.471669241032615, 46.282988836968883 ], [ -119.471819107042066, 46.28248603664737 ], [ -119.471921706801325, 46.282123836627719 ], [ -119.472032040848703, 46.281887436526581 ], [ -119.472079839852185, 46.281814369852292 ], [ -119.472095640358717, 46.281769169933938 ], [ -119.472182707028637, 46.281708569883101 ], [ -119.472229706902155, 46.281631170226198 ], [ -119.472309240107009, 46.281611369761222 ], [ -119.472498440377038, 46.281638769966939 ], [ -119.472578307593267, 46.281601036611001 ], [ -119.472641106932755, 46.281518836615312 ], [ -119.472783039912102, 46.281493036412762 ], [ -119.472926107073334, 46.281512636283409 ], [ -119.473352907004951, 46.281323436651967 ], [ -119.473511040055811, 46.28127497002955 ], [ -119.47368510680154, 46.281163236165078 ], [ -119.473874307071583, 46.280992636503392 ], [ -119.474158840012478, 46.280846769628312 ], [ -119.474491307226259, 46.280839636498328 ], [ -119.474593906985518, 46.280797036181141 ], [ -119.475194840257004, 46.280446436283249 ], [ -119.475622307170838, 46.280014169811324 ], [ -119.476001506840888, 46.279564969589529 ], [ -119.476150906691174, 46.279341169598908 ], [ -119.476175307209942, 46.279259769513118 ], [ -119.476562040345101, 46.278837169317136 ], [ -119.476948906668596, 46.278342768926848 ], [ -119.47709170745317, 46.278105636214207 ], [ -119.477415640208307, 46.277333569494466 ], [ -119.477714707326044, 46.276359636003733 ], [ -119.477762239952852, 46.275832168732052 ], [ -119.477769840012101, 46.275642835850725 ], [ -119.477658640240563, 46.275456435967719 ], [ -119.477611039979053, 46.275349368699821 ], [ -119.477548439381536, 46.274999768893942 ], [ -119.477523706932431, 46.274730169158111 ], [ -119.477388506207078, 46.273756635319984 ], [ -119.477286039636184, 46.273542968627368 ], [ -119.477222305897286, 46.273247169251256 ], [ -119.477056639381374, 46.272800835840961 ], [ -119.477005249537427, 46.272387492623722 ], [ -119.478177579452392, 46.271223209379727 ] ], [ [ -119.478607040021316, 46.274013835327317 ], [ -119.478559839324788, 46.274100235357537 ], [ -119.478567906583706, 46.27420356869137 ], [ -119.478615307062753, 46.274256569087022 ], [ -119.478678507007757, 46.274264169131392 ], [ -119.47870943999807, 46.274349169158562 ], [ -119.478631506093734, 46.274553235429543 ], [ -119.478544640246838, 46.274703568864695 ], [ -119.478497106579454, 46.275186168891885 ], [ -119.478916906839871, 46.276585635959982 ], [ -119.478988839985476, 46.276651568740057 ], [ -119.479296840086306, 46.276676235617124 ], [ -119.479541840024609, 46.276630635903672 ], [ -119.47960570695183, 46.276602168786809 ], [ -119.479652507042829, 46.276529169141277 ], [ -119.479636907359335, 46.276254969026688 ], [ -119.479628507129547, 46.276129035832312 ], [ -119.479596907157045, 46.276008369061131 ], [ -119.479565906532031, 46.275774968986724 ], [ -119.479374907178965, 46.275351568763512 ], [ -119.47878110676703, 46.274059435779833 ], [ -119.478717639404806, 46.274020368790872 ], [ -119.478607040021316, 46.274013835327317 ] ], [ [ -119.473867041023709, 46.281375236403889 ], [ -119.473637040380837, 46.281510770143058 ], [ -119.473416507555513, 46.281569436676214 ], [ -119.473266640505528, 46.281604236730772 ], [ -119.473162640187709, 46.281656036217278 ], [ -119.472973507552382, 46.281718436299997 ], [ -119.47264090715025, 46.281797836440717 ], [ -119.47253884014431, 46.281804569612248 ], [ -119.472420040313551, 46.281870169630075 ], [ -119.472324706602151, 46.28199356982342 ], [ -119.4722779075517, 46.282165770007545 ], [ -119.472174907186911, 46.282599836707938 ], [ -119.472080107269377, 46.282755036597884 ], [ -119.472088440904983, 46.28298877009167 ], [ -119.472215040577524, 46.282994970256468 ], [ -119.472372707469219, 46.282915036832222 ], [ -119.472902240348404, 46.282570636318113 ], [ -119.473037640856248, 46.282414636966386 ], [ -119.473202907807206, 46.28230317006188 ], [ -119.473409307061246, 46.282168169713117 ], [ -119.473448240716337, 46.282149236702011 ], [ -119.473582307259761, 46.282011436429435 ], [ -119.473764840829418, 46.28187257006774 ], [ -119.473866707012334, 46.281762236121942 ], [ -119.474001040972965, 46.281619769893993 ], [ -119.474065307465182, 46.281514969857717 ], [ -119.474080640772002, 46.28143343636669 ], [ -119.474017241044493, 46.28138983620024 ], [ -119.473867041023709, 46.281375236403889 ] ] ] } },
{ "type": "Feature", "properties": { "cell_id": "gis-hydro-007", "station_m": 14549.439, "center_x_m": 309247.974, "center_y_m": 5130127.291, "length_m": 2238.375, "width_m": 96.314, "area_m2": 215586.558, "cross_section_source": "synthetic-boundary-width", "mean_depth_m": 0.682305, "mean_velocity_ms": 0.699764, "mean_water_surface_m": 8.676784, "flow_area_m2": 47.201232, "hydraulic_radius_m": 0.681878 }, "geometry": { "type": "Polygon", "coordinates": [ [ [ -119.474625707066323, 46.306260786441882 ], [ -119.474872912610607, 46.30604123791791 ], [ -119.474896245541672, 46.306009437877563 ], [ -119.475427045791093, 46.305768437681337 ], [ -119.475545113086042, 46.305698171005844 ], [ -119.475655312904564, 46.305470837702586 ], [ -119.47570351251359, 46.305379837842061 ], [ -119.475869312217853, 46.30524577132492 ], [ -119.476082512401149, 46.305155571135714 ], [ -119.476320312885775, 46.304920837464344 ], [ -119.476573112665818, 46.304582437340045 ], [ -119.476968246030737, 46.304299437543008 ], [ -119.477126445675793, 46.304151970790457 ], [ -119.477253046388853, 46.303933170825381 ], [ -119.477466712731314, 46.303361637314381 ], [ -119.477553445389887, 46.3029501710988 ], [ -119.477560446101648, 46.302684570569419 ], [ -119.477695246221444, 46.302299237607045 ], [ -119.477796846027658, 46.301725370859003 ], [ -119.477773112491079, 46.301415370715389 ], [ -119.477733645042122, 46.301357637680852 ], [ -119.4776850458681, 46.301212370655811 ], [ -119.477614645428844, 46.301004837347399 ], [ -119.477543645642072, 46.300830837372786 ], [ -119.477527911729723, 46.300669237487767 ], [ -119.477400245509983, 46.300406370581427 ], [ -119.477281244856187, 46.300053370737956 ], [ -119.476965245131126, 46.299439237502916 ], [ -119.476862044983832, 46.299144437012991 ], [ -119.476767245066313, 46.298975437545813 ], [ -119.476474111072605, 46.298626370949769 ], [ -119.47637111174835, 46.298525170659872 ], [ -119.476402311115308, 46.298497570417609 ], [ -119.476552311353615, 46.298512237541217 ], [ -119.476592111773371, 46.29849777027357 ], [ -119.476584111108608, 46.298453037032225 ], [ -119.476481644537671, 46.298374237596128 ], [ -119.476354444477124, 46.298300437338945 ], [ -119.475705110773589, 46.297797037075682 ], [ -119.475507910879273, 46.297661770808261 ], [ -119.475452844787384, 46.29764943706278 ], [ -119.475254643899547, 46.297617770899059 ], [ -119.475215310679445, 46.297546637529877 ], [ -119.475349244034575, 46.297471837577781 ], [ -119.475128110821188, 46.297346037264575 ], [ -119.475040510357374, 46.297316370965817 ], [ -119.47489804462468, 46.2973149705062 ], [ -119.474557844163328, 46.297371970909396 ], [ -119.474114844160212, 46.297358970658706 ], [ -119.473916910689553, 46.297322837666755 ], [ -119.47317924398638, 46.297015370534133 ], [ -119.473157044196668, 46.297006171159836 ], [ -119.473102510858098, 46.296966837275029 ], [ -119.47299910988778, 46.296779970741348 ], [ -119.472951843637617, 46.296772171082083 ], [ -119.472872844226615, 46.296818770596637 ], [ -119.472816710546979, 46.296802037537809 ], [ -119.472682443180489, 46.296683570929922 ], [ -119.472041309924222, 46.296161771150224 ], [ -119.471867043396031, 46.295963037930242 ], [ -119.47093324334574, 46.294601637818708 ], [ -119.470734509704542, 46.294286437355254 ], [ -119.470592642278845, 46.294199570914117 ], [ -119.470568242800567, 46.293979570765188 ], [ -119.470553109276253, 46.293520771025634 ], [ -119.47062364290386, 46.293393370547761 ], [ -119.47092390975709, 46.293049370953007 ], [ -119.471066042518942, 46.292906837734712 ], [ -119.471145309347136, 46.292788037720605 ], [ -119.471224308758153, 46.292592770700885 ], [ -119.471216309133908, 46.292538970555931 ], [ -119.471247842512241, 46.292232370984749 ], [ -119.471153042594736, 46.291757370600564 ], [ -119.470946308288774, 46.290866237662087 ], [ -119.470890442026317, 46.290520970395974 ], [ -119.470842508793964, 46.28949597038612 ], [ -119.470770842025019, 46.28930837083697 ], [ -119.470777506314548, 46.289093142627785 ], [ -119.472179945251071, 46.288783131096125 ], [ -119.47229744149368, 46.289172037414822 ], [ -119.472520242682819, 46.290422570778688 ], [ -119.472599242093821, 46.290690970212616 ], [ -119.472654708791254, 46.291000370307962 ], [ -119.472679042715868, 46.291296637545472 ], [ -119.472727109136557, 46.291520837353751 ], [ -119.472766042791662, 46.291659436957048 ], [ -119.47276670977385, 46.291731437172771 ], [ -119.473020243130279, 46.292185037074439 ], [ -119.473241109966978, 46.292436637397913 ], [ -119.473716443518967, 46.292822370501064 ], [ -119.473961709833944, 46.293087037467458 ], [ -119.474270709887833, 46.293426837305468 ], [ -119.474397643571706, 46.293626637334597 ], [ -119.474698644001336, 46.294245636991157 ], [ -119.474777643412324, 46.294356436844851 ], [ -119.474880510588775, 46.294399370280942 ], [ -119.475038710233804, 46.29456683739312 ], [ -119.475283843360458, 46.294894437474149 ], [ -119.475387043507752, 46.294977837462305 ], [ -119.475490043872554, 46.295137437488904 ], [ -119.475767110983071, 46.295388037134565 ], [ -119.476400843962594, 46.296094370771698 ], [ -119.476496044485643, 46.296186770738331 ], [ -119.476543510518312, 46.29629383682898 ], [ -119.476543711341321, 46.296442370795482 ], [ -119.476472444137386, 46.296493370458222 ], [ -119.477090244462588, 46.297731170720652 ], [ -119.477383445050464, 46.298183637531395 ], [ -119.477827112035783, 46.298741170543607 ], [ -119.477842312154252, 46.298821637304307 ], [ -119.477810911964255, 46.298975570542339 ], [ -119.478056311467569, 46.299280637058132 ], [ -119.478341911996196, 46.299557970609285 ], [ -119.478856445579936, 46.300347770230168 ], [ -119.478912045465691, 46.300499770422796 ], [ -119.478944046043736, 46.300539370630716 ], [ -119.478936712361161, 46.301192037396639 ], [ -119.478921912848207, 46.301233037463305 ], [ -119.478872912028137, 46.301373436975084 ], [ -119.478802446035232, 46.301649570923416 ], [ -119.478661646197253, 46.303313237634349 ], [ -119.478393246733717, 46.30417397063998 ], [ -119.478289845763385, 46.304360770966689 ], [ -119.477942046283303, 46.30507943738511 ], [ -119.477728712911656, 46.305372037970194 ], [ -119.477586112950121, 46.305541571180008 ], [ -119.477396446520927, 46.305730171056531 ], [ -119.477143312729481, 46.30588877078894 ], [ -119.47696204653009, 46.306059170717297 ], [ -119.476764646853269, 46.306247770966962 ], [ -119.476574112618849, 46.306324037508922 ], [ -119.476218846267841, 46.306543237634642 ], [ -119.475648712798346, 46.306820971426681 ], [ -119.475292846059332, 46.30701783806299 ], [ -119.475051909935857, 46.307186928218172 ], [ -119.474784216992234, 46.306605233638216 ], [ -119.474826446530969, 46.306573371185962 ], [ -119.474999846294509, 46.306452571643298 ], [ -119.475110312489676, 46.306346771102483 ], [ -119.475719313020107, 46.305960037800908 ], [ -119.475854113139903, 46.305831171138678 ], [ -119.475988845624997, 46.30561677126888 ], [ -119.4764396465104, 46.305210837494464 ], [ -119.476763312888892, 46.304780771239145 ], [ -119.476810512544887, 46.304694437561814 ], [ -119.476818646398002, 46.304626571104762 ], [ -119.476770846353972, 46.304591771299641 ], [ -119.476557045782627, 46.304812370722679 ], [ -119.476336045757591, 46.305096170789682 ], [ -119.476193713213235, 46.305238637778039 ], [ -119.475884846347725, 46.305461437761885 ], [ -119.475482046329375, 46.305902171547487 ], [ -119.475442646515134, 46.305943571338439 ], [ -119.475332112685237, 46.30598183781408 ], [ -119.474703231672535, 46.306429250515684 ], [ -119.474625707066323, 46.306260786441882 ] ], [ [ -119.471691042297891, 46.292020170460361 ], [ -119.471627908947028, 46.292174637614551 ], [ -119.471445443012044, 46.292399037301834 ], [ -119.471382842414528, 46.293048370854891 ], [ -119.471288443102566, 46.293230371155467 ], [ -119.471137842476224, 46.293404637576778 ], [ -119.471027442875226, 46.293636570626148 ], [ -119.470963842324679, 46.293872037854044 ], [ -119.470964309524376, 46.294051970550974 ], [ -119.47139184303235, 46.294623237451944 ], [ -119.472033109476953, 46.295649037311286 ], [ -119.472160043160855, 46.29601063745848 ], [ -119.472286643873915, 46.296160837251136 ], [ -119.472405643487193, 46.296248370629435 ], [ -119.472445109895617, 46.296251971059803 ], [ -119.4724684438672, 46.296175037691754 ], [ -119.472429443617955, 46.296094971084763 ], [ -119.472349509807572, 46.296029170981534 ], [ -119.472357910037303, 46.295947971112298 ], [ -119.472832643201286, 46.295960237660694 ], [ -119.472887843522045, 46.296008570509038 ], [ -119.472864243173788, 46.296058370667794 ], [ -119.472824244012045, 46.296086371150068 ], [ -119.472665910138147, 46.296143771123361 ], [ -119.472714310570211, 46.296358771017218 ], [ -119.47285691053176, 46.29650417098123 ], [ -119.473283510680886, 46.296805437350692 ], [ -119.473522110295463, 46.297002770640482 ], [ -119.473719644201125, 46.297129037605238 ], [ -119.473909510412824, 46.29717423779072 ], [ -119.474209710671886, 46.297212837506038 ], [ -119.475017110832141, 46.297190837016004 ], [ -119.475111710967155, 46.297157370401791 ], [ -119.475198711042935, 46.297164437422829 ], [ -119.475340843804787, 46.297237837333185 ], [ -119.476116510804189, 46.297851036945943 ], [ -119.476449510771303, 46.298032837243937 ], [ -119.47648084436716, 46.297946770426016 ], [ -119.47643384449367, 46.297763370254387 ], [ -119.476290644144086, 46.297437970696762 ], [ -119.475799511126112, 46.296611437033043 ], [ -119.475427843880581, 46.296187437192557 ], [ -119.475197844278227, 46.296003437284789 ], [ -119.474975710071305, 46.295549170913283 ], [ -119.474635444056304, 46.295232637220295 ], [ -119.474517243573004, 46.295055170811374 ], [ -119.474255710592359, 46.294813237360223 ], [ -119.47382030960793, 46.294449237328443 ], [ -119.473440442955663, 46.294034437157791 ], [ -119.473289643587378, 46.293844037677509 ], [ -119.47289444258773, 46.293456771012252 ], [ -119.472775043409456, 46.293283770871298 ], [ -119.472585309345547, 46.292851237571355 ], [ -119.472236842883291, 46.292453837693287 ], [ -119.47197564287346, 46.292144437180816 ], [ -119.471841242318646, 46.292025970562875 ], [ -119.471691042297891, 46.292020170460361 ] ] ] } },
{ "type": "Feature", "properties": { "cell_id": "gis-hydro-008", "station_m": 16787.814, "center_x_m": 308914.077, "center_y_m": 5132225.257, "length_m": 2238.375, "width_m": 81.88, "area_m2": 183277.212, "cross_section_source": "synthetic-boundary-width", "mean_depth_m": 0.7313, "mean_velocity_ms": 0.732743, "mean_water_surface_m": 6.52256, "flow_area_m2": 45.07764, "hydraulic_radius_m": 0.730638 }, "geometry": { "type": "Polygon", "coordinates": [ [ [ -119.488773230402487, 46.323294057153205 ], [ -119.488563251860157, 46.323137171112748 ], [ -119.488031718034335, 46.322649170805384 ], [ -119.487643452192827, 46.322189637610585 ], [ -119.48748531810142, 46.322080771057145 ], [ -119.48739831802564, 46.321965571282547 ], [ -119.48712925157993, 46.321750771114878 ], [ -119.48666131830467, 46.321261571301804 ], [ -119.486479651499707, 46.320910037527305 ], [ -119.486534517809091, 46.320517170965552 ], [ -119.486502317448554, 46.320221037396507 ], [ -119.486612851278451, 46.319980037972599 ], [ -119.486660717916607, 46.319852970700843 ], [ -119.486675851440936, 46.319569037305421 ], [ -119.486721376877981, 46.319503948112995 ], [ -119.486791134267321, 46.319404215774547 ], [ -119.486823622855738, 46.319089199776855 ], [ -119.486947059305379, 46.318732383691319 ], [ -119.486941872244103, 46.318522852858784 ], [ -119.486886053846234, 46.318365467593829 ], [ -119.486808706802989, 46.318133935376942 ], [ -119.486678486072663, 46.317927222239852 ], [ -119.486497833788192, 46.317816903432089 ], [ -119.486236550535651, 46.317685897942063 ], [ -119.486062130008449, 46.317546935178385 ], [ -119.485578239106047, 46.317400689900445 ], [ -119.485154149765108, 46.317355856400404 ], [ -119.484939914250631, 46.31731717386748 ], [ -119.484726516365882, 46.317325570680183 ], [ -119.484505316558341, 46.317357170827016 ], [ -119.484252117213302, 46.317349170718764 ], [ -119.483080316895922, 46.317253237601527 ], [ -119.482818849468899, 46.31720943813319 ], [ -119.48241491630921, 46.317114638100676 ], [ -119.481188116494081, 46.31679037118883 ], [ -119.480254516226296, 46.316545038170887 ], [ -119.48004051587246, 46.316509171531571 ], [ -119.479249049407102, 46.316238238115822 ], [ -119.479035448618234, 46.316175438250404 ], [ -119.478528915699286, 46.315961571910371 ], [ -119.478008114980142, 46.315615971296978 ], [ -119.476952448645847, 46.314915638307546 ], [ -119.476619715055364, 46.314769838054872 ], [ -119.475305647747291, 46.31424023811023 ], [ -119.474910314599853, 46.31405537174512 ], [ -119.473985713909343, 46.313736038590591 ], [ -119.473794647962109, 46.313669972205126 ], [ -119.47358771387367, 46.313566371925589 ], [ -119.473081247548848, 46.313347838858874 ], [ -119.472740913899173, 46.313134772177634 ], [ -119.472590447501716, 46.312984971838127 ], [ -119.472376846712876, 46.31272403848682 ], [ -119.472083647165547, 46.312262571933836 ], [ -119.471949113422397, 46.312049438498093 ], [ -119.471536513656233, 46.311203238612258 ], [ -119.471513513696024, 46.311014771872586 ], [ -119.471551313169215, 46.310902038526564 ], [ -119.471560646757865, 46.310874238962967 ], [ -119.471718446837883, 46.310272238888828 ], [ -119.471986513330606, 46.309370971520501 ], [ -119.472040664825315, 46.309249240279897 ], [ -119.472907924827439, 46.309525803345551 ], [ -119.472833513087593, 46.309685571957765 ], [ -119.472643913252554, 46.310306371675466 ], [ -119.472581112872547, 46.310744172064823 ], [ -119.472629246927923, 46.311089572010005 ], [ -119.472613246638915, 46.311202438655251 ], [ -119.472613513015588, 46.311445372046158 ], [ -119.47277971332538, 46.311968371633952 ], [ -119.473105114273778, 46.312555372019823 ], [ -119.47325504687737, 46.312736572233938 ], [ -119.473445513477131, 46.312921438741697 ], [ -119.473563713960402, 46.313004438258318 ], [ -119.474181514285604, 46.313296972045514 ], [ -119.474347313989895, 46.313324971617789 ], [ -119.474538048006806, 46.31338843812442 ], [ -119.474735048118603, 46.313483038342561 ], [ -119.475234114166682, 46.313521771739289 ], [ -119.475496447317866, 46.313574571669022 ], [ -119.475701248311935, 46.313669171565458 ], [ -119.476065647428513, 46.313764838576454 ], [ -119.476088647388721, 46.313746238467509 ], [ -119.476081314746693, 46.313723971512708 ], [ -119.475931314508429, 46.31365063826378 ], [ -119.47589904755371, 46.313628838430006 ], [ -119.475874847857938, 46.313593371637175 ], [ -119.476009647977762, 46.313581371367697 ], [ -119.476350048221605, 46.313691171902377 ], [ -119.476674248393948, 46.313859571823031 ], [ -119.477846648058815, 46.314401238070538 ], [ -119.478439914676926, 46.314685438325604 ], [ -119.47868571478574, 46.314824038229688 ], [ -119.478789115756058, 46.314898238084886 ], [ -119.478868314949565, 46.315058638160266 ], [ -119.479020888428067, 46.31521016126554 ], [ -119.479577942387081, 46.315587223311617 ], [ -119.479971107061985, 46.315802813788345 ], [ -119.48078124694787, 46.316053626443264 ], [ -119.481298463027883, 46.316217265787436 ], [ -119.481980495507685, 46.316365563161085 ], [ -119.482355910756127, 46.316449321401052 ], [ -119.482796962879917, 46.316485501419692 ], [ -119.483309289491345, 46.316169164943553 ], [ -119.483573540346427, 46.316006000500643 ], [ -119.483877532310842, 46.316123279013262 ], [ -119.484100916198955, 46.316223037454627 ], [ -119.484464316403049, 46.316368171220333 ], [ -119.484583249422158, 46.316356370631446 ], [ -119.484741117136892, 46.316380037924503 ], [ -119.484986553058889, 46.316362261583514 ], [ -119.485244640831965, 46.31645676035923 ], [ -119.485491285854295, 46.316553035522006 ], [ -119.485715178563467, 46.31668275299748 ], [ -119.486059299756349, 46.316808750351406 ], [ -119.486346067763961, 46.316913745888485 ], [ -119.486807389487126, 46.316999105908572 ], [ -119.486973909240831, 46.317144872912699 ], [ -119.487112069244446, 46.317265813431 ], [ -119.48707511364421, 46.317323892611284 ], [ -119.487245906870427, 46.317738506285544 ], [ -119.487442348215538, 46.318126704336201 ], [ -119.487625539402586, 46.318748748571444 ], [ -119.487671403013124, 46.319392126231691 ], [ -119.48784980670392, 46.319588724877306 ], [ -119.487952894473565, 46.320223213380856 ], [ -119.488123702267274, 46.320637827363349 ], [ -119.488131257583575, 46.321040413700231 ], [ -119.488397064036747, 46.321567380982351 ], [ -119.488961528677834, 46.322287224899341 ], [ -119.489556627676023, 46.322815383087097 ], [ -119.489623118829599, 46.322920571176624 ], [ -119.489908652764058, 46.323157437296715 ], [ -119.490368518780372, 46.323498370541863 ], [ -119.490582119569225, 46.323610837217011 ], [ -119.490787719693273, 46.323781837311628 ], [ -119.491113545929636, 46.324039723029522 ], [ -119.488773230402487, 46.323294057153205 ] ], [ [ -119.483553470529529, 46.316292643813981 ], [ -119.48331247040332, 46.316429705285373 ], [ -119.483189581274502, 46.316437721338765 ], [ -119.48306932781793, 46.316561563968357 ], [ -119.483307129343075, 46.316657474582215 ], [ -119.48378886425931, 46.316798525173269 ], [ -119.483985858127909, 46.316773464567298 ], [ -119.484272349353489, 46.316856276419578 ], [ -119.484452399168873, 46.316833846874431 ], [ -119.484812796392262, 46.316855362277458 ], [ -119.484833529029217, 46.316752510410673 ], [ -119.484850074557997, 46.316661379104175 ], [ -119.484648201626186, 46.316543285336493 ], [ -119.484336296401807, 46.31646442210419 ], [ -119.484111251821687, 46.316377602346954 ], [ -119.483553470529529, 46.316292643813981 ] ] ] } },
{ "type": "Feature", "properties": { "cell_id": "gis-hydro-009", "station_m": 19026.189, "center_x_m": 308331.216, "center_y_m": 5133850.092, "length_m": 2238.375, "width_m": 83.937, "area_m2": 187881.41, "cross_section_source": "synthetic-boundary-width", "mean_depth_m": 0.636377, "mean_velocity_ms": 0.668082, "mean_water_surface_m": 4.122278, "flow_area_m2": 49.438786, "hydraulic_radius_m": 0.636102 }, "geometry": { "type": "Polygon", "coordinates": [ [ [ -119.491343330847954, 46.32420181814387 ], [ -119.491619719114297, 46.32438457046014 ], [ -119.491944453080478, 46.324647570846004 ], [ -119.492110653390299, 46.324819570810703 ], [ -119.49224585307509, 46.325000970413988 ], [ -119.492689653248746, 46.325504437406643 ], [ -119.492911120473494, 46.325792037647354 ], [ -119.492989920102005, 46.325862037094353 ], [ -119.493069719683547, 46.32588303734213 ], [ -119.493077319742795, 46.325738837059212 ], [ -119.492997719943759, 46.325600370428177 ], [ -119.492895120184485, 46.32542337035499 ], [ -119.492578453477208, 46.325110837135995 ], [ -119.492475120141592, 46.324964570398436 ], [ -119.492308452632074, 46.324828637607553 ], [ -119.492260920005236, 46.32477103705083 ], [ -119.492245119498719, 46.324717637146662 ], [ -119.492372119776803, 46.324701237405137 ], [ -119.492561919394333, 46.324872637203612 ], [ -119.492688653295716, 46.325031837510473 ], [ -119.492830853692269, 46.325145837306543 ], [ -119.493007120126549, 46.325255237395503 ], [ -119.493250720546826, 46.325406637416471 ], [ -119.493434253028994, 46.32576257071176 ], [ -119.4935368538288, 46.326255370410912 ], [ -119.493562120071758, 46.327087437569695 ], [ -119.493585454043341, 46.327275770636888 ], [ -119.493553720882488, 46.327330570609867 ], [ -119.493387653761033, 46.327478037425855 ], [ -119.493254121011447, 46.327638637738183 ], [ -119.492921054450179, 46.328359637615307 ], [ -119.492819253820912, 46.328629037345628 ], [ -119.492684721118309, 46.328834437572993 ], [ -119.492360454351797, 46.329138637866016 ], [ -119.492115654195985, 46.329314971362926 ], [ -119.491981521058378, 46.329452837984498 ], [ -119.49157845362285, 46.330271637747359 ], [ -119.491222521330187, 46.330842038144894 ], [ -119.49109605380545, 46.331038371480631 ], [ -119.490961720885366, 46.331131237674583 ], [ -119.490644654613106, 46.331304571579075 ], [ -119.490550121072246, 46.331396637659246 ], [ -119.490431853994778, 46.331579238291262 ], [ -119.490313054164019, 46.331851971663049 ], [ -119.489981054149908, 46.332349637965471 ], [ -119.489807254821415, 46.33254683809875 ], [ -119.489553854653323, 46.332759438352298 ], [ -119.489332520616912, 46.332899238274088 ], [ -119.487235854272896, 46.334186971551929 ], [ -119.487100453765066, 46.334230371628429 ], [ -119.487006454018058, 46.334290838843003 ], [ -119.486864254662066, 46.334424638796825 ], [ -119.485890654192019, 46.335044371905965 ], [ -119.485518720569786, 46.335196372016853 ], [ -119.485225521022457, 46.335360171790043 ], [ -119.485036320752414, 46.335422838998404 ], [ -119.484141720733902, 46.335878772405614 ], [ -119.482685853634806, 46.33656743883963 ], [ -119.482234654224939, 46.336869772818005 ], [ -119.482028720089517, 46.336982239300873 ], [ -119.481150120359985, 46.337388239145184 ], [ -119.480825920187655, 46.337512372716006 ], [ -119.480596053773681, 46.337575839184609 ], [ -119.480453320623809, 46.337596972866514 ], [ -119.480318920068981, 46.337577372953703 ], [ -119.480255919906469, 46.337556239264174 ], [ -119.480066120288939, 46.337443439189911 ], [ -119.479930453404435, 46.337396839775288 ], [ -119.479836120686613, 46.337403372862454 ], [ -119.478972919817565, 46.337777572912835 ], [ -119.47875925347509, 46.33788103970695 ], [ -119.478094853881927, 46.338102573189005 ], [ -119.477800196337014, 46.338234487470089 ], [ -119.476734723710621, 46.337564407977823 ], [ -119.477143719578237, 46.33740317314858 ], [ -119.478268052822415, 46.337099773141205 ], [ -119.478870053681632, 46.336983372937354 ], [ -119.479985853507714, 46.336702639140938 ], [ -119.480476320584032, 46.336520772585075 ], [ -119.481481853997408, 46.336107572838038 ], [ -119.481972253439054, 46.335925839365032 ], [ -119.482494920875908, 46.335712039450321 ], [ -119.483460720463682, 46.335358172421238 ], [ -119.484005854066908, 46.335103172191793 ], [ -119.484504853520775, 46.334835838940556 ], [ -119.485170120919207, 46.334506372146372 ], [ -119.485589254197393, 46.334272238527141 ], [ -119.486665320197858, 46.333569371849805 ], [ -119.487574320164327, 46.332748438066815 ], [ -119.48777272083467, 46.332622638354223 ], [ -119.488278654406159, 46.332134638602888 ], [ -119.488784720125409, 46.331475638151524 ], [ -119.488824720327727, 46.331456638125402 ], [ -119.488880253619314, 46.331451038343339 ], [ -119.488951253406057, 46.331463038286202 ], [ -119.489093720179284, 46.331419438433294 ], [ -119.489512921092171, 46.331063638222552 ], [ -119.49018445354487, 46.330072571391277 ], [ -119.490920520947554, 46.329399571262122 ], [ -119.491007320200296, 46.32925377080393 ], [ -119.492137720797345, 46.327959970592843 ], [ -119.49266692070573, 46.327111371107122 ], [ -119.49272211998597, 46.326808570741349 ], [ -119.49272972004519, 46.326664437566421 ], [ -119.492706653490814, 46.326629171071787 ], [ -119.492642719969425, 46.326598970960646 ], [ -119.49254811983441, 46.326524370938124 ], [ -119.492452920351894, 46.326377970738868 ], [ -119.492397453654462, 46.326221770670422 ], [ -119.492278653823675, 46.326012970537434 ], [ -119.491675653011413, 46.325377970741641 ], [ -119.490923119160584, 46.324804837442258 ], [ -119.490723942057983, 46.324674561034833 ], [ -119.491343330847954, 46.32420181814387 ] ] ] } },
{ "type": "Feature", "properties": { "cell_id": "gis-hydro-010", "station_m": 21264.565, "center_x_m": 309985.352, "center_y_m": 5135241.092, "length_m": 2238.375, "width_m": 112.854, "area_m2": 252610.127, "cross_section_source": "synthetic-boundary-width", "mean_depth_m": 0.63871, "mean_velocity_ms": 0.669711, "mean_water_surface_m": 1.887826, "flow_area_m2": 49.318588, "hydraulic_radius_m": 0.638429 }, "geometry": { "type": "Polygon", "coordinates": [ [ [ -119.456868623864608, 46.351839276289468 ], [ -119.45688891968291, 46.351835642693921 ], [ -119.457918719386242, 46.351570642836606 ], [ -119.459985520327663, 46.351035642637655 ], [ -119.460381920022286, 46.350968642364563 ], [ -119.461228520214291, 46.350756842618374 ], [ -119.461577119864899, 46.350641375729879 ], [ -119.462455253435238, 46.350285041972136 ], [ -119.46274885358811, 46.350161775571628 ], [ -119.463548119895236, 46.349883442254509 ], [ -119.464165520655456, 46.349595442231163 ], [ -119.465773253670051, 46.348561841877547 ], [ -119.466018653173364, 46.348358441373996 ], [ -119.466508720684672, 46.347884441549638 ], [ -119.466683120401228, 46.347619774482801 ], [ -119.466769920694503, 46.347428841685428 ], [ -119.46677745311905, 46.346978641565393 ], [ -119.46672225383881, 46.346502974868791 ], [ -119.466737452916789, 46.346268441536985 ], [ -119.466848119934951, 46.345865574704312 ], [ -119.466840253499058, 46.345645174527846 ], [ -119.467133453046387, 46.345225041098672 ], [ -119.467821920187532, 46.344575641181549 ], [ -119.468137919912607, 46.344244774192667 ], [ -119.468574053432846, 46.343906774539867 ], [ -119.468794920269573, 46.343740040922633 ], [ -119.469016253265437, 46.343555374079308 ], [ -119.469515252719333, 46.343188974292261 ], [ -119.469792319829821, 46.342926440896086 ], [ -119.470171652688251, 46.342405374290834 ], [ -119.470686653471688, 46.341867574098302 ], [ -119.470860053235228, 46.341751373685192 ], [ -119.471058253082546, 46.341585040793404 ], [ -119.471493320055572, 46.341242640638193 ], [ -119.471722920092901, 46.340990240254392 ], [ -119.472585852504238, 46.340210973484844 ], [ -119.473226253224681, 46.339697573972209 ], [ -119.473946319297767, 46.339087840193237 ], [ -119.475094053107725, 46.338433039855737 ], [ -119.475157519429402, 46.338373240288405 ], [ -119.475347719652476, 46.338261173214413 ], [ -119.475529319863242, 46.338189573268942 ], [ -119.4758939198029, 46.337961173069289 ], [ -119.476479453173383, 46.337665039818496 ], [ -119.477143719578237, 46.33740317314858 ], [ -119.478268052822415, 46.337099773141205 ], [ -119.478870053681632, 46.336983372937354 ], [ -119.479985853507714, 46.336702639140938 ], [ -119.480476320584032, 46.336520772585075 ], [ -119.481481853997408, 46.336107572838038 ], [ -119.481972253439054, 46.335925839365032 ], [ -119.482494920875908, 46.335712039450321 ], [ -119.482629855854356, 46.3356626003022 ], [ -119.483626036913506, 46.336122709529249 ], [ -119.482685853634806, 46.33656743883963 ], [ -119.482234654224939, 46.336869772818005 ], [ -119.482028720089517, 46.336982239300873 ], [ -119.481150120359985, 46.337388239145184 ], [ -119.480825920187655, 46.337512372716006 ], [ -119.480596053773681, 46.337575839184609 ], [ -119.480453320623809, 46.337596972866514 ], [ -119.480318920068981, 46.337577372953703 ], [ -119.480255919906469, 46.337556239264174 ], [ -119.480066120288939, 46.337443439189911 ], [ -119.479930453404435, 46.337396839775288 ], [ -119.479836120686613, 46.337403372862454 ], [ -119.478972919817565, 46.337777572912835 ], [ -119.47875925347509, 46.33788103970695 ], [ -119.478094853881927, 46.338102573189005 ], [ -119.477587652940215, 46.338329639478999 ], [ -119.476733319500639, 46.338487639716 ], [ -119.476550920159838, 46.33855917318013 ], [ -119.475253719905481, 46.339320773630867 ], [ -119.474960720140643, 46.339583573614412 ], [ -119.474097319489104, 46.340272773823351 ], [ -119.473583053322557, 46.340612373446739 ], [ -119.473243320060888, 46.340993240076251 ], [ -119.473085919545852, 46.341177040628864 ], [ -119.472760519637973, 46.341557240296417 ], [ -119.472151719930565, 46.342236374067859 ], [ -119.471795520220738, 46.34254117432782 ], [ -119.471178253689388, 46.343206973933761 ], [ -119.470465853229172, 46.343906440525799 ], [ -119.469508520465325, 46.344957774571569 ], [ -119.469160653350542, 46.345298174721385 ], [ -119.468573920244495, 46.345697974343437 ], [ -119.468361120666742, 46.345900574522823 ], [ -119.467838519824056, 46.346681174477865 ], [ -119.467767320254779, 46.346939374476989 ], [ -119.467633453493875, 46.347423641456949 ], [ -119.467388520149726, 46.348072441556631 ], [ -119.466841920434305, 46.348538841395296 ], [ -119.466676253918351, 46.348717774879802 ], [ -119.466248053428174, 46.349010641313278 ], [ -119.465852520498245, 46.349284574832446 ], [ -119.465670253305248, 46.349450641534396 ], [ -119.465361120063037, 46.349614841757685 ], [ -119.465084653340583, 46.349787175472223 ], [ -119.465005053541546, 46.349856441778094 ], [ -119.463152520371153, 46.350801041849166 ], [ -119.461917853079598, 46.351313575788716 ], [ -119.461655853939746, 46.351400175631085 ], [ -119.461062053527826, 46.351543575681994 ], [ -119.460492920011333, 46.351686375653351 ], [ -119.459985520327663, 46.351913175812676 ], [ -119.459399253380809, 46.352033842677479 ], [ -119.458568520289504, 46.352389042489698 ], [ -119.458289748132827, 46.352495905844037 ], [ -119.456868623864608, 46.351839276289468 ] ], [ [ -119.467853853130848, 46.344979841339644 ], [ -119.467742319347977, 46.345058840885272 ], [ -119.467418120216152, 46.345353841570898 ], [ -119.467267719372344, 46.345550574611046 ], [ -119.467156652789129, 46.346043441671945 ], [ -119.467205319597852, 46.346127974751596 ], [ -119.467299653356193, 46.346116774600162 ], [ -119.467395053661761, 46.346056241451606 ], [ -119.467473720101935, 46.345969041277279 ], [ -119.467631520181982, 46.345736041349717 ], [ -119.467885719480051, 46.345537174223871 ], [ -119.467948253483371, 46.34543224152236 ], [ -119.467996453092425, 46.345035374192115 ], [ -119.467955920136788, 46.344968640952921 ], [ -119.467853853130848, 46.344979841339644 ] ] ] } }
]
}
