{
"type": "FeatureCollection",
"name": "hydraulic_cells",
"crs": { "type": "name", "properties": { "name": "urn:ogc:def:crs:OGC:1.3:CRS84" } },
"features": [
{ "type": "Feature", "properties": { "cell_id": "gis-hydro-001", "station_m": 784.327, "center_x_m": 568756.518, "center_y_m": 4825004.542, "length_m": 1568.654, "width_m": 24.207, "area_m2": 37973.086, "cross_section_source": "synthetic-boundary-width", "mean_depth_m": 0.647746, "mean_velocity_ms": 0.672828, "mean_water_surface_m": 18.825322, "flow_area_m2": 15.610528, "hydraulic_radius_m": 0.644667 }, "geometry": { "type": "Polygon", "coordinates": [ [ [ -116.152762018054389, 43.577371336104399 ], [ -116.152760073898889, 43.577368841676105 ], [ -116.152510230275496, 43.577118998799129 ], [ -116.152381738912439, 43.576954815341956 ], [ -116.152360324725805, 43.576883432139269 ], [ -116.152296079044262, 43.576854878382221 ], [ -116.15224967851826, 43.576797771581333 ], [ -116.152288939941499, 43.576740664726252 ], [ -116.152260386652102, 43.576704973008582 ], [ -116.15214617245401, 43.576676419166908 ], [ -116.152049804451963, 43.576505098093989 ], [ -116.152117619164642, 43.576505098093975 ], [ -116.152110481102397, 43.576458698223036 ], [ -116.151876526430925, 43.576359488631368 ], [ -116.151348326475556, 43.575909288257051 ], [ -116.150774792541441, 43.575535755275922 ], [ -116.150419992349626, 43.575392955268143 ], [ -116.149951992480212, 43.575283088466385 ], [ -116.149683429652853, 43.575209481728045 ], [ -116.148781992286388, 43.575002689152427 ], [ -116.148562703939518, 43.574977483808723 ], [ -116.14839495219374, 43.574988192085769 ], [ -116.14822719940743, 43.574991760757165 ], [ -116.148159384694807, 43.574977483808723 ], [ -116.14807232530859, 43.574958555671223 ], [ -116.147596791974081, 43.574886955257767 ], [ -116.147156442210687, 43.574749055942952 ], [ -116.146467587990955, 43.574409982356237 ], [ -116.146039284487927, 43.574163708738531 ], [ -116.145732333245235, 43.573871034510432 ], [ -116.145386121619808, 43.573292825362316 ], [ -116.145171970388574, 43.572928768057452 ], [ -116.14489714250692, 43.572568279628463 ], [ -116.144811481598211, 43.572486189290728 ], [ -116.144779359277692, 43.572289882774385 ], [ -116.144682129599346, 43.572104833006385 ], [ -116.145362997856068, 43.572290064129241 ], [ -116.145590390901077, 43.572515155224295 ], [ -116.145903655062654, 43.573103659042111 ], [ -116.146274850946369, 43.573556946325745 ], [ -116.146770969162006, 43.573992386547623 ], [ -116.147131457952398, 43.574242230335585 ], [ -116.14768825177795, 43.57451705851134 ], [ -116.14801661720729, 43.57460628799258 ], [ -116.148327137481104, 43.574691949406471 ], [ -116.148409227277625, 43.574670533499066 ], [ -116.149223003829348, 43.574759763506712 ], [ -116.149997518957761, 43.574963207610764 ], [ -116.150836279767717, 43.575180927931086 ], [ -116.151499393261062, 43.575525088557022 ], [ -116.151907036964488, 43.575694891943748 ], [ -116.152216326286748, 43.576107088362875 ], [ -116.152797327091804, 43.57677135560639 ], [ -116.152948193054257, 43.576892155283346 ], [ -116.153295326592669, 43.577276555066504 ], [ -116.153509970070814, 43.577574739604628 ], [ -116.152762018054389, 43.577371336104399 ] ], [ [ -116.146035715456819, 43.573810358400138 ], [ -116.146042853519049, 43.573881742230355 ], [ -116.146146360623817, 43.57401023396686 ], [ -116.146239159594757, 43.574120878801907 ], [ -116.146342665658992, 43.574192261510142 ], [ -116.146624631602876, 43.574306476230475 ], [ -116.146837389559309, 43.574442715837471 ], [ -116.146931582845582, 43.574417121275062 ], [ -116.14673672519298, 43.574217155843222 ], [ -116.146406911340534, 43.574045925020229 ], [ -116.146035715456819, 43.573810358400138 ] ], [ [ -116.147441977185665, 43.574677672387018 ], [ -116.147259948274922, 43.574563457616868 ], [ -116.14718856349063, 43.574559888920035 ], [ -116.147038658981486, 43.574492074594716 ], [ -116.147031519878723, 43.574567027067282 ], [ -116.147259948274922, 43.574645549646128 ], [ -116.147466960403435, 43.574766901630255 ], [ -116.147499083764473, 43.574738348377231 ], [ -116.147441977185665, 43.574677672387018 ] ] ] } },
{ "type": "Feature", "properties": { "cell_id": "gis-hydro-002", "station_m": 2352.981, "center_x_m": 567789.751, "center_y_m": 4826062.573, "length_m": 1568.654, "width_m": 28.17, "area_m2": 44189.728, "cross_section_source": "synthetic-boundary-width", "mean_depth_m": 0.608609, "mean_velocity_ms": 0.645989, "mean_water_surface_m": 17.191058, "flow_area_m2": 16.256963, "hydraulic_radius_m": 0.606521 }, "geometry": { "type": "Polygon", "coordinates": [ [ [ -116.156749380209249, 43.580405344182317 ], [ -116.157143928334932, 43.580658688852559 ], [ -116.157792994621303, 43.580955155442219 ], [ -116.15824599519523, 43.581108955475159 ], [ -116.158585728456899, 43.581147488524209 ], [ -116.158955595578874, 43.581268354797679 ], [ -116.159453929091114, 43.581526488363899 ], [ -116.1596303953079, 43.581670354710347 ], [ -116.159687876478841, 43.581744670370924 ], [ -116.159931390534823, 43.581897399566657 ], [ -116.160341038306456, 43.582297895322611 ], [ -116.160759396386908, 43.582876954902289 ], [ -116.160872596064507, 43.583096555070675 ], [ -116.161058398991543, 43.583375837347731 ], [ -116.160962078854055, 43.583418621507462 ], [ -116.160858571749287, 43.5834043442959 ], [ -116.16083715652212, 43.583422190433012 ], [ -116.160787188005543, 43.583536404982141 ], [ -116.160780048902794, 43.583729141354034 ], [ -116.160747927622822, 43.583836216765832 ], [ -116.160772911881111, 43.583978983936582 ], [ -116.160708666199568, 43.584000399548273 ], [ -116.160701527096833, 43.584246673636045 ], [ -116.160608728125922, 43.584328765277199 ], [ -116.160533775351055, 43.584532209460647 ], [ -116.160490944896694, 43.584649993017727 ], [ -116.16033390024424, 43.584853436115544 ], [ -116.160373329193419, 43.58507235525547 ], [ -116.160229729278868, 43.585297355281057 ], [ -116.160229729278868, 43.585451088446888 ], [ -116.160251809407171, 43.585624382138249 ], [ -116.16054091445379, 43.585849240665596 ], [ -116.161026324535612, 43.586284682440429 ], [ -116.161201214343606, 43.586491696294154 ], [ -116.161336844809412, 43.586502403277152 ], [ -116.161411796543717, 43.586563079410951 ], [ -116.161668779269874, 43.586980674713601 ], [ -116.162018396562559, 43.587306688518389 ], [ -116.162267530541868, 43.587498755608543 ], [ -116.162690197473012, 43.587932555248919 ], [ -116.162745152324561, 43.587978267377451 ], [ -116.162890106863898, 43.588534867136168 ], [ -116.162825797763361, 43.588486955586021 ], [ -116.162033330304396, 43.587822555316642 ], [ -116.161836997174817, 43.58769088840959 ], [ -116.16156170313397, 43.587508915993141 ], [ -116.161408228553157, 43.58742682416662 ], [ -116.161218130302402, 43.587174755185501 ], [ -116.161108415372667, 43.587027074012809 ], [ -116.161058447896636, 43.587027074012809 ], [ -116.160983495121783, 43.587069904567251 ], [ -116.160945877742023, 43.587063692676608 ], [ -116.160903440609445, 43.587056684891365 ], [ -116.160632776944254, 43.586655149796854 ], [ -116.160229396308026, 43.585955955052036 ], [ -116.160063396821258, 43.585802288747779 ], [ -116.159670031323344, 43.58536740047402 ], [ -116.159686196016708, 43.585236888910366 ], [ -116.159731529995469, 43.585011888658741 ], [ -116.15974855312929, 43.584842729592957 ], [ -116.159848638958763, 43.584782077351491 ], [ -116.159875129910077, 43.584616688491046 ], [ -116.160137595209065, 43.584364456998046 ], [ -116.160244671344941, 43.584068214471138 ], [ -116.160348177409205, 43.583854063528676 ], [ -116.160330331213132, 43.58365061856086 ], [ -116.160366529304724, 43.583442288718047 ], [ -116.160396796353353, 43.583321554943723 ], [ -116.160381729423207, 43.583211755370016 ], [ -116.160276128764295, 43.582997688060757 ], [ -116.159876195416729, 43.582536488186634 ], [ -116.159400595488066, 43.582075354878057 ], [ -116.159192450218214, 43.58193125432885 ], [ -116.15903471465127, 43.581866023123339 ], [ -116.158556442631706, 43.581783931892666 ], [ -116.158388689845381, 43.581741102099748 ], [ -116.158460074629673, 43.581612610276792 ], [ -116.158520750239546, 43.581587626289163 ], [ -116.158599272045493, 43.581612610276792 ], [ -116.158649241602618, 43.581584057254908 ], [ -116.158709918253038, 43.581580488220432 ], [ -116.15871348728416, 43.581537657529012 ], [ -116.158677794892, 43.581512673510275 ], [ -116.15859213502381, 43.581494826807109 ], [ -116.15846721269186, 43.581469842770602 ], [ -116.158288753852759, 43.581473412565359 ], [ -116.157864019380852, 43.581309228921398 ], [ -116.157460700136127, 43.581123631217274 ], [ -116.157271533163154, 43.581102216843533 ], [ -116.157107350448484, 43.581059386565606 ], [ -116.157182303223351, 43.580998709407012 ], [ -116.157128765675665, 43.580938033694821 ], [ -116.157046673798064, 43.580888064395488 ], [ -116.156997611586476, 43.580918695875638 ], [ -116.156968151992118, 43.580880926243843 ], [ -116.156863484750843, 43.580843711481492 ], [ -116.156749380209249, 43.580405344182317 ] ] ] } },
{ "type": "Feature", "properties": { "cell_id": "gis-hydro-003", "station_m": 3921.635, "center_x_m": 566847.443, "center_y_m": 4827054.552, "length_m": 1568.654, "width_m": 30.812, "area_m2": 48333.285, "cross_section_source": "synthetic-boundary-width", "mean_depth_m": 0.639479, "mean_velocity_ms": 0.667223, "mean_water_surface_m": 15.674083, "flow_area_m2": 15.741233, "hydraulic_radius_m": 0.636637 }, "geometry": { "type": "Polygon", "coordinates": [ [ [ -116.175002638524759, 43.59733570675494 ], [ -116.174999713965306, 43.597135024970498 ], [ -116.174956883510944, 43.596624629766154 ], [ -116.174842668272291, 43.596146358097904 ], [ -116.174525010976808, 43.595614548310657 ], [ -116.174289444518379, 43.595257629788833 ], [ -116.174168091217538, 43.595089877827021 ], [ -116.173978924244594, 43.59496852460353 ], [ -116.173711234425141, 43.594822188118926 ], [ -116.173447114677302, 43.594707974636563 ], [ -116.173000966018762, 43.594483115291233 ], [ -116.172399333508537, 43.594059687933765 ], [ -116.172036800069122, 43.593840088572406 ], [ -116.171775073549185, 43.593642989550396 ], [ -116.171744609839607, 43.593555125932014 ], [ -116.17161611847655, 43.593515864551385 ], [ -116.171495580954243, 43.593408305962143 ], [ -116.17143409060634, 43.593241036430804 ], [ -116.171601842352146, 43.593405219184149 ], [ -116.171630395641515, 43.593394511921829 ], [ -116.171591134218275, 43.593319558771363 ], [ -116.171505473309566, 43.59314823757996 ], [ -116.171312737305499, 43.5927806113773 ], [ -116.171216369303465, 43.592577166434133 ], [ -116.171177107880212, 43.592473659887098 ], [ -116.171098586074265, 43.592459383315905 ], [ -116.171048617557688, 43.592309477606754 ], [ -116.170923695225724, 43.59208818750826 ], [ -116.170695266829512, 43.591788375374605 ], [ -116.170315732107525, 43.591435688415679 ], [ -116.169832532119614, 43.591117354676513 ], [ -116.169485198798739, 43.590963554589209 ], [ -116.169039799324523, 43.590672555220458 ], [ -116.167438998346469, 43.590348555301262 ], [ -116.166464998311397, 43.589986088823849 ], [ -116.165581597558727, 43.589629155007671 ], [ -116.165188997893694, 43.589502754838144 ], [ -116.164927400140201, 43.589435232948595 ], [ -116.165306001921323, 43.589124658982279 ], [ -116.165320063537521, 43.58912932804499 ], [ -116.165698398523972, 43.58927923413858 ], [ -116.166215931966789, 43.589415154984671 ], [ -116.166736931427906, 43.589618355127556 ], [ -116.167229580503701, 43.589793197637583 ], [ -116.167333398728118, 43.589964288718654 ], [ -116.167393798596535, 43.590024688541355 ], [ -116.167654314975636, 43.590071594961287 ], [ -116.167814928659197, 43.590110856327904 ], [ -116.167854190082423, 43.590003780018712 ], [ -116.167825635752507, 43.589943103585028 ], [ -116.167952598571347, 43.589980888633541 ], [ -116.168068341313685, 43.590039471389289 ], [ -116.168450244290696, 43.590146547634966 ], [ -116.168957069599699, 43.590289315666297 ], [ -116.169945799431929, 43.590755088022149 ], [ -116.170323332166774, 43.590996688296642 ], [ -116.170693332477086, 43.5911997549821 ], [ -116.171433133315205, 43.592039687989406 ], [ -116.171689799719061, 43.592440355167376 ], [ -116.171890946358232, 43.592762765000167 ], [ -116.172026575783519, 43.593116114142894 ], [ -116.172108667661107, 43.593312420586535 ], [ -116.172180333389534, 43.593538154721443 ], [ -116.172656133100688, 43.593851088153201 ], [ -116.172904596976181, 43.594065519288215 ], [ -116.173365022799715, 43.59424754874869 ], [ -116.173954733913618, 43.594581288217704 ], [ -116.174521440905167, 43.594939971134309 ], [ -116.174871222602206, 43.595414673626543 ], [ -116.175121065185081, 43.595939345799806 ], [ -116.175285248940298, 43.5965603843255 ], [ -116.175349494621827, 43.597177855114083 ], [ -116.175456569717184, 43.597474097926785 ], [ -116.175456569717184, 43.597588312187511 ], [ -116.175533169626235, 43.597677266505535 ], [ -116.175002638524759, 43.59733570675494 ] ] ] } },
{ "type": "Feature", "properties": { "cell_id": "gis-hydro-004", "station_m": 5490.289, "center_x_m": 565521.108, "center_y_m": 4827797.83, "length_m": 1568.654, "width_m": 13.387, "area_m2": 21000.353, "cross_section_source": "synthetic-boundary-width", "mean_depth_m": 0.66603, "mean_velocity_ms": 0.685102, "mean_water_surface_m": 14.150307, "flow_area_m2": 15.33173, "hydraulic_radius_m": 0.662369 }, "geometry": { "type": "Polygon", "coordinates": [ [ [ -116.18342643077662, 43.601050989056866 ], [ -116.184508041535125, 43.600101022314256 ], [ -116.184707916641926, 43.599901146708518 ], [ -116.185193327764253, 43.599647734434697 ], [ -116.185456136439427, 43.59958788756532 ], [ -116.18599233705956, 43.599461554277269 ], [ -116.186377536447793, 43.599423154270283 ], [ -116.186835155951528, 43.599458567276052 ], [ -116.18748474874802, 43.599569212062612 ], [ -116.187675774114439, 43.599535260972438 ], [ -116.187956137636192, 43.599631754327184 ], [ -116.188266401938662, 43.599822624667169 ], [ -116.188444861818297, 43.599997515144857 ], [ -116.188805349568128, 43.60037584999958 ], [ -116.189270203903746, 43.600844754263527 ], [ -116.189365712424788, 43.601036149721068 ], [ -116.189443867749986, 43.601097917792757 ], [ -116.188817761640053, 43.601093049688103 ], [ -116.188844610991382, 43.600879104730872 ], [ -116.188405600395043, 43.600675661547186 ], [ -116.188344923744623, 43.60058286210505 ], [ -116.18808437302792, 43.600450801896237 ], [ -116.18787379082778, 43.600365141716949 ], [ -116.187713379007789, 43.600286209611816 ], [ -116.187648931462675, 43.600254496887032 ], [ -116.187488317779099, 43.600175974553274 ], [ -116.18736339544715, 43.600101021560711 ], [ -116.187038600089437, 43.599933269537786 ], [ -116.186835155951528, 43.59988687114592 ], [ -116.186699525485722, 43.599915423774803 ], [ -116.186610296586451, 43.599883300936064 ], [ -116.186610296586451, 43.599833332292803 ], [ -116.186710233619564, 43.599826193373573 ], [ -116.186831585879887, 43.599819055207035 ], [ -116.186695956454628, 43.599744103276869 ], [ -116.186596019421458, 43.59972982616992 ], [ -116.186335468704769, 43.599722687238419 ], [ -116.185832211386369, 43.599715549059596 ], [ -116.18572870532212, 43.599715549059596 ], [ -116.185535969318039, 43.599786933070341 ], [ -116.185236157178096, 43.599836902505636 ], [ -116.185036283111799, 43.599947547349991 ], [ -116.184839977036091, 43.600154559422087 ], [ -116.184761454189612, 43.600340157223869 ], [ -116.184761454189612, 43.600415110672074 ], [ -116.184799003934671, 43.60049335464511 ], [ -116.18460115058511, 43.600634690560284 ], [ -116.18451518063786, 43.600618554736783 ], [ -116.184375982181464, 43.600718492184548 ], [ -116.184360937102539, 43.600806288076456 ], [ -116.184311736499922, 43.600761322037876 ], [ -116.184254629921142, 43.60074704592585 ], [ -116.184058803531556, 43.600954487763808 ], [ -116.183948291330481, 43.601055071484211 ], [ -116.18342643077662, 43.601050989056866 ] ], [ [ -116.188085907815349, 43.600188107028032 ], [ -116.188173602967723, 43.600197389676914 ], [ -116.188227140515423, 43.600190251554366 ], [ -116.188223570443782, 43.60012957484156 ], [ -116.188148618709462, 43.600054621791145 ], [ -116.188055819738523, 43.600004654043758 ], [ -116.187905913148299, 43.599901146708525 ], [ -116.187738161402507, 43.59983333229281 ], [ -116.18760253197722, 43.599815486500205 ], [ -116.187388379705453, 43.59976551780067 ], [ -116.187206351835243, 43.599733394881845 ], [ -116.187070722409956, 43.599729826169927 ], [ -116.187038600089437, 43.599822624667169 ], [ -116.187234905124626, 43.599847609375182 ], [ -116.187374103580993, 43.599911854320197 ], [ -116.18758215936495, 43.60004727793946 ], [ -116.18768127645744, 43.600101824817393 ], [ -116.187813114177359, 43.600111729136813 ], [ -116.187934466437682, 43.600147420540978 ], [ -116.188055819738523, 43.600211666672919 ], [ -116.188085907815349, 43.600188107028032 ] ] ] } },
{ "type": "Feature", "properties": { "cell_id": "gis-hydro-005", "station_m": 7058.942, "center_x_m": 564665.004, "center_y_m": 4828378.085, "length_m": 1568.654, "width_m": 19.67, "area_m2": 30855.472, "cross_section_source": "synthetic-boundary-width", "mean_depth_m": 0.618889, "mean_velocity_ms": 0.653113, "mean_water_surface_m": 12.502244, "flow_area_m2": 16.080221, "hydraulic_radius_m": 0.616571 }, "geometry": { "type": "Polygon", "coordinates": [ [ [ -116.204849570689248, 43.606355757581326 ], [ -116.20456273948723, 43.606063949761548 ], [ -116.203666871057962, 43.605528571109048 ], [ -116.203515740799887, 43.605542086602938 ], [ -116.203364740608563, 43.605492753302691 ], [ -116.203160807419735, 43.605470753121146 ], [ -116.199951937334632, 43.60580458856672 ], [ -116.199884122622038, 43.605765328397496 ], [ -116.199709231773468, 43.605768897504838 ], [ -116.199584311522614, 43.605790312897959 ], [ -116.199420127767411, 43.605861696482094 ], [ -116.198977187074703, 43.605919323471134 ], [ -116.198806226322503, 43.605736774024123 ], [ -116.198581366957427, 43.605740343886616 ], [ -116.198349370570639, 43.605715360118822 ], [ -116.198217310176474, 43.605647545475627 ], [ -116.197960328490865, 43.605629698393834 ], [ -116.197860391457738, 43.605572591765117 ], [ -116.198249432496965, 43.605554746167989 ], [ -116.198302970044651, 43.60552262332638 ], [ -116.198260140630836, 43.605504777714394 ], [ -116.197935344232576, 43.605451239339885 ], [ -116.197599839700501, 43.60553333069101 ], [ -116.197416761931635, 43.605579100867196 ], [ -116.197282181364457, 43.605533330691003 ], [ -116.197349996077108, 43.605451239339885 ], [ -116.197392826531456, 43.605358439729414 ], [ -116.197314304725495, 43.605322748402813 ], [ -116.197214366651821, 43.605290625437277 ], [ -116.196932401748484, 43.605233518486727 ], [ -116.196875294129157, 43.60520139622701 ], [ -116.196646865732959, 43.60520496536779 ], [ -116.196554066762019, 43.60520496536779 ], [ -116.196464836822187, 43.60525136493262 ], [ -116.196479113987152, 43.60532988666985 ], [ -116.196493391152117, 43.605390563412186 ], [ -116.196689772146271, 43.605440229824296 ], [ -116.196910985480741, 43.605444100333777 ], [ -116.196928831676814, 43.605490500467582 ], [ -116.196982370265033, 43.605540468933029 ], [ -116.197086018882416, 43.605540444068993 ], [ -116.197185814402971, 43.60561899104632 ], [ -116.197221505754555, 43.605708221144113 ], [ -116.197014491545005, 43.605679667497093 ], [ -116.196196740154022, 43.605531887069226 ], [ -116.195592339823719, 43.605312287381729 ], [ -116.195287352068405, 43.605165871322001 ], [ -116.195287003489568, 43.605165704053761 ], [ -116.19524651631744, 43.605146933086012 ], [ -116.195083559351659, 43.605112166130887 ], [ -116.195015744638994, 43.605040783164277 ], [ -116.195020065829979, 43.6050076523236 ], [ -116.195313432478358, 43.604959999793984 ], [ -116.195593953691713, 43.605130011859309 ], [ -116.196011549060913, 43.60523351848672 ], [ -116.19617216274446, 43.605269211373169 ], [ -116.196282808952006, 43.605215672789015 ], [ -116.196404160171767, 43.605162134910614 ], [ -116.19652908250373, 43.605090750496352 ], [ -116.195954442482133, 43.60487659975913 ], [ -116.195893765831684, 43.604876599759123 ], [ -116.195790553598414, 43.604882497635074 ], [ -116.196167314576485, 43.604821296131966 ], [ -116.196498606307784, 43.604878686855095 ], [ -116.197039476843841, 43.605097888790908 ], [ -116.197482056471301, 43.605204965367804 ], [ -116.197974604615283, 43.605237087625618 ], [ -116.198674166968885, 43.605287056301563 ], [ -116.199512926738322, 43.605272779756518 ], [ -116.199348744023638, 43.605454808465858 ], [ -116.199484373448925, 43.605572591765117 ], [ -116.199648556163609, 43.60564040649281 ], [ -116.199777046486133, 43.605683236609515 ], [ -116.199969783530719, 43.605665391045214 ], [ -116.200779991051292, 43.605558314534392 ], [ -116.201790071597628, 43.605312041000658 ], [ -116.202264179400757, 43.605225189741667 ], [ -116.202524730117446, 43.605182359298844 ], [ -116.202806696061344, 43.605164513585954 ], [ -116.203077954911905, 43.605150237765287 ], [ -116.203388474145171, 43.605128822144238 ], [ -116.203681941109693, 43.605141486317095 ], [ -116.203984141274844, 43.605245686107558 ], [ -116.204361808238545, 43.605470552701611 ], [ -116.205200207983296, 43.606008352705679 ], [ -116.205544151939975, 43.606242873033203 ], [ -116.204849570689248, 43.606355757581326 ] ] ] } },
{ "type": "Feature", "properties": { "cell_id": "gis-hydro-006", "station_m": 8627.596, "center_x_m": 562885.639, "center_y_m": 4829334.006, "length_m": 1568.654, "width_m": 39.689, "area_m2": 62257.871, "cross_section_source": "synthetic-boundary-width", "mean_depth_m": 0.530426, "mean_velocity_ms": 0.590041, "mean_water_surface_m": 10.788214, "flow_area_m2": 17.79324, "hydraulic_radius_m": 0.529539 }, "geometry": { "type": "Polygon", "coordinates": [ [ [ -116.21194983731101, 43.610468887715392 ], [ -116.212318594743323, 43.610596822807629 ], [ -116.212927487058252, 43.610782428324136 ], [ -116.214577893406599, 43.611214293438884 ], [ -116.215334562338953, 43.611439151281338 ], [ -116.21590563332947, 43.61156764271395 ], [ -116.216173323148908, 43.611642596487926 ], [ -116.216357750490189, 43.611728579629712 ], [ -116.216408889607351, 43.611742532949968 ], [ -116.218482411356888, 43.612487752022737 ], [ -116.218996212404818, 43.612751152575122 ], [ -116.219385595779698, 43.613031010678206 ], [ -116.219524794236108, 43.613130947846635 ], [ -116.219731807405111, 43.613316546295941 ], [ -116.220046612597329, 43.61349728577806 ], [ -116.220394345483228, 43.613875952337068 ], [ -116.220757146339821, 43.614172285445029 ], [ -116.22089004020161, 43.614258635616679 ], [ -116.220989889829909, 43.614311263643394 ], [ -116.221062552389782, 43.614347864951426 ], [ -116.221110141205415, 43.614306225264592 ], [ -116.221148807443299, 43.614297301125539 ], [ -116.221125012515202, 43.614252686437226 ], [ -116.221154756175324, 43.614237814615983 ], [ -116.221187472640636, 43.61423186694114 ], [ -116.221229113764821, 43.614216995114745 ], [ -116.221276703621015, 43.614249712977298 ], [ -116.221278412177583, 43.614292885763014 ], [ -116.221341812945639, 43.61446708554417 ], [ -116.22138434580728, 43.614583752069002 ], [ -116.221462865532203, 43.614733515650833 ], [ -116.221523542182638, 43.614804899168163 ], [ -116.221641325411838, 43.614858436750524 ], [ -116.221983968006143, 43.615268893732043 ], [ -116.221909015231276, 43.615308155231567 ], [ -116.221784505991266, 43.615408999394575 ], [ -116.221912584262398, 43.615772150432342 ], [ -116.222037505553814, 43.615929194962156 ], [ -116.222101751235371, 43.616014855578904 ], [ -116.222066058843211, 43.616050547340969 ], [ -116.222087474070378, 43.616100516073608 ], [ -116.222155288783043, 43.616146914766766 ], [ -116.222205258340139, 43.616129069293628 ], [ -116.222183842072411, 43.616089808330081 ], [ -116.222155288783043, 43.616021994083674 ], [ -116.222116027359789, 43.615879226087173 ], [ -116.222141011618078, 43.615672212379827 ], [ -116.22221416635044, 43.615729252166837 ], [ -116.222223103495665, 43.615964886775053 ], [ -116.222319471497698, 43.616089808330088 ], [ -116.222651406998679, 43.616336082181505 ], [ -116.222951218098103, 43.616510972863594 ], [ -116.22316180133879, 43.616628756358892 ], [ -116.223854224589601, 43.616885737866617 ], [ -116.224232559576066, 43.616999952187172 ], [ -116.224450279838422, 43.617017798155182 ], [ -116.224764369143344, 43.617071335274012 ], [ -116.224946397013539, 43.617124873851822 ], [ -116.225264055349555, 43.617214103453463 ], [ -116.225538883231224, 43.61726050279394 ], [ -116.22596004867205, 43.617356870540554 ], [ -116.226295552163606, 43.617435392293977 ], [ -116.226733081039754, 43.617641083908666 ], [ -116.226980837352201, 43.617767327794375 ], [ -116.227188452357154, 43.617786701448154 ], [ -116.226704323472219, 43.618169734956957 ], [ -116.226263429843087, 43.617838711476843 ], [ -116.226131369448922, 43.617735205448604 ], [ -116.225971813988281, 43.61772188554022 ], [ -116.225474637549709, 43.617638837555013 ], [ -116.224914013519054, 43.617513685693183 ], [ -116.224860737145377, 43.617474653885573 ], [ -116.224471695065589, 43.617399701353911 ], [ -116.224007347469993, 43.617305352542921 ], [ -116.223198813127851, 43.617047685808103 ], [ -116.222583592286057, 43.616657309328083 ], [ -116.222315902466605, 43.616450296039439 ], [ -116.222012521295525, 43.616136207784841 ], [ -116.221763957528779, 43.61602832803699 ], [ -116.221659171607911, 43.615861380534604 ], [ -116.221420036118374, 43.615618675521951 ], [ -116.22124871430097, 43.615486614420661 ], [ -116.221164559044738, 43.615477754489966 ], [ -116.220948902160984, 43.615236770804927 ], [ -116.220816841766819, 43.614890559879754 ], [ -116.220802564601854, 43.614758500192877 ], [ -116.220713335702584, 43.61471923908784 ], [ -116.220659797114365, 43.614587178271371 ], [ -116.220492044328054, 43.61444798073412 ], [ -116.220306446386203, 43.614415857368471 ], [ -116.220335000716133, 43.614358750041283 ], [ -116.220285032199556, 43.614315920075306 ], [ -116.220149402774283, 43.614287366747675 ], [ -116.220124418515994, 43.614219551975275 ], [ -116.219974511925741, 43.614169583186332 ], [ -116.219907794976322, 43.614200218068945 ], [ -116.219756791663386, 43.614112476378615 ], [ -116.219781775921675, 43.614066076115741 ], [ -116.219703254115728, 43.613951863002839 ], [ -116.219589038877089, 43.613912601371176 ], [ -116.219514420113597, 43.613926483369774 ], [ -116.219324919129278, 43.613766265007499 ], [ -116.219328488160372, 43.613641343145709 ], [ -116.219096490733065, 43.613448606135968 ], [ -116.218699344975676, 43.613221170275956 ], [ -116.218504004515381, 43.613031010678213 ], [ -116.218325928592719, 43.613044723373889 ], [ -116.217921898663377, 43.612770885477595 ], [ -116.217490353897389, 43.612567016174793 ], [ -116.216658732190169, 43.612185113171982 ], [ -116.216262552048221, 43.612085175185207 ], [ -116.216012709465346, 43.611970962077052 ], [ -116.215002627878476, 43.611713979907293 ], [ -116.214328049783205, 43.611531950551317 ], [ -116.213058243822474, 43.611208683869904 ], [ -116.21194983731101, 43.610468887715392 ] ] ] } },
{ "type": "Feature", "properties": { "cell_id": "gis-hydro-007", "station_m": 10196.25, "center_x_m": 562073.784, "center_y_m": 4829983.077, "length_m": 1568.654, "width_m": 36.082, "area_m2": 56599.409, "cross_section_source": "synthetic-boundary-width", "mean_depth_m": 0.510616, "mean_velocity_ms": 0.575356, "mean_water_surface_m": 9.187731, "flow_area_m2": 18.245885, "hydraulic_radius_m": 0.509916 }, "geometry": { "type": "Polygon", "coordinates": [ [ [ -116.234337196828946, 43.623573760712702 ], [ -116.234305972985695, 43.623381613592002 ], [ -116.234013949241614, 43.62276848528407 ], [ -116.233771949162374, 43.622373484865733 ], [ -116.233537549142426, 43.622082684863301 ], [ -116.233272949708493, 43.621857751570715 ], [ -116.233116241148466, 43.621839722492531 ], [ -116.23299251022776, 43.621749302836534 ], [ -116.232621314344073, 43.621620812067498 ], [ -116.232364331617944, 43.621506597485322 ], [ -116.232184615813935, 43.621446485371983 ], [ -116.231840850483593, 43.621316241123694 ], [ -116.229531948531204, 43.620338751701958 ], [ -116.229154015190801, 43.620113884952282 ], [ -116.228957547832351, 43.619949285453593 ], [ -116.228798815433976, 43.619856085623645 ], [ -116.228726172644272, 43.619730383210793 ], [ -116.228412083339336, 43.619434140768234 ], [ -116.228169377778173, 43.619309218628246 ], [ -116.227915966164218, 43.619048667859481 ], [ -116.227733936212957, 43.61887020794245 ], [ -116.227551548318047, 43.618824551834287 ], [ -116.227081935621129, 43.618460784203783 ], [ -116.226941873521653, 43.618352291677404 ], [ -116.226765347994444, 43.618215551824747 ], [ -116.226263429843087, 43.617838711476843 ], [ -116.226131369448922, 43.617735205448604 ], [ -116.225971813988281, 43.61772188554022 ], [ -116.225474637549709, 43.617638837555013 ], [ -116.224914013519054, 43.617513685693183 ], [ -116.224860737145377, 43.617474653885573 ], [ -116.224471695065589, 43.617399701353911 ], [ -116.224007347469993, 43.617305352542921 ], [ -116.223198813127851, 43.617047685808103 ], [ -116.223043165609752, 43.616948923475171 ], [ -116.22324848602895, 43.616660928305386 ], [ -116.223854224589601, 43.616885737866617 ], [ -116.224232559576066, 43.616999952187172 ], [ -116.224450279838422, 43.617017798155182 ], [ -116.224764369143344, 43.617071335274012 ], [ -116.224946397013539, 43.617124873851822 ], [ -116.225264055349555, 43.617214103453463 ], [ -116.225538883231224, 43.61726050279394 ], [ -116.22596004867205, 43.617356870540554 ], [ -116.226295552163606, 43.617435392293977 ], [ -116.226733081039754, 43.617641083908666 ], [ -116.226980837352201, 43.617767327794375 ], [ -116.227303156239373, 43.617797404906966 ], [ -116.227384747620178, 43.617875085400762 ], [ -116.227528214346421, 43.617951885185938 ], [ -116.227669691571961, 43.618006463286704 ], [ -116.227841012348833, 43.618020740575837 ], [ -116.22804199217417, 43.617968802001052 ], [ -116.228462389358029, 43.618126976306158 ], [ -116.228503147740355, 43.618264351901949 ], [ -116.228572697022912, 43.618384797873965 ], [ -116.228707348346376, 43.618642951531854 ], [ -116.228850948260956, 43.618818685215089 ], [ -116.229002148234784, 43.618939351543368 ], [ -116.229147337044537, 43.619034390061152 ], [ -116.22910450659019, 43.61913075948452 ], [ -116.229072383229152, 43.619219988369288 ], [ -116.229379334471844, 43.619551923810597 ], [ -116.230091622554426, 43.619921308043779 ], [ -116.231148748757747, 43.620299684817937 ], [ -116.231631457613659, 43.620649992501441 ], [ -116.232012171260493, 43.620749929060267 ], [ -116.23256896508606, 43.621006911033113 ], [ -116.232970215749503, 43.621122285079643 ], [ -116.233113815664083, 43.621221084938057 ], [ -116.233363216020024, 43.621435084830942 ], [ -116.234015677568337, 43.622006285057232 ], [ -116.234217749242106, 43.622340351865617 ], [ -116.23446734938058, 43.622724484746144 ], [ -116.234808017041644, 43.623569551571407 ], [ -116.234847234823633, 43.623765608849865 ], [ -116.234337196828946, 43.623573760712702 ] ], [ [ -116.227087913488134, 43.618127816746465 ], [ -116.227052221095974, 43.618156369757131 ], [ -116.227009390641612, 43.618188492631184 ], [ -116.227009390641612, 43.618263445686168 ], [ -116.22705567254674, 43.618346709004527 ], [ -116.227174991603945, 43.618431499888757 ], [ -116.227216403810658, 43.618499012360289 ], [ -116.227730367181834, 43.618791686556122 ], [ -116.22789811996816, 43.618898761353847 ], [ -116.228226485397514, 43.619087929150957 ], [ -116.228329991461749, 43.619248542367856 ], [ -116.228594112250107, 43.619384171792717 ], [ -116.228818971615183, 43.619666137586442 ], [ -116.229029553815323, 43.619812474658374 ], [ -116.229208012654453, 43.619826750765377 ], [ -116.229325795883653, 43.619915980877103 ], [ -116.229350781182475, 43.619873151102894 ], [ -116.229311519759221, 43.619780351898626 ], [ -116.229204444663864, 43.619648291651188 ], [ -116.228968877164903, 43.619398448754723 ], [ -116.228811832512434, 43.619273527293821 ], [ -116.228661926962729, 43.619127189663473 ], [ -116.228554850826853, 43.618859500692146 ], [ -116.228344268626714, 43.618731009020216 ], [ -116.22812297933325, 43.618713163560727 ], [ -116.227641137242031, 43.618434766173458 ], [ -116.22751621699112, 43.618324121434028 ], [ -116.227348464204795, 43.618234891219771 ], [ -116.227234250006717, 43.618209907368843 ], [ -116.227212834779522, 43.618156369757131 ], [ -116.227159296191331, 43.618138524127026 ], [ -116.227087913488134, 43.618127816746465 ] ], [ [ -116.229789791778785, 43.620044471523286 ], [ -116.229791480565225, 43.620046650745671 ], [ -116.229900436945812, 43.620187239422819 ], [ -116.230289479025572, 43.620390682905565 ], [ -116.230624983557675, 43.620547728178657 ], [ -116.230889103305486, 43.620758309890661 ], [ -116.231281714416369, 43.620908216279602 ], [ -116.23154583416418, 43.621033138110469 ], [ -116.231788539725343, 43.621093814076389 ], [ -116.23181709301474, 43.62105455258822 ], [ -116.231645772237854, 43.620879662315993 ], [ -116.231356667191207, 43.620719048936671 ], [ -116.231063993113466, 43.620633388242048 ], [ -116.230856979944434, 43.620419237101466 ], [ -116.230514338390662, 43.620294315501624 ], [ -116.230028927268336, 43.620169393642229 ], [ -116.229795275392192, 43.620047336225191 ], [ -116.229789791778785, 43.620044471523286 ] ] ] } },
{ "type": "Feature", "properties": { "cell_id": "gis-hydro-008", "station_m": 11764.904, "center_x_m": 561256.111, "center_y_m": 4831564.054, "length_m": 1568.654, "width_m": 25.165, "area_m2": 39474.771, "cross_section_source": "synthetic-boundary-width", "mean_depth_m": 0.645576, "mean_velocity_ms": 0.67136, "mean_water_surface_m": 7.841084, "flow_area_m2": 15.644551, "hydraulic_radius_m": 0.642561 }, "geometry": { "type": "Polygon", "coordinates": [ [ [ -116.235704359601357, 43.629393846281012 ], [ -116.236314238695357, 43.629806158451402 ], [ -116.237266023332708, 43.630282049931218 ], [ -116.23757335124867, 43.630363285707773 ], [ -116.238450351677642, 43.630878751723849 ], [ -116.239536030129827, 43.632023815604335 ], [ -116.239660752679285, 43.632464485757829 ], [ -116.239931020941611, 43.632866144420966 ], [ -116.240145218996872, 43.633413751908726 ], [ -116.240576419346141, 43.63392395244302 ], [ -116.240780553357993, 43.634116085353895 ], [ -116.240949430961408, 43.63476495554751 ], [ -116.241182617718891, 43.635121873867533 ], [ -116.241258760864483, 43.635369337949712 ], [ -116.241363457299457, 43.63554541810629 ], [ -116.241392010588854, 43.635816676917052 ], [ -116.241463395373131, 43.635983238407675 ], [ -116.241520500911378, 43.636054623053283 ], [ -116.241615680623767, 43.636173595768106 ], [ -116.241729893781354, 43.636240220777061 ], [ -116.242729268274871, 43.636121248194193 ], [ -116.243657927530663, 43.636552306171566 ], [ -116.245260889315873, 43.639633267280367 ], [ -116.245219613317474, 43.639603351421641 ], [ -116.245121340097981, 43.639549042933851 ], [ -116.244857935196904, 43.639403476064494 ], [ -116.244543845891997, 43.638965655080248 ], [ -116.24442820408143, 43.638833833522519 ], [ -116.244566213207648, 43.638762449166379 ], [ -116.24454213213275, 43.638725619489321 ], [ -116.244485311700771, 43.638638717838582 ], [ -116.244347302574567, 43.63849595008395 ], [ -116.244280677192123, 43.638181860281506 ], [ -116.244156946271417, 43.637744039432285 ], [ -116.244009418341562, 43.637415675278859 ], [ -116.24395707116463, 43.637211040841251 ], [ -116.243828579801544, 43.636987372069029 ], [ -116.243685153656116, 43.636941285413151 ], [ -116.243609420480865, 43.636848085569554 ], [ -116.243504972733504, 43.636849362765588 ], [ -116.243038598177961, 43.636592381495127 ], [ -116.242860954076846, 43.636486085255278 ], [ -116.242619813478584, 43.636406783352903 ], [ -116.242486562713708, 43.636373470573446 ], [ -116.242348554628038, 43.636344916425045 ], [ -116.242096331303742, 43.636373470573439 ], [ -116.241748930348137, 43.636392506664826 ], [ -116.241364419793271, 43.636256285292177 ], [ -116.241054127396367, 43.636073658492634 ], [ -116.240992261415769, 43.635883302321787 ], [ -116.240925637073843, 43.635811918225713 ], [ -116.240958948724526, 43.635707221649099 ], [ -116.241058886798186, 43.63556921241787 ], [ -116.240949430961408, 43.635331266618742 ], [ -116.240773350782689, 43.635140909602363 ], [ -116.240530646262044, 43.634902963613506 ], [ -116.240430708188384, 43.634783990642298 ], [ -116.24035932444464, 43.634631705196661 ], [ -116.240287940700895, 43.634455625375161 ], [ -116.240230833081554, 43.634322375091514 ], [ -116.240183244265893, 43.63421767893211 ], [ -116.239959574230994, 43.633803652827453 ], [ -116.239669280894717, 43.63339438576601 ], [ -116.239593137749125, 43.632970841428758 ], [ -116.239383744879191, 43.632523503117106 ], [ -116.238931647488613, 43.631961950189051 ], [ -116.238660388638053, 43.63163834283371 ], [ -116.238241602898142, 43.631148173615145 ], [ -116.23773241869894, 43.630840685079463 ], [ -116.237505618738211, 43.630714552243681 ], [ -116.236855418269968, 43.630396485834744 ], [ -116.235967920518576, 43.629900650357705 ], [ -116.235704359601357, 43.629393846281012 ] ] ] } },
{ "type": "Feature", "properties": { "cell_id": "gis-hydro-009", "station_m": 13333.558, "center_x_m": 560321.495, "center_y_m": 4832541.506, "length_m": 1568.654, "width_m": 22.125, "area_m2": 34706.308, "cross_section_source": "synthetic-boundary-width", "mean_depth_m": 0.667305, "mean_velocity_ms": 0.685952, "mean_water_surface_m": 6.309203, "flow_area_m2": 15.312796, "hydraulic_radius_m": 0.6636 }, "geometry": { "type": "Polygon", "coordinates": [ [ [ -116.246584655550308, 43.640168408876342 ], [ -116.246885236432831, 43.640255322792676 ], [ -116.247365887112821, 43.640383814392202 ], [ -116.247960753031435, 43.640369537143037 ], [ -116.24861272552883, 43.640459957404715 ], [ -116.248988680814364, 43.640450438498043 ], [ -116.249321804605003, 43.640493269424667 ], [ -116.249940465451701, 43.640854947404122 ], [ -116.250354491789778, 43.641235661528434 ], [ -116.250568643021012, 43.641478366285845 ], [ -116.250716169910348, 43.641678240011522 ], [ -116.250897008450337, 43.641854320505907 ], [ -116.2511064013203, 43.642035160189067 ], [ -116.251301517025269, 43.642263587929634 ], [ -116.251477597204001, 43.642549124019475 ], [ -116.251886865180737, 43.642934595324569 ], [ -116.252262820466299, 43.643329586373234 ], [ -116.252531272997061, 43.643518985258822 ], [ -116.253038524924932, 43.643876862074201 ], [ -116.253490621274977, 43.64396252352936 ], [ -116.253861817158665, 43.643976799924701 ], [ -116.254399575457953, 43.644005353458169 ], [ -116.254694629236624, 43.644024389390587 ], [ -116.255032512429082, 43.644176674373945 ], [ -116.255438787838941, 43.64435804753618 ], [ -116.257672889696238, 43.646681692714019 ], [ -116.257672320794541, 43.646688665430503 ], [ -116.257421492826111, 43.646784564355393 ], [ -116.257312036989319, 43.646641796380891 ], [ -116.25716926950183, 43.646460957011627 ], [ -116.256758157699082, 43.645990285096069 ], [ -116.256350734588835, 43.645580556652028 ], [ -116.25617941381195, 43.645399717099686 ], [ -116.256041404685774, 43.645038039373688 ], [ -116.255851048382596, 43.644847682989983 ], [ -116.255498888025173, 43.644643048263546 ], [ -116.255251423062163, 43.644590700538693 ], [ -116.2550039591397, 43.644509799488091 ], [ -116.254899263745259, 43.644481245441412 ], [ -116.254708906401589, 43.644609736285616 ], [ -116.254371023209089, 43.64453835276823 ], [ -116.254233013042352, 43.644590700538679 ], [ -116.253846824106418, 43.644420508750933 ], [ -116.253290747208681, 43.644352755075381 ], [ -116.252733952342609, 43.644110049882386 ], [ -116.252410346315088, 43.643872104021199 ], [ -116.252348480334462, 43.64374837192139 ], [ -116.252105775813845, 43.643710300628541 ], [ -116.251896382943883, 43.643615121914415 ], [ -116.251577534237128, 43.64311543552089 ], [ -116.251272963735886, 43.642630024698555 ], [ -116.251049293700987, 43.642492016307706 ], [ -116.250673339455986, 43.642030400484167 ], [ -116.250414172649286, 43.641751711237667 ], [ -116.250268830881041, 43.641687757970644 ], [ -116.2501533399479, 43.641564409169312 ], [ -116.250097509063622, 43.641378428797196 ], [ -116.249926188286736, 43.641164277013814 ], [ -116.249612100022347, 43.640864465493706 ], [ -116.249416984317378, 43.640778804139146 ], [ -116.249174278756186, 43.640783563190176 ], [ -116.248950608721287, 43.640783563190183 ], [ -116.248841153925028, 43.640764527736863 ], [ -116.248393814895749, 43.640712180397429 ], [ -116.248036896176998, 43.640683626051782 ], [ -116.247589557147748, 43.640645555075814 ], [ -116.247256432316519, 43.640593206126709 ], [ -116.247021555732061, 43.640540152307672 ], [ -116.246921384889646, 43.640518752293595 ], [ -116.246584655550308, 43.640168408876342 ] ] ] } },
{ "type": "Feature", "properties": { "cell_id": "gis-hydro-010", "station_m": 14902.212, "center_x_m": 559196.347, "center_y_m": 4833383.376, "length_m": 1568.654, "width_m": 14.231, "area_m2": 22323.125, "cross_section_source": "synthetic-boundary-width", "mean_depth_m": 0.821915, "mean_velocity_ms": 0.782588, "mean_water_surface_m": 5.008775, "flow_area_m2": 13.427611, "hydraulic_radius_m": 0.808498 }, "geometry": { "type": "Polygon", "coordinates": [ [ [ -116.265826308437596, 43.652538518977018 ], [ -116.265613833302908, 43.652473942859672 ], [ -116.265280709512268, 43.652369842228069 ], [ -116.264998148383015, 43.652247893866587 ], [ -116.2648345608537, 43.652167588110053 ], [ -116.264748305800168, 43.652114049122687 ], [ -116.264611487044689, 43.652122972165095 ], [ -116.264370565999059, 43.652102152232693 ], [ -116.264192106119438, 43.652078357692695 ], [ -116.263977953847657, 43.651962359457713 ], [ -116.26385898128828, 43.651941538716734 ], [ -116.263784622658235, 43.651893949500142 ], [ -116.263644830057018, 43.651807694042972 ], [ -116.263502062569529, 43.651748207760143 ], [ -116.263353345309454, 43.651703593009415 ], [ -116.263195705471659, 43.651620311902029 ], [ -116.263112424263838, 43.651545953807293 ], [ -116.263055912870428, 43.651489441142026 ], [ -116.263035092828616, 43.651462672481358 ], [ -116.26298155528093, 43.651468620989995 ], [ -116.262913145382939, 43.651432929929342 ], [ -116.262779300473198, 43.651305032646931 ], [ -116.262722788039255, 43.651224726382544 ], [ -116.262668103823259, 43.65116822546112 ], [ -116.262609764211874, 43.651126573633874 ], [ -116.262547303045892, 43.651093855513409 ], [ -116.262490791652468, 43.650974882980563 ], [ -116.262386689362344, 43.650832115178304 ], [ -116.262261767030381, 43.650728013959508 ], [ -116.262223101833015, 43.650647706923586 ], [ -116.262190383286608, 43.650594169592843 ], [ -116.262109032269137, 43.650567906476404 ], [ -116.261880604913429, 43.650191951826201 ], [ -116.261729271751307, 43.649757791770718 ], [ -116.261884274876351, 43.649652441129213 ], [ -116.26193771045169, 43.649616122573399 ], [ -116.261983893491362, 43.649518215101232 ], [ -116.262440946195113, 43.649535157849755 ], [ -116.26243263829663, 43.649606604364571 ], [ -116.262637272805279, 43.649758890254525 ], [ -116.262918049418985, 43.649968282440433 ], [ -116.263175031104552, 43.650092013775115 ], [ -116.263641405660124, 43.650363273167294 ], [ -116.26381272643701, 43.650487004441139 ], [ -116.264312760181554, 43.650703085022741 ], [ -116.265097635905519, 43.650962897024229 ], [ -116.265583045987313, 43.651067592615469 ], [ -116.266097009358546, 43.651029522196929 ], [ -116.266415857024754, 43.651034280435901 ], [ -116.266768018422724, 43.651043797665615 ], [ -116.266995960889602, 43.651027950923982 ], [ -116.267767391875722, 43.651700529550787 ], [ -116.267872161148077, 43.65198335109384 ], [ -116.268008161003394, 43.652120550927954 ], [ -116.268276596885613, 43.652395332113166 ], [ -116.268190935976904, 43.652504787846979 ], [ -116.268233053966867, 43.652627630610979 ], [ -116.268024290904052, 43.652619903012095 ], [ -116.267872088310668, 43.652276359146967 ], [ -116.267610347223282, 43.651938476023155 ], [ -116.267467579735765, 43.651724324240469 ], [ -116.267034517871451, 43.651334093151071 ], [ -116.266777536185842, 43.651205602385787 ], [ -116.266515795098428, 43.651143735638748 ], [ -116.265884760223159, 43.651164750900435 ], [ -116.265476560874674, 43.651175484770199 ], [ -116.265278475486085, 43.651110423501436 ], [ -116.265102394266847, 43.651119942224803 ], [ -116.264882211060851, 43.651166232576614 ], [ -116.264812100930541, 43.651134217672009 ], [ -116.264793065404277, 43.651000968237881 ], [ -116.264502771027452, 43.651010486978642 ], [ -116.26418868172253, 43.65082964721001 ], [ -116.264116896332709, 43.650774829377092 ], [ -116.263926941675621, 43.650629772310829 ], [ -116.263617610732013, 43.650520316924229 ], [ -116.263527191462003, 43.650420379419494 ], [ -116.26331779859207, 43.650368031459038 ], [ -116.263003710327695, 43.650177675402169 ], [ -116.262699138785905, 43.650058702560237 ], [ -116.26240884440908, 43.649825515257035 ], [ -116.26232403985972, 43.650238229341113 ], [ -116.262266076921591, 43.650520316924236 ], [ -116.262416433022452, 43.650692320952921 ], [ -116.262577046706014, 43.650852935551008 ], [ -116.262722788039255, 43.651001651858635 ], [ -116.263005349168481, 43.651254469037667 ], [ -116.263267090255937, 43.651424006031533 ], [ -116.263371191505541, 43.651501338906321 ], [ -116.263451498867582, 43.651590567922334 ], [ -116.263454472713335, 43.651632208887492 ], [ -116.263505036415282, 43.651661952846602 ], [ -116.263740007688313, 43.651715489978379 ], [ -116.263897647526136, 43.651774976293552 ], [ -116.263986877465953, 43.651795797092269 ], [ -116.263963083578403, 43.651745233896186 ], [ -116.263948211228069, 43.651688721418445 ], [ -116.264034466281629, 43.651721439214811 ], [ -116.264144516263258, 43.651810667903824 ], [ -116.26429323352329, 43.651905847184238 ], [ -116.264721535985785, 43.652015897074534 ], [ -116.265143890756775, 43.652140818245918 ], [ -116.265319374709605, 43.652179484987087 ], [ -116.265482963279453, 43.652247893866594 ], [ -116.265670345736851, 43.652313329585176 ], [ -116.265854754348524, 43.652313329585176 ], [ -116.266107571817642, 43.652343073206922 ], [ -116.266440697689362, 43.652411482652958 ], [ -116.266684592580731, 43.652494763416065 ], [ -116.266886846347916, 43.652545327486827 ], [ -116.266979113792743, 43.652581208849256 ], [ -116.265826308437596, 43.652538518977018 ] ] ] } },
{ "type": "Feature", "properties": { "cell_id": "gis-hydro-011", "station_m": 16470.866, "center_x_m": 558448.169, "center_y_m": 4834344.865, "length_m": 1568.654, "width_m": 32.261, "area_m2": 50607.04, "cross_section_source": "synthetic-boundary-width", "mean_depth_m": 0.606929, "mean_velocity_ms": 0.64482, "mean_water_surface_m": 3.070378, "flow_area_m2": 16.286342, "hydraulic_radius_m": 0.604877 }, "geometry": { "type": "Polygon", "coordinates": [ [ [ -116.288594723193185, 43.663079407517614 ], [ -116.288421233381101, 43.663043683529665 ], [ -116.2880734328605, 43.662939283566438 ], [ -116.287967566865476, 43.662944749939541 ], [ -116.287540719069327, 43.66290778981034 ], [ -116.287474093686882, 43.662964896930234 ], [ -116.287331326199393, 43.662969656481728 ], [ -116.287255183053801, 43.662879236982725 ], [ -116.287098138401348, 43.66286495981111 ], [ -116.28704103182254, 43.662936344129768 ], [ -116.286737780718227, 43.662868572198576 ], [ -116.286370023798909, 43.662874477424047 ], [ -116.286289121251471, 43.662917308921998 ], [ -116.286165390330794, 43.662893514150966 ], [ -116.285960489445486, 43.66276545008126 ], [ -116.285965515223978, 43.662736468877384 ], [ -116.286331951705833, 43.662760263710652 ], [ -116.286460443068918, 43.662755504142567 ], [ -116.286498514121433, 43.662736468877391 ], [ -116.286341469468979, 43.662707915968348 ], [ -116.286193943620177, 43.662665085826532 ], [ -116.285960755822146, 43.662631773305634 ], [ -116.28584178326274, 43.662679361540214 ], [ -116.285284989437201, 43.662665085826518 ], [ -116.285018488947927, 43.662684121114339 ], [ -116.284756747860513, 43.66271743360619 ], [ -116.284278212585846, 43.662713164820815 ], [ -116.283971526679295, 43.662641290955534 ], [ -116.283587930753683, 43.662711807631567 ], [ -116.28335237886273, 43.662633232869403 ], [ -116.28320533998378, 43.662584184280568 ], [ -116.282962634422603, 43.662603219594018 ], [ -116.282662823323179, 43.662512799543109 ], [ -116.282420117762015, 43.662412863176904 ], [ -116.282201207128935, 43.662431898544703 ], [ -116.282101270095794, 43.662365273978331 ], [ -116.281944224402807, 43.662331961291009 ], [ -116.281696761520877, 43.662227265013819 ], [ -116.281311288472196, 43.662122568554004 ], [ -116.281144726056624, 43.662055943644404 ], [ -116.280954369753474, 43.661898899943566 ], [ -116.280602208355475, 43.661760890659728 ], [ -116.280319660753193, 43.661600864530911 ], [ -116.279988307951143, 43.661427766376342 ], [ -116.279797950607474, 43.661437284217165 ], [ -116.279483861302566, 43.66127548071816 ], [ -116.279303022762534, 43.661061329110531 ], [ -116.278993692859444, 43.660794828834142 ], [ -116.278674845193237, 43.660613990676644 ], [ -116.278351831229486, 43.660527351036194 ], [ -116.277936230563697, 43.660395484202127 ], [ -116.277603564607958, 43.660345951260048 ], [ -116.2772483638106, 43.66020315078346 ], [ -116.276994944912914, 43.660147616587579 ], [ -116.276871212951662, 43.660100027098935 ], [ -116.276614230225533, 43.660090509046157 ], [ -116.276552365285482, 43.660147616587579 ], [ -116.276352490178638, 43.66011906244723 ], [ -116.276309659724291, 43.66001912510756 ], [ -116.275862320695012, 43.659952500121975 ], [ -116.275652928865597, 43.659971536269843 ], [ -116.275562508555069, 43.660042919512236 ], [ -116.2753673928501, 43.660014366827674 ], [ -116.275205589836318, 43.659895393900491 ], [ -116.274881983808825, 43.659866839640202 ], [ -116.27465355437208, 43.659762143580828 ], [ -116.274372777758387, 43.659766901880701 ], [ -116.274096760546513, 43.659609858214537 ], [ -116.273735082425929, 43.65967648358032 ], [ -116.273487618503481, 43.659581304571226 ], [ -116.273292502798498, 43.659528956315413 ], [ -116.273259190107282, 43.659419501339841 ], [ -116.273144975909162, 43.65931956358844 ], [ -116.27313069978473, 43.659153001303622 ], [ -116.273045037835502, 43.659091135968666 ], [ -116.272911789151678, 43.65908637761531 ], [ -116.272792816592272, 43.659100653427139 ], [ -116.272702396281716, 43.658748492909581 ], [ -116.272055182145635, 43.657739602406032 ], [ -116.271641156848105, 43.657349369751941 ], [ -116.271398451286942, 43.657168531756284 ], [ -116.271227130510056, 43.657059076241822 ], [ -116.271112915271388, 43.656902031515749 ], [ -116.271126962478377, 43.656798151606253 ], [ -116.27085593462634, 43.656645050198513 ], [ -116.270823821866486, 43.656615613705434 ], [ -116.271502279133344, 43.656816246697083 ], [ -116.27157453146566, 43.656863960278912 ], [ -116.271726816716296, 43.657068594022384 ], [ -116.271936209586229, 43.657282744815134 ], [ -116.272264575015555, 43.657577797975648 ], [ -116.272502521174886, 43.657810985290773 ], [ -116.272735708972931, 43.658139350887716 ], [ -116.272949860204193, 43.658467716947264 ], [ -116.272997450060387, 43.658867466603766 ], [ -116.273263948468582, 43.659133965648991 ], [ -116.273516171792878, 43.659409983179124 ], [ -116.274125314876429, 43.659557510736349 ], [ -116.274591688391453, 43.659600340836789 ], [ -116.274829634550784, 43.659690759251838 ], [ -116.275110411164476, 43.659714554539448 ], [ -116.2756243755762, 43.659847804211942 ], [ -116.276466704376745, 43.659952500121982 ], [ -116.276604713502962, 43.659919187601488 ], [ -116.276657060679923, 43.659705036425557 ], [ -116.276628950657937, 43.659593004257125 ], [ -116.27683790026046, 43.659628893718228 ], [ -116.276899766241087, 43.659728830954705 ], [ -116.277266203763475, 43.659904911231472 ], [ -116.277724763909816, 43.659961750961898 ], [ -116.2782009642265, 43.660082683977066 ], [ -116.278420230722148, 43.66017608414559 ], [ -116.278793817752629, 43.66037128494748 ], [ -116.278964364372328, 43.660549483883678 ], [ -116.279160831730806, 43.660648284417654 ], [ -116.279260192308186, 43.660590195745478 ], [ -116.279341093815077, 43.660713927778978 ], [ -116.279531451158746, 43.660823383405827 ], [ -116.279850298824982, 43.660942355999694 ], [ -116.280083485582452, 43.66102801645247 ], [ -116.280402333248674, 43.661227891370721 ], [ -116.28083539615352, 43.661565774920447 ], [ -116.281254180852898, 43.661775167341169 ], [ -116.281587305684056, 43.66194172987921 ], [ -116.281939466041507, 43.662003595287899 ], [ -116.282577161373951, 43.662155880604729 ], [ -116.283191062818815, 43.662279613175251 ], [ -116.283471839432508, 43.662260577759177 ], [ -116.283809632098524, 43.662268684071037 ], [ -116.284376034213651, 43.662431898544703 ], [ -116.284923311316632, 43.662393826297581 ], [ -116.28515649807413, 43.662360513626147 ], [ -116.285394444233461, 43.662322442839304 ], [ -116.285651426959589, 43.662379550516015 ], [ -116.286365264397062, 43.662441416226287 ], [ -116.286760255208861, 43.662536593712268 ], [ -116.287250423651955, 43.662584183527805 ], [ -116.287788181951257, 43.662679361540206 ], [ -116.28828311083673, 43.662717433606197 ], [ -116.288760448806542, 43.662783845825437 ], [ -116.288594723193185, 43.663079407517614 ] ] ] } },
{ "type": "Feature", "properties": { "cell_id": "gis-hydro-012", "station_m": 18039.52, "center_x_m": 556672.69, "center_y_m": 4835019.392, "length_m": 1568.654, "width_m": 33.332, "area_m2": 52286.337, "cross_section_source": "synthetic-boundary-width", "mean_depth_m": 0.656955, "mean_velocity_ms": 0.679032, "mean_water_surface_m": 1.585695, "flow_area_m2": 15.468362, "hydraulic_radius_m": 0.653594 }, "geometry": { "type": "Polygon", "coordinates": [ [ [ -116.287349621326243, 43.662601740768295 ], [ -116.287788181951257, 43.662679361540206 ], [ -116.28828311083673, 43.662717433606197 ], [ -116.28883038689915, 43.662793576160269 ], [ -116.289211100545955, 43.662883995788292 ], [ -116.289539465975338, 43.663007726858154 ], [ -116.290158126822035, 43.663183807304215 ], [ -116.291428759125594, 43.663326575098466 ], [ -116.292171150892997, 43.663421752686581 ], [ -116.292949834400048, 43.663472683168777 ], [ -116.293637834341496, 43.663697749752025 ], [ -116.293985435079577, 43.663889950034218 ], [ -116.29518756799925, 43.664488482877502 ], [ -116.295383968763531, 43.664625682743704 ], [ -116.295467168809679, 43.664790349568044 ], [ -116.295610768724259, 43.664900150032238 ], [ -116.295988768658802, 43.665130682706845 ], [ -116.29620043509523, 43.665213083226547 ], [ -116.296525568626421, 43.665471083165059 ], [ -116.297087118732193, 43.665782179050872 ], [ -116.297172779640903, 43.665948741009437 ], [ -116.297444037450944, 43.666091508249764 ], [ -116.29762163576855, 43.666184749283786 ], [ -116.297748608992734, 43.666300900691944 ], [ -116.297977036348399, 43.666400838112722 ], [ -116.298048421132677, 43.666515052426774 ], [ -116.298214982507744, 43.666557882832628 ], [ -116.29836250939708, 43.666681615362599 ], [ -116.298562384503882, 43.666743481155592 ], [ -116.298862196643825, 43.666933837389237 ], [ -116.299114418927601, 43.667062328371294 ], [ -116.299504651378101, 43.667252685099193 ], [ -116.299647419906108, 43.667290756522853 ], [ -116.299663375452198, 43.667354581670068 ], [ -116.299766392465514, 43.667381176904051 ], [ -116.299699767083069, 43.667500149297759 ], [ -116.299628383339325, 43.667538220564467 ], [ -116.299637901102471, 43.667723818114361 ], [ -116.299928195479296, 43.667823755424166 ], [ -116.300189936566724, 43.667880863136325 ], [ -116.300461194376737, 43.667966523473666 ], [ -116.300784802485339, 43.668056943589541 ], [ -116.301008471479705, 43.668123567860633 ], [ -116.301260693763467, 43.66820922860429 ], [ -116.301484363798366, 43.668294889225642 ], [ -116.301712792194593, 43.668356754861264 ], [ -116.302050675387051, 43.668551871109067 ], [ -116.302426630672585, 43.668575665142576 ], [ -116.302693130121327, 43.668694638932031 ], [ -116.303054808241896, 43.668808852644879 ], [ -116.303321879984239, 43.668991443902215 ], [ -116.303625879232413, 43.669046798310831 ], [ -116.303904437427931, 43.669105349212614 ], [ -116.303459272073866, 43.669159819142301 ], [ -116.303307030525659, 43.669318057883828 ], [ -116.303069568214553, 43.669202847115379 ], [ -116.302997700622569, 43.669251432680674 ], [ -116.302702170279403, 43.669121749656767 ], [ -116.302460236794388, 43.669028349104948 ], [ -116.302301370167129, 43.668946149514419 ], [ -116.302117300769524, 43.668832647329133 ], [ -116.301969773880188, 43.668780299613374 ], [ -116.301746104885808, 43.668689879834446 ], [ -116.301422496777221, 43.668575665142569 ], [ -116.300518301996064, 43.66825681843887 ], [ -116.300132828947383, 43.668075978673031 ], [ -116.29989012338622, 43.667980800937315 ], [ -116.299756874702396, 43.667937970041471 ], [ -116.299552240193762, 43.667904658188476 ], [ -116.299271464620603, 43.667880863136332 ], [ -116.299141035783478, 43.667804082744439 ], [ -116.298995446368195, 43.667757130820306 ], [ -116.298319679983237, 43.667143229903878 ], [ -116.297753368394552, 43.66681962387203 ], [ -116.297339342056503, 43.666548365050879 ], [ -116.297187055765335, 43.66629138286951 ], [ -116.297062035623213, 43.666305483095748 ], [ -116.296963835241058, 43.666173683147143 ], [ -116.296677850755458, 43.665872597940997 ], [ -116.296370790256688, 43.665666140297077 ], [ -116.29626858277868, 43.665691759271773 ], [ -116.29619300984568, 43.665620029728039 ], [ -116.295664201178013, 43.665301527870788 ], [ -116.295226379911881, 43.665087375570174 ], [ -116.294217487655189, 43.664416368762431 ], [ -116.293770149666457, 43.664164145943296 ], [ -116.293299015709081, 43.663945235380481 ], [ -116.292923060423547, 43.663826261210069 ], [ -116.292466203631122, 43.663731083510491 ], [ -116.291709534698754, 43.663559762668882 ], [ -116.291366892104449, 43.663574038169806 ], [ -116.291214606853814, 43.663526449891663 ], [ -116.290957625168232, 43.663545485659057 ], [ -116.290719433442902, 43.663466750151052 ], [ -116.290258063855177, 43.663440789992663 ], [ -116.289782034186018, 43.663323883329575 ], [ -116.288421233381101, 43.663043683529665 ], [ -116.2880734328605, 43.662939283566438 ], [ -116.288017902349537, 43.662942150887524 ], [ -116.287349621326243, 43.662601740768295 ] ] ] } }
]
}
