{
  "type": "FeatureCollection",
  "features": [
    {
      "type": "Feature",
      "id": 3398960,
      "geometry": {
        "type": "LineString",
        "coordinates": [
          [
            -119.77292385329352,
            39.52221619719321
          ],
          [
            -119.77244314122204,
            39.522066099241954
          ],
          [
            -119.77185574009327,
            39.521907699174704
          ],
          [
            -119.77083060718428,
            39.52155949900446
          ],
          [
            -119.76942660757602,
            39.52136089843861
          ],
          [
            -119.76696473986382,
            39.52099056542
          ],
          [
            -119.7663538122647,
            39.520891143193
          ]
        ]
      },
      "properties": {
        "OBJECTID": 3398960,
        "permanent_identifier": "65197237",
        "fdate": 1629936000000,
        "resolution": 2,
        "gnis_id": "00861787",
        "gnis_name": "Truckee River",
        "lengthkm": 0.5816790000000001,
        "reachcode": "16050102012533",
        "flowdir": 1,
        "wbarea_permanent_identifier": "120008177",
        "ftype": 558,
        "fcode": 55800,
        "innetwork": 1,
        "mainpath": 0,
        "visibilityfilter": 5000000,
        "Shape_Length": 759.3104975068172,
        "globalid": "{75C4322F-4C9B-11E1-BCF4-0021280458E6}"
      }
    },
    {
      "type": "Feature",
      "id": 3399118,
      "geometry": {
        "type": "LineString",
        "coordinates": [
          [
            -119.87433435624384,
            39.51022775643585
          ],
          [
            -119.87355762269723,
            39.50989235676135
          ],
          [
            -119.8729802221393,
            39.5097663567855
          ]
        ]
      },
      "properties": {
        "OBJECTID": 3399118,
        "permanent_identifier": "7aa25e4f-e6ff-44fd-aff2-cb55eae7564d",
        "fdate": 1629936000000,
        "resolution": 2,
        "gnis_id": "00861787",
        "gnis_name": "Truckee River",
        "lengthkm": 0.12728888000000002,
        "reachcode": "16050102002460",
        "flowdir": 1,
        "wbarea_permanent_identifier": "120008177",
        "ftype": 558,
        "fcode": 55800,
        "innetwork": 1,
        "mainpath": 0,
        "visibilityfilter": 5000000,
        "Shape_Length": 165.88472245000054,
        "globalid": "{7F5FCD01-4C79-11E1-BCF4-0021280458E6}"
      }
    },
    {
      "type": "Feature",
      "id": 3846149,
      "geometry": {
        "type": "LineString",
        "coordinates": [
          [
            -119.89190862960307,
            39.504599029029514
          ],
          [
            -119.89198893696512,
            39.50475666812812
          ],
          [
            -119.89201775767172,
            39.50532295523969
          ],
          [
            -119.89166122499104,
            39.505727155105255
          ],
          [
            -119.89048735817344,
            39.50622875437651
          ],
          [
            -119.8893804247363,
            39.50654548837396
          ],
          [
            -119.88891735803787,
            39.50663408818187
          ],
          [
            -119.88854802470976,
            39.50672995503777
          ]
        ]
      },
      "properties": {
        "OBJECTID": 3846149,
        "permanent_identifier": "65201635",
        "fdate": 1629936000000,
        "resolution": 2,
        "gnis_id": "00861787",
        "gnis_name": "Truckee River",
        "lengthkm": 0.42644339,
        "reachcode": "16050102012542",
        "flowdir": 1,
        "wbarea_permanent_identifier": "120008177",
        "ftype": 558,
        "fcode": 55800,
        "innetwork": 1,
        "mainpath": 0,
        "visibilityfilter": 5000000,
        "Shape_Length": 554.0322181619318,
        "globalid": "{B6A7D8AC-4C7E-11E1-BCF4-0021280458E6}"
      }
    },
    {
      "type": "Feature",
      "id": 5188553,
      "geometry": {
        "type": "LineString",
        "coordinates": [
          [
            -119.80137974663637,
            39.5295703642657
          ],
          [
            -119.801175412842,
            39.529661896953776
          ],
          [
            -119.79947974639278,
            39.52971756401128
          ],
          [
            -119.79751061308016,
            39.52985369779622
          ],
          [
            -119.79569214594747,
            39.52994176387356
          ],
          [
            -119.7943177464057,
            39.5301594984478
          ],
          [
            -119.79314254562368,
            39.53035029793739
          ],
          [
            -119.79297754608996,
            39.53039856493024
          ],
          [
            -119.7925396114056,
            39.53052609807048
          ]
        ]
      },
      "properties": {
        "OBJECTID": 5188553,
        "permanent_identifier": "65197223",
        "fdate": 1629936000000,
        "resolution": 2,
        "gnis_id": "00861787",
        "gnis_name": "Truckee River",
        "lengthkm": 0.7653381600000001,
        "reachcode": "16050102002465",
        "flowdir": 1,
        "wbarea_permanent_identifier": "120008177",
        "ftype": 558,
        "fcode": 55800,
        "innetwork": 1,
        "mainpath": 0,
        "visibilityfilter": 5000000,
        "Shape_Length": 999.7825659084305,
        "globalid": "{56B96D22-4C74-11E1-BCF4-0021280458E6}"
      }
    },
    {
      "type": "Feature",
      "id": 12355753,
      "geometry": {
        "type": "LineString",
        "coordinates": [
          [
            -119.87016135558726,
            39.509858156412044
          ],
          [
            -119.86857342185078,
            39.50997128996651
          ],
          [
            -119.86800482108761,
            39.51005915728006
          ],
          [
            -119.86645362131769,
            39.51025255681707
          ],
          [
            -119.86556502101733,
            39.510444357479166
          ],
          [
            -119.86458802112318,
            39.51057195696751
          ],
          [
            -119.8635448203844,
            39.510944891133
          ],
          [
            -119.86147135482364,
            39.511424291487806
          ],
          [
            -119.85975662059161,
            39.51170289128613
          ],
          [
            -119.85886422026164,
            39.511916891592556
          ],
          [
            -119.85812175357582,
            39.51194995822925
          ],
          [
            -119.85702121942187,
            39.511858891079434
          ],
          [
            -119.85526881994548,
            39.511680291805696
          ],
          [
            -119.854297019599,
            39.51158595864371
          ],
          [
            -119.85393615309485,
            39.51150629113414
          ]
        ]
      },
      "properties": {
        "OBJECTID": 12355753,
        "permanent_identifier": "65197211",
        "fdate": 1629936000000,
        "resolution": 2,
        "gnis_id": "00861787",
        "gnis_name": "Truckee River",
        "lengthkm": 1.4181910899999999,
        "reachcode": "16050102002461",
        "flowdir": 1,
        "wbarea_permanent_identifier": "120008177",
        "ftype": 558,
        "fcode": 55800,
        "innetwork": 1,
        "mainpath": 0,
        "visibilityfilter": 5000000,
        "Shape_Length": 1851.6555335169746,
        "globalid": "{9E82FAEA-4C7B-11E1-BCF4-0021280458E6}"
      }
    },
    {
      "type": "Feature",
      "id": 13629800,
      "geometry": {
        "type": "LineString",
        "coordinates": [
          [
            -119.7776150075511,
            39.52722066936375
          ],
          [
            -119.77759876377715,
            39.5271923139605
          ],
          [
            -119.77752574223314,
            39.52708449911546
          ],
          [
            -119.77711474280805,
            39.52618149927423
          ],
          [
            -119.77675234255699,
            39.52515309911906
          ],
          [
            -119.77631320917766,
            39.52435036563399
          ],
          [
            -119.77543794123753,
            39.52362456609367
          ],
          [
            -119.7741753418553,
            39.52285829883172
          ],
          [
            -119.7734210078809,
            39.52247796565803
          ],
          [
            -119.77292385329352,
            39.52221619719321
          ]
        ]
      },
      "properties": {
        "OBJECTID": 13629800,
        "permanent_identifier": "65197233",
        "fdate": 1629936000000,
        "resolution": 2,
        "gnis_id": "00861787",
        "gnis_name": "Truckee River",
        "lengthkm": 0.7174783600000001,
        "reachcode": "16050102000041",
        "flowdir": 1,
        "wbarea_permanent_identifier": "120008177",
        "ftype": 558,
        "fcode": 55800,
        "innetwork": 1,
        "mainpath": 0,
        "visibilityfilter": 5000000,
        "Shape_Length": 928.9143889735278,
        "globalid": "{E16056A7-4C7A-11E1-BCF4-0021280458E6}"
      }
    },
    {
      "type": "Feature",
      "id": 14151504,
      "geometry": {
        "type": "LineString",
        "coordinates": [
          [
            -119.88854802470976,
            39.50672995503777
          ],
          [
            -119.88704855716125,
            39.50688308868263
          ],
          [
            -119.8861867578913,
            39.506807954941216
          ],
          [
            -119.8854144237218,
            39.506489755376016
          ],
          [
            -119.88481495760306,
            39.5061383557113
          ],
          [
            -119.88441395666774,
            39.50607115554738
          ],
          [
            -119.88404535691598,
            39.50618635532977
          ],
          [
            -119.8832186236368,
            39.50665995599683
          ],
          [
            -119.88229875633478,
            39.50713595547072
          ],
          [
            -119.88039282296717,
            39.50769408909653
          ],
          [
            -119.87887195684004,
            39.508233088971345
          ],
          [
            -119.8775951562518,
            39.50895888958831
          ],
          [
            -119.87731162222342,
            39.50917795595816
          ]
        ]
      },
      "properties": {
        "OBJECTID": 14151504,
        "permanent_identifier": "65201637",
        "fdate": 1629936000000,
        "resolution": 2,
        "gnis_id": "00861787",
        "gnis_name": "Truckee River",
        "lengthkm": 1.08137934,
        "reachcode": "16050102012542",
        "flowdir": 1,
        "wbarea_permanent_identifier": "120008177",
        "ftype": 558,
        "fcode": 55800,
        "innetwork": 1,
        "mainpath": 0,
        "visibilityfilter": 5000000,
        "Shape_Length": 1408.5268651232811,
        "globalid": "{8076DB87-4C8F-11E1-BCF4-0021280458E6}"
      }
    },
    {
      "type": "Feature",
      "id": 15500567,
      "geometry": {
        "type": "LineString",
        "coordinates": [
          [
            -119.8729802221393,
            39.5097663567855
          ],
          [
            -119.87231302142901,
            39.50977549011159
          ],
          [
            -119.87130322182684,
            39.50980035728571
          ],
          [
            -119.87062815468062,
            39.50984669019569
          ],
          [
            -119.87047562178293,
            39.50985035652721
          ],
          [
            -119.87016135558726,
            39.509858156412044
          ]
        ]
      },
      "properties": {
        "OBJECTID": 15500567,
        "permanent_identifier": "62710455-17d6-47dc-9883-6a1c179af6d2",
        "fdate": 1629936000000,
        "resolution": 2,
        "gnis_id": "00861787",
        "gnis_name": "Truckee River",
        "lengthkm": 0.24047829,
        "reachcode": "16050102002460",
        "flowdir": 1,
        "wbarea_permanent_identifier": "120008177",
        "ftype": 558,
        "fcode": 55800,
        "innetwork": 1,
        "mainpath": 0,
        "visibilityfilter": 5000000,
        "Shape_Length": 314.18683806835753,
        "globalid": "{CB9C502D-4C99-11E1-BCF4-0021280458E6}"
      }
    },
    {
      "type": "Feature",
      "id": 19764827,
      "geometry": {
        "type": "LineString",
        "coordinates": [
          [
            -119.7925396114056,
            39.53052609807048
          ],
          [
            -119.79183034503333,
            39.53079449794565
          ],
          [
            -119.79125494542198,
            39.53086329854548
          ],
          [
            -119.79066181199225,
            39.53074409806018
          ],
          [
            -119.78990794521754,
            39.53065996467939
          ],
          [
            -119.7894030115991,
            39.53071929777188
          ],
          [
            -119.78866861113167,
            39.53087049817509
          ],
          [
            -119.78789221159644,
            39.5309832981595
          ],
          [
            -119.78675954471665,
            39.53106549862608
          ],
          [
            -119.78574741119702,
            39.53112116536082
          ],
          [
            -119.78531201125315,
            39.531147898828216
          ],
          [
            -119.78358354405535,
            39.53112989942354
          ],
          [
            -119.782724944427,
            39.53102409945769
          ],
          [
            -119.7817514105511,
            39.53068316551285
          ],
          [
            -119.78065341009707,
            39.53010749861209
          ],
          [
            -119.77886260971896,
            39.528886698724534
          ],
          [
            -119.77840146488656,
            39.52839690758146
          ]
        ]
      },
      "properties": {
        "OBJECTID": 19764827,
        "permanent_identifier": "65197229",
        "fdate": 1629936000000,
        "resolution": 2,
        "gnis_id": "00861787",
        "gnis_name": "Truckee River",
        "lengthkm": 1.329105,
        "reachcode": "16050102002467",
        "flowdir": 1,
        "wbarea_permanent_identifier": "120008177",
        "ftype": 558,
        "fcode": 55800,
        "innetwork": 1,
        "mainpath": 0,
        "visibilityfilter": 5000000,
        "Shape_Length": 1732.889745036509,
        "globalid": "{3A7B7052-4C81-11E1-BCF4-0021280458E6}"
      }
    },
    {
      "type": "Feature",
      "id": 21112340,
      "geometry": {
        "type": "LineString",
        "coordinates": [
          [
            -119.81407494844622,
            39.52453389572306
          ],
          [
            -119.81380721388379,
            39.52463649591379
          ],
          [
            -119.81170974736928,
            39.52536676263045
          ],
          [
            -119.81014874681095,
            39.525921695894645
          ],
          [
            -119.8091207472312,
            39.52644889584447
          ],
          [
            -119.80796941421467,
            39.527230163164276
          ],
          [
            -119.80729721373923,
            39.52782996342608
          ],
          [
            -119.80654514708809,
            39.52869769617982
          ],
          [
            -119.80549441392476,
            39.529372963967674
          ],
          [
            -119.80473441424353,
            39.52968689745683
          ],
          [
            -119.80412894736607,
            39.529812297102694
          ],
          [
            -119.80325054741904,
            39.529789163393076
          ],
          [
            -119.80231661418043,
            39.52969349769724
          ],
          [
            -119.80161941279815,
            39.52967336391218
          ],
          [
            -119.80137974663637,
            39.5295703642657
          ]
        ]
      },
      "properties": {
        "OBJECTID": 21112340,
        "permanent_identifier": "65197221",
        "fdate": 1629936000000,
        "resolution": 2,
        "gnis_id": "00861787",
        "gnis_name": "Truckee River",
        "lengthkm": 1.29305251,
        "reachcode": "16050102002464",
        "flowdir": 1,
        "wbarea_permanent_identifier": "120008177",
        "ftype": 558,
        "fcode": 55800,
        "innetwork": 1,
        "mainpath": 0,
        "visibilityfilter": 5000000,
        "Shape_Length": 1682.9155853704397,
        "globalid": "{DEA7434B-4C80-11E1-BCF4-0021280458E6}"
      }
    },
    {
      "type": "Feature",
      "id": 21273917,
      "geometry": {
        "type": "LineString",
        "coordinates": [
          [
            -119.91163082912539,
            39.51203428687189
          ],
          [
            -119.91067302812132,
            39.51174988761741
          ],
          [
            -119.90970762913909,
            39.51158128733864
          ],
          [
            -119.90867776180104,
            39.51135635387345
          ],
          [
            -119.90856496168846,
            39.51133035374412
          ],
          [
            -119.9077729614292,
            39.51114768787086
          ],
          [
            -119.90713202795543,
            39.51099988762458
          ],
          [
            -119.90676782862133,
            39.51062328746374
          ],
          [
            -119.90591982787076,
            39.509461953908136
          ],
          [
            -119.90589676027582,
            39.5094304868557
          ],
          [
            -119.90514276031278,
            39.50865875407732
          ],
          [
            -119.90466436134807,
            39.508227287089376
          ],
          [
            -119.90241142658988,
            39.506278487240294
          ],
          [
            -119.90126862595089,
            39.50513095418123
          ],
          [
            -119.90063642567772,
            39.50444295352542
          ],
          [
            -119.89925215875341,
            39.503474887706915
          ],
          [
            -119.89825575914615,
            39.502853887730204
          ],
          [
            -119.89741682560758,
            39.50243135440111
          ],
          [
            -119.89673995937832,
            39.50231328775121
          ],
          [
            -119.89619262504601,
            39.50231728767323
          ],
          [
            -119.89534755860092,
            39.50264688784301
          ],
          [
            -119.895005558016,
            39.50279995421288
          ],
          [
            -119.8941968249319,
            39.503253887724156
          ],
          [
            -119.89342122452663,
            39.50345648772792
          ],
          [
            -119.89268655872308,
            39.50374468713644
          ],
          [
            -119.8920985582468,
            39.504270154262116
          ],
          [
            -119.89198462499284,
            39.50452368809194
          ],
          [
            -119.89190862960307,
            39.504599029029514
          ]
        ]
      },
      "properties": {
        "OBJECTID": 21273917,
        "permanent_identifier": "65201631",
        "fdate": 1629936000000,
        "resolution": 2,
        "gnis_id": "00861787",
        "gnis_name": "Truckee River",
        "lengthkm": 2.2436023499999997,
        "reachcode": "16050102000046",
        "flowdir": 1,
        "wbarea_permanent_identifier": "120008177",
        "ftype": 558,
        "fcode": 55800,
        "innetwork": 1,
        "mainpath": 0,
        "visibilityfilter": 5000000,
        "Shape_Length": 2913.685457456896,
        "globalid": "{E2B73A6A-4C7F-11E1-BCF4-0021280458E6}"
      }
    },
    {
      "type": "Feature",
      "id": 22011615,
      "geometry": {
        "type": "LineString",
        "coordinates": [
          [
            -119.87731162222342,
            39.50917795595816
          ],
          [
            -119.8770485565364,
            39.509306155853785
          ],
          [
            -119.87689502264516,
            39.509582489839275
          ],
          [
            -119.87638855632032,
            39.51010335621551
          ],
          [
            -119.87618922229112,
            39.51024748965029
          ],
          [
            -119.87604222295245,
            39.51028869007289
          ],
          [
            -119.87561795568024,
            39.51036588962204
          ],
          [
            -119.87499775588397,
            39.510359090060334
          ],
          [
            -119.87433435624384,
            39.51022775643585
          ]
        ]
      },
      "properties": {
        "OBJECTID": 22011615,
        "permanent_identifier": "65197205",
        "fdate": 1629936000000,
        "resolution": 2,
        "gnis_id": "00861787",
        "gnis_name": "Truckee River",
        "lengthkm": 0.31803969,
        "reachcode": "16050102012542",
        "flowdir": 1,
        "wbarea_permanent_identifier": "120008177",
        "ftype": 558,
        "fcode": 55800,
        "innetwork": 1,
        "mainpath": 0,
        "visibilityfilter": 5000000,
        "Shape_Length": 413.6043868754467,
        "globalid": "{CD0AD148-4C79-11E1-BCF4-0021280458E6}"
      }
    },
    {
      "type": "Feature",
      "id": 22387497,
      "geometry": {
        "type": "LineString",
        "coordinates": [
          [
            -119.76603326956885,
            39.52082058933273
          ],
          [
            -119.76578113989258,
            39.5206456997297
          ],
          [
            -119.76377254017154,
            39.519665299407976
          ],
          [
            -119.76122940572509,
            39.51828769921583
          ],
          [
            -119.7601313386769,
            39.517861565732744
          ],
          [
            -119.75910280530329,
            39.517695166833114
          ],
          [
            -119.75753073762695,
            39.51785256591436
          ],
          [
            -119.75640800472384,
            39.517956965983345
          ],
          [
            -119.75544753787204,
            39.517894966671754
          ],
          [
            -119.75415680349504,
            39.51755816637866
          ],
          [
            -119.75295813659362,
            39.517007099539065
          ],
          [
            -119.75266600359348,
            39.51688689997978
          ],
          [
            -119.752306003854,
            39.516782166784246
          ]
        ]
      },
      "properties": {
        "OBJECTID": 22387497,
        "permanent_identifier": "{88684C51-1EFA-4ED4-955B-3797288FA1A6}",
        "fdate": 1629936000000,
        "resolution": 2,
        "gnis_id": "00861787",
        "gnis_name": "Truckee River",
        "lengthkm": 1.3033627,
        "reachcode": "16050102012533",
        "flowdir": 1,
        "wbarea_permanent_identifier": "120008177",
        "ftype": 558,
        "fcode": 55800,
        "innetwork": 1,
        "mainpath": 0,
        "visibilityfilter": 5000000,
        "Shape_Length": 1698.4383833165834,
        "globalid": "{CC59A25B-E165-40A6-92DA-8B68F0649051}"
      }
    },
    {
      "type": "Feature",
      "id": 22908637,
      "geometry": {
        "type": "LineString",
        "coordinates": [
          [
            -119.85393615309485,
            39.51150629113414
          ],
          [
            -119.85273155202891,
            39.5114323585182
          ],
          [
            -119.85161935244994,
            39.51151875812887
          ],
          [
            -119.85076941942803,
            39.51172435805626
          ],
          [
            -119.85003155294235,
            39.512104359169356
          ],
          [
            -119.84954501908398,
            39.51256695866646
          ],
          [
            -119.84891961869951,
            39.513365292019316
          ],
          [
            -119.84863855177689,
            39.51395575895923
          ],
          [
            -119.84829701943218,
            39.5145846926727
          ],
          [
            -119.84816021940631,
            39.51497209294439
          ],
          [
            -119.84813961891716,
            39.51515935882001
          ],
          [
            -119.84816701929503,
            39.51537089294709
          ],
          [
            -119.8479865522256,
            39.516320691861424
          ],
          [
            -119.84777475260087,
            39.516739559051636
          ],
          [
            -119.84746081937602,
            39.5171091593918
          ],
          [
            -119.84681101847278,
            39.517546158808706
          ],
          [
            -119.84619755197106,
            39.51793795898888
          ],
          [
            -119.84580015232339,
            39.51801415951461
          ],
          [
            -119.84518761918054,
            39.517962693205
          ],
          [
            -119.84359535162056,
            39.5175067591309
          ],
          [
            -119.84311955190941,
            39.51741495917558
          ],
          [
            -119.84251241809669,
            39.51749629353758
          ],
          [
            -119.84150681808914,
            39.517860759024124
          ],
          [
            -119.84029555136334,
            39.51856255986543
          ],
          [
            -119.83959741870329,
            39.51898589330618
          ],
          [
            -119.8390433510764,
            39.5196642936571
          ],
          [
            -119.83718715106474,
            39.52127556094226
          ],
          [
            -119.83605801783791,
            39.52235949322238
          ],
          [
            -119.83549995143943,
            39.52282369391492
          ],
          [
            -119.83486421751333,
            39.52314209397546
          ],
          [
            -119.83415441734718,
            39.523277560822116
          ],
          [
            -119.83340755128421,
            39.523207161083874
          ],
          [
            -119.83247221748705,
            39.52295669407891
          ],
          [
            -119.83140801669408,
            39.52235469421884
          ],
          [
            -119.82846594989361,
            39.52048369486591
          ],
          [
            -119.82807981610597,
            39.52036749458704
          ],
          [
            -119.82733094909639,
            39.520245360795236
          ],
          [
            -119.82645521603766,
            39.52017056176836
          ],
          [
            -119.82484374854707,
            39.52018029492526
          ],
          [
            -119.82388554901854,
            39.520306961491414
          ],
          [
            -119.8227564157917,
            39.52068896164416
          ],
          [
            -119.82201514884139,
            39.52110589537827
          ],
          [
            -119.82054914902365,
            39.52258936181334
          ],
          [
            -119.81937121579978,
            39.52341576196825
          ],
          [
            -119.81800194921144,
            39.52416349534864
          ]
        ]
      },
      "properties": {
        "OBJECTID": 22908637,
        "permanent_identifier": "65197215",
        "fdate": 1629936000000,
        "resolution": 2,
        "gnis_id": "00861787",
        "gnis_name": "Truckee River",
        "lengthkm": 4.072102259999999,
        "reachcode": "16050102000044",
        "flowdir": 1,
        "wbarea_permanent_identifier": "120008177",
        "ftype": 558,
        "fcode": 55800,
        "innetwork": 1,
        "mainpath": 0,
        "visibilityfilter": 5000000,
        "Shape_Length": 5291.240334690089,
        "globalid": "{DC5E6C9B-4C95-11E1-BCF4-0021280458E6}"
      }
    },
    {
      "type": "Feature",
      "id": 22908753,
      "geometry": {
        "type": "LineString",
        "coordinates": [
          [
            -119.70306719598427,
            39.520721370738535
          ],
          [
            -119.70228692982525,
            39.520719970895854
          ],
          [
            -119.70140972961379,
            39.52065277118998
          ],
          [
            -119.70083092953783,
            39.5204955710937
          ],
          [
            -119.70037792896385,
            39.52025270440055
          ],
          [
            -119.69993619529042,
            39.51973190448551
          ],
          [
            -119.6995817946636,
            39.51935510443523
          ],
          [
            -119.69922579577678,
            39.51926097112692
          ],
          [
            -119.69871512881683,
            39.51923390478722
          ],
          [
            -119.69810579531556,
            39.519262704913466
          ],
          [
            -119.69769532864382,
            39.51938430504731
          ],
          [
            -119.69729432874902,
            39.51967137163868
          ],
          [
            -119.69670532831974,
            39.52022110497935
          ],
          [
            -119.69549352780007,
            39.52110210442616
          ],
          [
            -119.69450099481661,
            39.52188037140025
          ],
          [
            -119.69414839535386,
            39.52203477194047
          ],
          [
            -119.69383592824123,
            39.52209077178956
          ],
          [
            -119.69359139446209,
            39.52211590504717
          ]
        ]
      },
      "properties": {
        "OBJECTID": 22908753,
        "permanent_identifier": "65202385",
        "fdate": 1629936000000,
        "resolution": 2,
        "gnis_id": "00861787",
        "gnis_name": "Truckee River",
        "lengthkm": 1.00150009,
        "reachcode": "16050102000039",
        "flowdir": 1,
        "wbarea_permanent_identifier": "120008177",
        "ftype": 558,
        "fcode": 55800,
        "innetwork": 1,
        "mainpath": 0,
        "visibilityfilter": 5000000,
        "Shape_Length": 1302.5215992921521,
        "globalid": "{E2B7597B-4C7F-11E1-BCF4-0021280458E6}"
      }
    },
    {
      "type": "Feature",
      "id": 23509520,
      "geometry": {
        "type": "LineString",
        "coordinates": [
          [
            -119.77833461787041,
            39.52820120540762
          ],
          [
            -119.77805723651865,
            39.527864240803545
          ],
          [
            -119.77790334260268,
            39.52760016515222
          ],
          [
            -119.7776725417893,
            39.52732109940575
          ],
          [
            -119.7776150075511,
            39.52722066936375
          ]
        ]
      },
      "properties": {
        "OBJECTID": 23509520,
        "permanent_identifier": "{898ECE48-40E1-4380-9788-973D40154B29}",
        "fdate": 1629936000000,
        "resolution": 2,
        "gnis_id": "00861787",
        "gnis_name": "Truckee River",
        "lengthkm": 0.12612884000000002,
        "reachcode": "16050102000041",
        "flowdir": 1,
        "wbarea_permanent_identifier": "120008177",
        "ftype": 558,
        "fcode": 55800,
        "innetwork": 1,
        "mainpath": 0,
        "visibilityfilter": 5000000,
        "Shape_Length": 163.01171230961606,
        "globalid": "{750ADC75-DBFF-49D4-B6C6-42162B9B66AB}"
      }
    },
    {
      "type": "Feature",
      "id": 25381253,
      "geometry": {
        "type": "LineString",
        "coordinates": [
          [
            -119.70558059613542,
            39.52095530379988
          ],
          [
            -119.70523753004385,
            39.52103637074431
          ],
          [
            -119.70486559642164,
            39.52101577051242
          ],
          [
            -119.70435919669102,
            39.52093990397539
          ],
          [
            -119.7036055296988,
            39.5208111709087
          ],
          [
            -119.7033651965548,
            39.52078270452899
          ],
          [
            -119.70306719598427,
            39.520721370738535
          ]
        ]
      },
      "properties": {
        "OBJECTID": 25381253,
        "permanent_identifier": "65202383",
        "fdate": 1629936000000,
        "resolution": 2,
        "gnis_id": "00861787",
        "gnis_name": "Truckee River",
        "lengthkm": 0.21916590000000002,
        "reachcode": "16050102002742",
        "flowdir": 1,
        "wbarea_permanent_identifier": "120008177",
        "ftype": 558,
        "fcode": 55800,
        "innetwork": 1,
        "mainpath": 0,
        "visibilityfilter": 5000000,
        "Shape_Length": 286.20822536348635,
        "globalid": "{AE321C3E-4C7F-11E1-BCF4-0021280458E6}"
      }
    },
    {
      "type": "Feature",
      "id": 27403715,
      "geometry": {
        "type": "LineString",
        "coordinates": [
          [
            -119.752306003854,
            39.516782166784246
          ],
          [
            -119.75103573677784,
            39.51631076711796
          ],
          [
            -119.75074620407179,
            39.51633076671072
          ],
          [
            -119.75044680294269,
            39.51640696739415
          ],
          [
            -119.7502084031106,
            39.51650756639228
          ],
          [
            -119.74928460363117,
            39.51699676711952
          ],
          [
            -119.74853080345065,
            39.51760890012464
          ],
          [
            -119.74793700303869,
            39.51795310020881
          ],
          [
            -119.74740173577742,
            39.5180937007628
          ],
          [
            -119.74688380276957,
            39.51806470108399
          ],
          [
            -119.74622620306512,
            39.51787376750034
          ],
          [
            -119.74541780295185,
            39.517372966699895
          ],
          [
            -119.7449742025607,
            39.516999701006675
          ],
          [
            -119.74456633618303,
            39.51678650060245
          ],
          [
            -119.74425520199424,
            39.51673610018236
          ],
          [
            -119.74379693527847,
            39.51673450118775
          ],
          [
            -119.74351320250811,
            39.516836100687144
          ],
          [
            -119.74297080238732,
            39.517133701254146
          ],
          [
            -119.74244440255553,
            39.517364767111005
          ],
          [
            -119.74207320250969,
            39.517410700850384
          ],
          [
            -119.74143300157175,
            39.5173887012387
          ],
          [
            -119.74064493453045,
            39.51726690094925
          ],
          [
            -119.73981453440996,
            39.517084301255316
          ],
          [
            -119.73921400070347,
            39.516718768106145
          ],
          [
            -119.73872300191435,
            39.51615270150059
          ],
          [
            -119.73849133433626,
            39.51581556765876
          ],
          [
            -119.73813900125022,
            39.51546070083747
          ],
          [
            -119.7379622020626,
            39.51502736800551
          ],
          [
            -119.73759720047693,
            39.51455330098912
          ],
          [
            -119.7370689339274,
            39.51439636804574
          ],
          [
            -119.736743133414,
            39.514309300926236
          ],
          [
            -119.73606820049665,
            39.5142179013249
          ],
          [
            -119.73539300120267,
            39.514118168376626
          ],
          [
            -119.73503253426347,
            39.514027701307086
          ],
          [
            -119.73470673375009,
            39.513874300843284
          ],
          [
            -119.7337078004429,
            39.51319630151096
          ],
          [
            -119.73334260011524,
            39.51257756789308
          ],
          [
            -119.73278093242915,
            39.51204190107345
          ],
          [
            -119.73245193331469,
            39.51194236810053
          ],
          [
            -119.73195720004956,
            39.511962300716036
          ],
          [
            -119.73133913334769,
            39.512096500935066
          ],
          [
            -119.7308349333056,
            39.51228156777611
          ],
          [
            -119.7300171996037,
            39.51255676767438
          ],
          [
            -119.72956213252952,
            39.51290576756321
          ],
          [
            -119.7293803325362,
            39.513297967996834
          ],
          [
            -119.72929779947223,
            39.51377870152476
          ],
          [
            -119.7290521991459,
            39.51424250120313
          ],
          [
            -119.72872099930235,
            39.51448970200149
          ],
          [
            -119.72814833213292,
            39.51469710169135
          ],
          [
            -119.72760973204173,
            39.514821168580674
          ],
          [
            -119.72712139910035,
            39.514869701635405
          ],
          [
            -119.72640533179884,
            39.51488236870899
          ],
          [
            -119.72541133166263,
            39.51480670177436
          ],
          [
            -119.72459119848963,
            39.51468150220455
          ],
          [
            -119.72318173191654,
            39.51440090189386
          ],
          [
            -119.72251913140641,
            39.51435036889698
          ],
          [
            -119.72198193187377,
            39.514375368490455
          ],
          [
            -119.72104619851162,
            39.51449636870778
          ],
          [
            -119.72051979763933,
            39.514661368883424
          ],
          [
            -119.71973159845021,
            39.51493976866488
          ],
          [
            -119.71937339883428,
            39.51518336916391
          ],
          [
            -119.71906433114573,
            39.515524902583145
          ],
          [
            -119.71886819883917,
            39.51595870190102
          ],
          [
            -119.71877219814559,
            39.51636536924358
          ],
          [
            -119.71861859766018,
            39.51666190261899
          ],
          [
            -119.71834013207219,
            39.51696970230559
          ],
          [
            -119.71785179809025,
            39.51729070266488
          ],
          [
            -119.71731373075241,
            39.51756316959908
          ],
          [
            -119.71692899856384,
            39.51767536911022
          ],
          [
            -119.71649413137331,
            39.51772676981158
          ],
          [
            -119.71617639811883,
            39.517709569624834
          ],
          [
            -119.7155533316518,
            39.51771576965531
          ],
          [
            -119.7150441973982,
            39.51777730356316
          ],
          [
            -119.71464973101547,
            39.517910302955826
          ],
          [
            -119.71436139700444,
            39.51816870269912
          ],
          [
            -119.71394899806131,
            39.51866116989691
          ],
          [
            -119.71361493050645,
            39.51931690337952
          ],
          [
            -119.71326653063835,
            39.51967590353714
          ],
          [
            -119.71287719720911,
            39.51994077025486
          ],
          [
            -119.7125039972572,
            39.52007330397003
          ],
          [
            -119.71153319686375,
            39.520252770219244
          ],
          [
            -119.71099779745468,
            39.52032297068033
          ],
          [
            -119.71017353024074,
            39.52036290333637
          ],
          [
            -119.7086781967332,
            39.52034830363892
          ],
          [
            -119.70767559658474,
            39.52032630335233
          ],
          [
            -119.70676979730038,
            39.52039677022406
          ],
          [
            -119.70642632956273,
            39.52046677067596
          ],
          [
            -119.70599879605476,
            39.52071197076227
          ],
          [
            -119.70575393034531,
            39.52085377052513
          ],
          [
            -119.70558059613542,
            39.52095530379988
          ]
        ]
      },
      "properties": {
        "OBJECTID": 27403715,
        "permanent_identifier": "65202381",
        "fdate": 1629936000000,
        "resolution": 2,
        "gnis_id": "00861787",
        "gnis_name": "Truckee River",
        "lengthkm": 4.9171606,
        "reachcode": "16050102012533",
        "flowdir": 1,
        "wbarea_permanent_identifier": "120008177",
        "ftype": 558,
        "fcode": 55800,
        "innetwork": 1,
        "mainpath": 0,
        "visibilityfilter": 5000000,
        "Shape_Length": 6397.3650931525535,
        "globalid": "{43B4AE6A-4C71-11E1-BCF4-0021280458E6}"
      }
    },
    {
      "type": "Feature",
      "id": 28303516,
      "geometry": {
        "type": "LineString",
        "coordinates": [
          [
            -119.81502494752746,
            39.52444676265373
          ],
          [
            -119.81458801487722,
            39.52448456278905
          ],
          [
            -119.81407494844622,
            39.52453389572306
          ]
        ]
      },
      "properties": {
        "OBJECTID": 28303516,
        "permanent_identifier": "65197219",
        "fdate": 1629936000000,
        "resolution": 2,
        "gnis_id": "00861787",
        "gnis_name": "Truckee River",
        "lengthkm": 0.08151277,
        "reachcode": "16050102002463",
        "flowdir": 1,
        "wbarea_permanent_identifier": "120008177",
        "ftype": 558,
        "fcode": 55800,
        "innetwork": 1,
        "mainpath": 0,
        "visibilityfilter": 5000000,
        "Shape_Length": 106.50041426630708,
        "globalid": "{3C3720D9-4C97-11E1-BCF4-0021280458E6}"
      }
    },
    {
      "type": "Feature",
      "id": 28865550,
      "geometry": {
        "type": "LineString",
        "coordinates": [
          [
            -119.81800194921144,
            39.52416349534864
          ],
          [
            -119.81779334818776,
            39.52441709544035
          ],
          [
            -119.81746994818596,
            39.524489962806676
          ],
          [
            -119.81701278131445,
            39.52458455855913
          ],
          [
            -119.8157185476221,
            39.524536095699
          ],
          [
            -119.81525694807638,
            39.52453649620537
          ],
          [
            -119.81502494752746,
            39.52444676265373
          ]
        ]
      },
      "properties": {
        "OBJECTID": 28865550,
        "permanent_identifier": "{016B517C-F90E-4D0A-A3C4-38D3EF8E5C65}",
        "fdate": 1629936000000,
        "resolution": 2,
        "gnis_id": "00861787",
        "gnis_name": "Truckee River",
        "lengthkm": 0.27448681,
        "reachcode": "16050102012465",
        "flowdir": 1,
        "wbarea_permanent_identifier": "120008177",
        "ftype": 558,
        "fcode": 55800,
        "innetwork": 1,
        "mainpath": 0,
        "visibilityfilter": 5000000,
        "Shape_Length": 358.0592870268469,
        "globalid": "{0C9237FF-9A22-4654-A69B-0B83ECC2520E}"
      }
    },
    {
      "type": "Feature",
      "id": 28865569,
      "geometry": {
        "type": "LineString",
        "coordinates": [
          [
            -119.77840146488656,
            39.52839690758146
          ],
          [
            -119.77833461787041,
            39.52820120540762
          ]
        ]
      },
      "properties": {
        "OBJECTID": 28865569,
        "permanent_identifier": "{7E2DDFC5-142B-4FF3-89E5-298ED353E20D}",
        "fdate": 1629936000000,
        "resolution": 2,
        "gnis_id": "00861787",
        "gnis_name": "Truckee River",
        "lengthkm": 0.022659000000000002,
        "reachcode": "16050102002467",
        "flowdir": 1,
        "wbarea_permanent_identifier": "120008177",
        "ftype": 558,
        "fcode": 55800,
        "innetwork": 1,
        "mainpath": 0,
        "visibilityfilter": 5000000,
        "Shape_Length": 29.20855885359213,
        "globalid": "{757E3A15-1622-4EEF-8BB8-567D91FF03D6}"
      }
    },
    {
      "type": "Feature",
      "id": 28865645,
      "geometry": {
        "type": "LineString",
        "coordinates": [
          [
            -119.7663538122647,
            39.520891143193
          ],
          [
            -119.76603326956885,
            39.52082058933273
          ]
        ]
      },
      "properties": {
        "OBJECTID": 28865645,
        "permanent_identifier": "{081EB594-87D9-4B1D-90AD-B6D9B177FAF1}",
        "fdate": 1629936000000,
        "resolution": 2,
        "gnis_id": "00861787",
        "gnis_name": "Truckee River",
        "lengthkm": 0.028427880000000003,
        "reachcode": "16050102012533",
        "flowdir": 1,
        "wbarea_permanent_identifier": "120008177",
        "ftype": 558,
        "fcode": 55800,
        "innetwork": 1,
        "mainpath": 0,
        "visibilityfilter": 5000000,
        "Shape_Length": 37.10682679573511,
        "globalid": "{3DB66199-848F-4DB7-95BB-0A5E32F569BE}"
      }
    }
  ]
}