{
  "type": "FeatureCollection",
  "features": [
    {
      "type": "Feature",
      "id": 1458703,
      "geometry": {
        "type": "LineString",
        "coordinates": [
          [
            -116.15355692720802,
            43.57795715483968
          ],
          [
            -116.15362139452327,
            43.578035755162155
          ],
          [
            -116.15421759440626,
            43.579090688771146
          ],
          [
            -116.15426932766826,
            43.57942008833347
          ]
        ]
      },
      "properties": {
        "OBJECTID": 1458703,
        "permanent_identifier": "54066139",
        "fdate": 1327183762000,
        "resolution": 2,
        "gnis_id": "00378007",
        "gnis_name": "Boise River",
        "lengthkm": 0.17400000000000002,
        "reachcode": "17050114000342",
        "flowdir": 1,
        "wbarea_permanent_identifier": "120008049",
        "ftype": 558,
        "fcode": 55800,
        "innetwork": 1,
        "mainpath": 0,
        "visibilityfilter": 5000000,
        "Shape_Length": 240.15990136579447,
        "globalid": "{A95E3A6D-4C8E-11E1-BCF4-0021280458E6}"
      }
    },
    {
      "type": "Feature",
      "id": 1738388,
      "geometry": {
        "type": "LineString",
        "coordinates": [
          [
            -116.29754397448406,
            43.666410355917805
          ],
          [
            -116.29795800082215,
            43.66665306131919
          ],
          [
            -116.29844341090394,
            43.666981426729706
          ],
          [
            -116.29909538444186,
            43.66746683720181
          ],
          [
            -116.29962838437987,
            43.667814237843196
          ],
          [
            -116.30001385638798,
            43.667942728445986
          ],
          [
            -116.30076576591854,
            43.668185433672825
          ],
          [
            -116.3014653282721,
            43.66841862118579
          ],
          [
            -116.30196123629993,
            43.66859008320984
          ]
        ]
      },
      "properties": {
        "OBJECTID": 1738388,
        "permanent_identifier": "54072775",
        "fdate": 1512950400000,
        "resolution": 2,
        "gnis_id": "00378007",
        "gnis_name": "Boise River",
        "lengthkm": 0.43584842,
        "reachcode": "17050114002915",
        "flowdir": 1,
        "wbarea_permanent_identifier": "120008049",
        "ftype": 558,
        "fcode": 55800,
        "innetwork": 1,
        "mainpath": 0,
        "visibilityfilter": 5000000,
        "Shape_Length": 603.1614735258765,
        "globalid": "{94441BC6-4C7B-11E1-BCF4-0021280458E6}"
      }
    },
    {
      "type": "Feature",
      "id": 2129839,
      "geometry": {
        "type": "LineString",
        "coordinates": [
          [
            -116.1601277288671,
            43.58483848843775
          ],
          [
            -116.16001959658934,
            43.58526015518611
          ],
          [
            -116.16010632924792,
            43.5855503546605
          ],
          [
            -116.1603467300266,
            43.58588435565652
          ],
          [
            -116.16089759593082,
            43.58647375534782
          ]
        ]
      },
      "properties": {
        "OBJECTID": 2129839,
        "permanent_identifier": "54066123",
        "fdate": 1327183761000,
        "resolution": 2,
        "gnis_id": "00378007",
        "gnis_name": "Boise River",
        "lengthkm": 0.202,
        "reachcode": "17050114000335",
        "flowdir": 1,
        "wbarea_permanent_identifier": "120008049",
        "ftype": 558,
        "fcode": 55800,
        "innetwork": 1,
        "mainpath": 0,
        "visibilityfilter": 5000000,
        "Shape_Length": 278.8167132922718,
        "globalid": "{641FF5A6-4C95-11E1-BCF4-0021280458E6}"
      }
    },
    {
      "type": "Feature",
      "id": 3302799,
      "geometry": {
        "type": "LineString",
        "coordinates": [
          [
            -116.27828523081983,
            43.660371884151466
          ],
          [
            -116.27847783155453,
            43.66044595128828
          ],
          [
            -116.27915003202996,
            43.6607683511244
          ],
          [
            -116.2793276313881,
            43.660853551134636
          ],
          [
            -116.27988837091803,
            43.661123194673664
          ],
          [
            -116.28037853936112,
            43.66137541747216
          ],
          [
            -116.28071166419228,
            43.66172757763711
          ],
          [
            -116.28139695042145,
            43.661998837165356
          ],
          [
            -116.28182525288392,
            43.66214636363058
          ],
          [
            -116.28262475123013,
            43.66237003357737
          ],
          [
            -116.2837859287374,
            43.662527076798476
          ],
          [
            -116.28454122936778,
            43.66258434009796
          ],
          [
            -116.28514222090917,
            43.66252231721194
          ],
          [
            -116.28573708578722,
            43.66251755837769
          ],
          [
            -116.28647947859517,
            43.66263177255287
          ],
          [
            -116.2878072195586,
            43.66279833572534
          ],
          [
            -116.28982024258902,
            43.663255190491064
          ],
          [
            -116.29097190337372,
            43.663393199350715
          ],
          [
            -116.29213307984047,
            43.66353596739975
          ],
          [
            -116.29344654155786,
            43.663888127687656
          ],
          [
            -116.29480759417198,
            43.664644795692226
          ],
          [
            -116.29621136798437,
            43.665359682738895
          ],
          [
            -116.2969015686549,
            43.665859683115606
          ],
          [
            -116.29754397448406,
            43.666410355917805
          ]
        ]
      },
      "properties": {
        "OBJECTID": 3302799,
        "permanent_identifier": "54072785",
        "fdate": 1441065600000,
        "resolution": 2,
        "gnis_id": "00378007",
        "gnis_name": "Boise River",
        "lengthkm": 1.74666762,
        "reachcode": "17050114002917",
        "flowdir": 1,
        "wbarea_permanent_identifier": "120008049",
        "ftype": 558,
        "fcode": 55800,
        "innetwork": 1,
        "mainpath": 0,
        "visibilityfilter": 5000000,
        "Shape_Length": 2418.5631464344774,
        "globalid": "{6C63691E-4C9B-11E1-BCF4-0021280458E6}"
      }
    },
    {
      "type": "Feature",
      "id": 3718925,
      "geometry": {
        "type": "LineString",
        "coordinates": [
          [
            -116.16829619949732,
            43.59033375519541
          ],
          [
            -116.16857639861473,
            43.59037775456258
          ],
          [
            -116.16968039878694,
            43.59078008779985
          ],
          [
            -116.17064753337966,
            43.5915073550638
          ],
          [
            -116.1714039338543,
            43.592469888020894
          ],
          [
            -116.17164173225783,
            43.59310788847231
          ],
          [
            -116.17192073372077,
            43.59357075496578
          ],
          [
            -116.1725675337244,
            43.59401035501457
          ],
          [
            -116.17331973356386,
            43.594332287699544
          ],
          [
            -116.17418593741361,
            43.59489000290733
          ],
          [
            -116.1747320231053,
            43.59552531831348
          ],
          [
            -116.17502826725466,
            43.59623558792778
          ],
          [
            -116.17513177331892,
            43.597024380229065
          ],
          [
            -116.17512560191268,
            43.59739288779097
          ],
          [
            -116.17579533528236,
            43.598065154968104
          ],
          [
            -116.17675020198097,
            43.59906428783965
          ],
          [
            -116.17767273617125,
            43.59979848842116
          ],
          [
            -116.17828453573775,
            43.60027728791362
          ],
          [
            -116.17933793578933,
            43.600822354526244
          ]
        ]
      },
      "properties": {
        "OBJECTID": 3718925,
        "permanent_identifier": "54066117",
        "fdate": 1441065600000,
        "resolution": 2,
        "gnis_id": "00378007",
        "gnis_name": "Boise River",
        "lengthkm": 1.53443784,
        "reachcode": "17050114000334",
        "flowdir": 1,
        "wbarea_permanent_identifier": "120008049",
        "ftype": 558,
        "fcode": 55800,
        "innetwork": 1,
        "mainpath": 0,
        "visibilityfilter": 5000000,
        "Shape_Length": 2117.8445029451705,
        "globalid": "{F5D5828B-4C8A-11E1-BCF4-0021280458E6}"
      }
    },
    {
      "type": "Feature",
      "id": 4167195,
      "geometry": {
        "type": "LineString",
        "coordinates": [
          [
            -116.18677472174548,
            43.599642241956104
          ],
          [
            -116.18743478023144,
            43.599654872621564
          ],
          [
            -116.18790234411719,
            43.59980121016374
          ],
          [
            -116.18832560415264,
            43.60016888766786
          ],
          [
            -116.18852879127867,
            43.600366823575285
          ]
        ]
      },
      "properties": {
        "OBJECTID": 4167195,
        "permanent_identifier": "{AF3B505B-D21E-4486-B347-6D97B932B696}",
        "fdate": 1441065600000,
        "resolution": 2,
        "gnis_id": "00378007",
        "gnis_name": "Boise River",
        "lengthkm": 0.17483368000000002,
        "reachcode": "17050114000334",
        "flowdir": 1,
        "wbarea_permanent_identifier": "120008049",
        "ftype": 558,
        "fcode": 55800,
        "innetwork": 1,
        "mainpath": 0,
        "visibilityfilter": 5000000,
        "Shape_Length": 241.70091751346706,
        "globalid": "{FBA5FD91-8CA7-4FF5-B3D8-9C8E8326BF16}"
      }
    },
    {
      "type": "Feature",
      "id": 5731757,
      "geometry": {
        "type": "LineString",
        "coordinates": [
          [
            -116.16656039757642,
            43.58974575515283
          ],
          [
            -116.16735113150597,
            43.590196754938724
          ],
          [
            -116.16803573202333,
            43.590292955027266
          ],
          [
            -116.16829619949732,
            43.59033375519541
          ]
        ]
      },
      "properties": {
        "OBJECTID": 5731757,
        "permanent_identifier": "54066119",
        "fdate": 1327183761000,
        "resolution": 2,
        "gnis_id": "00378007",
        "gnis_name": "Boise River",
        "lengthkm": 0.159,
        "reachcode": "17050114000334",
        "flowdir": 1,
        "wbarea_permanent_identifier": "120008049",
        "ftype": 558,
        "fcode": 55800,
        "innetwork": 1,
        "mainpath": 0,
        "visibilityfilter": 5000000,
        "Shape_Length": 219.3358020763519,
        "globalid": "{F1A7D226-4C9B-11E1-BCF4-0021280458E6}"
      }
    },
    {
      "type": "Feature",
      "id": 5731925,
      "geometry": {
        "type": "LineString",
        "coordinates": [
          [
            -116.30196123629993,
            43.66859008320984
          ],
          [
            -116.3022553098957,
            43.668823129908155
          ],
          [
            -116.30265505906878,
            43.66897065691429
          ],
          [
            -116.30304529047875,
            43.6690848701019
          ],
          [
            -116.30345927103333,
            43.66915981838964
          ]
        ]
      },
      "properties": {
        "OBJECTID": 5731925,
        "permanent_identifier": "{77CE37E6-C210-47FA-8EEA-62D381AE0387}",
        "fdate": 1441065600000,
        "resolution": 2,
        "gnis_id": "00378007",
        "gnis_name": "Boise River",
        "lengthkm": 0.1393132,
        "reachcode": "17050114002914",
        "flowdir": 1,
        "wbarea_permanent_identifier": "120008049",
        "ftype": 558,
        "fcode": 55800,
        "innetwork": 1,
        "mainpath": 0,
        "visibilityfilter": 5000000,
        "Shape_Length": 192.88293817914254,
        "globalid": "{ADB82C96-C816-403A-ABC8-3CD573548B3A}"
      }
    },
    {
      "type": "Feature",
      "id": 5929183,
      "geometry": {
        "type": "LineString",
        "coordinates": [
          [
            -116.15654952857548,
            43.580536355274326
          ],
          [
            -116.15749812813873,
            43.580977555037244
          ],
          [
            -116.15846432833203,
            43.58123268837666
          ]
        ]
      },
      "properties": {
        "OBJECTID": 5929183,
        "permanent_identifier": "54066133",
        "fdate": 1327183762000,
        "resolution": 2,
        "gnis_id": "00378007",
        "gnis_name": "Boise River",
        "lengthkm": 0.17400000000000002,
        "reachcode": "17050114000340",
        "flowdir": 1,
        "wbarea_permanent_identifier": "120008049",
        "ftype": 558,
        "fcode": 55800,
        "innetwork": 1,
        "mainpath": 0,
        "visibilityfilter": 5000000,
        "Shape_Length": 239.96945404020738,
        "globalid": "{84DB15D3-4C8B-11E1-BCF4-0021280458E6}"
      }
    },
    {
      "type": "Feature",
      "id": 5985475,
      "geometry": {
        "type": "LineString",
        "coordinates": [
          [
            -116.15914692894331,
            43.58164915535127
          ],
          [
            -116.15935572870896,
            43.58178608838119
          ],
          [
            -116.16045412976852,
            43.582796754678185
          ],
          [
            -116.1605921961241,
            43.58315488825646
          ],
          [
            -116.16066279634585,
            43.58333808810083
          ],
          [
            -116.16043352927937,
            43.58398108909314
          ],
          [
            -116.16017519594028,
            43.584705288726795
          ]
        ]
      },
      "properties": {
        "OBJECTID": 5985475,
        "permanent_identifier": "54066129",
        "fdate": 1512950400000,
        "resolution": 2,
        "gnis_id": "00378007",
        "gnis_name": "Boise River",
        "lengthkm": 0.38619883,
        "reachcode": "17050114000339",
        "flowdir": 1,
        "wbarea_permanent_identifier": "120008049",
        "ftype": 558,
        "fcode": 55800,
        "innetwork": 1,
        "mainpath": 0,
        "visibilityfilter": 5000000,
        "Shape_Length": 532.4032979104182,
        "globalid": "{966C341D-4C90-11E1-BCF4-0021280458E6}"
      }
    },
    {
      "type": "Feature",
      "id": 6600048,
      "geometry": {
        "type": "LineString",
        "coordinates": [
          [
            -116.15846432833203,
            43.58123268837666
          ],
          [
            -116.15891879501821,
            43.58149955512496
          ],
          [
            -116.15914692894331,
            43.58164915535127
          ]
        ]
      },
      "properties": {
        "OBJECTID": 6600048,
        "permanent_identifier": "54066131",
        "fdate": 1327183762000,
        "resolution": 2,
        "gnis_id": "00378007",
        "gnis_name": "Boise River",
        "lengthkm": 0.07200000000000001,
        "reachcode": "17050114000340",
        "flowdir": 1,
        "wbarea_permanent_identifier": "120008049",
        "ftype": 558,
        "fcode": 55800,
        "innetwork": 1,
        "mainpath": 0,
        "visibilityfilter": 5000000,
        "Shape_Length": 99.38081544762468,
        "globalid": "{5A571F59-4C76-11E1-BCF4-0021280458E6}"
      }
    },
    {
      "type": "Feature",
      "id": 6626219,
      "geometry": {
        "type": "LineString",
        "coordinates": [
          [
            -116.18221305152028,
            43.601639343136014
          ],
          [
            -116.1831874417555,
            43.60132525438766
          ],
          [
            -116.18371925028225,
            43.60100759611698
          ],
          [
            -116.18500473620652,
            43.59987475443451
          ],
          [
            -116.18573680379706,
            43.59965975398647
          ],
          [
            -116.18633820426827,
            43.59963388757047
          ],
          [
            -116.18677472174548,
            43.599642241956104
          ]
        ]
      },
      "properties": {
        "OBJECTID": 6626219,
        "permanent_identifier": "{58F89A07-5DBF-44D5-9A75-67ABE9317818}",
        "fdate": 1441065600000,
        "resolution": 2,
        "gnis_id": "00378007",
        "gnis_name": "Boise River",
        "lengthkm": 0.45170997000000007,
        "reachcode": "17050114000334",
        "flowdir": 1,
        "wbarea_permanent_identifier": "120008049",
        "ftype": 558,
        "fcode": 55800,
        "innetwork": 1,
        "mainpath": 0,
        "visibilityfilter": 5000000,
        "Shape_Length": 624.4807086131415,
        "globalid": "{A817F64E-DC79-4982-8299-BF5C9AF0139D}"
      }
    },
    {
      "type": "Feature",
      "id": 7744168,
      "geometry": {
        "type": "LineString",
        "coordinates": [
          [
            -116.24471275367088,
            43.63873528551211
          ],
          [
            -116.24501322134716,
            43.63918675240654
          ],
          [
            -116.24580562117141,
            43.639873551985325
          ],
          [
            -116.24592393403235,
            43.64003641392042
          ],
          [
            -116.2466967551717,
            43.64034235162471
          ],
          [
            -116.24740395920585,
            43.6404980284983
          ],
          [
            -116.24822725248015,
            43.640574170613085
          ],
          [
            -116.24930752744004,
            43.64061224163429
          ],
          [
            -116.24990715276047,
            43.64093584810552
          ],
          [
            -116.25049249987542,
            43.64158306184298
          ],
          [
            -116.25090652621347,
            43.64207799073895
          ],
          [
            -116.25150615049338,
            43.64278706984987
          ],
          [
            -116.25173015662072,
            43.64300988498258
          ],
          [
            -116.25223426613637,
            43.64355325563171
          ]
        ]
      },
      "properties": {
        "OBJECTID": 7744168,
        "permanent_identifier": "54072817",
        "fdate": 1441065600000,
        "resolution": 2,
        "gnis_id": "00378007",
        "gnis_name": "Boise River",
        "lengthkm": 0.86695072,
        "reachcode": "17050114002926",
        "flowdir": 1,
        "wbarea_permanent_identifier": "120008049",
        "ftype": 558,
        "fcode": 55800,
        "innetwork": 1,
        "mainpath": 0,
        "visibilityfilter": 5000000,
        "Shape_Length": 1198.3445727587193,
        "globalid": "{620185CF-4C7D-11E1-BCF4-0021280458E6}"
      }
    },
    {
      "type": "Feature",
      "id": 7967422,
      "geometry": {
        "type": "LineString",
        "coordinates": [
          [
            -116.22666081388275,
            43.61791795200339
          ],
          [
            -116.22711221411565,
            43.61801648518621
          ],
          [
            -116.22807300977614,
            43.61828842951491
          ],
          [
            -116.22872800918651,
            43.61882810058119
          ],
          [
            -116.22926280820755,
            43.61967296756667
          ],
          [
            -116.22955395894371,
            43.62000373669777
          ]
        ]
      },
      "properties": {
        "OBJECTID": 7967422,
        "permanent_identifier": "{D949A5BA-55D4-4096-80FF-61FF8736E98B}",
        "fdate": 1441065600000,
        "resolution": 2,
        "gnis_id": "00378007",
        "gnis_name": "Boise River",
        "lengthkm": 0.34817498,
        "reachcode": "17050114002958",
        "flowdir": 1,
        "wbarea_permanent_identifier": "120008049",
        "ftype": 558,
        "fcode": 55800,
        "innetwork": 1,
        "mainpath": 0,
        "visibilityfilter": 5000000,
        "Shape_Length": 481.0059835093018,
        "globalid": "{FF36766A-8035-44C6-B262-690CF23896B3}"
      }
    },
    {
      "type": "Feature",
      "id": 7996888,
      "geometry": {
        "type": "LineString",
        "coordinates": [
          [
            -116.26060375958227,
            43.647108484682605
          ],
          [
            -116.26072082588365,
            43.647178951083774
          ],
          [
            -116.26111962608987,
            43.64740866635465
          ],
          [
            -116.26162228614186,
            43.64792619825208
          ],
          [
            -116.26173531100976,
            43.64799460821151
          ],
          [
            -116.26196433459133,
            43.64824742524856
          ],
          [
            -116.26215766578075,
            43.64872034349318
          ],
          [
            -116.2622379731428,
            43.64926464503496
          ],
          [
            -116.26221417821472,
            43.64941038677838
          ],
          [
            -116.2622439208343,
            43.64966023066524
          ]
        ]
      },
      "properties": {
        "OBJECTID": 7996888,
        "permanent_identifier": "{0303E815-62C4-4EE6-A6E4-6197711BA628}",
        "fdate": 1512950400000,
        "resolution": 2,
        "gnis_id": "00378007",
        "gnis_name": "Boise River",
        "lengthkm": 0.32974422999999997,
        "reachcode": "17050114002924",
        "flowdir": 1,
        "wbarea_permanent_identifier": "120008049",
        "ftype": 558,
        "fcode": 55800,
        "innetwork": 1,
        "mainpath": 0,
        "visibilityfilter": 5000000,
        "Shape_Length": 455.16011015107324,
        "globalid": "{13FE9CB6-0CAD-4563-A8FA-7D2A7D744F68}"
      }
    },
    {
      "type": "Feature",
      "id": 9059869,
      "geometry": {
        "type": "LineString",
        "coordinates": [
          [
            -116.2328366153652,
            43.621396551965475
          ],
          [
            -116.23331754907038,
            43.62159048528036
          ],
          [
            -116.23380521607012,
            43.622122085030966
          ],
          [
            -116.23440914920072,
            43.62304068531094
          ],
          [
            -116.23465181730268,
            43.624083085079974
          ],
          [
            -116.23465715003863,
            43.625078551527885
          ]
        ]
      },
      "properties": {
        "OBJECTID": 9059869,
        "permanent_identifier": "54072923",
        "fdate": 1327183770000,
        "resolution": 2,
        "gnis_id": "00378007",
        "gnis_name": "Boise River",
        "lengthkm": 0.458,
        "reachcode": "17050114002957",
        "flowdir": 1,
        "wbarea_permanent_identifier": "120008049",
        "ftype": 558,
        "fcode": 55800,
        "innetwork": 1,
        "mainpath": 0,
        "visibilityfilter": 5000000,
        "Shape_Length": 631.5029091233323,
        "globalid": "{EF03D593-4C74-11E1-BCF4-0021280458E6}"
      }
    },
    {
      "type": "Feature",
      "id": 11105022,
      "geometry": {
        "type": "LineString",
        "coordinates": [
          [
            -116.26820997254372,
            43.653104412909094
          ],
          [
            -116.26819569537875,
            43.65340422432433
          ],
          [
            -116.26825042849981,
            43.65373595141248
          ],
          [
            -116.26846695318876,
            43.65421324113051
          ],
          [
            -116.26930928302983,
            43.655007980796086
          ],
          [
            -116.2699707743309,
            43.65566947011508
          ],
          [
            -116.27054660264217,
            43.65625957728982
          ],
          [
            -116.27113671124002,
            43.65671643363165
          ],
          [
            -116.27152694160947,
            43.65710666588231
          ],
          [
            -116.27188862077057,
            43.657435031566855
          ],
          [
            -116.27218843186998,
            43.657696770978326
          ],
          [
            -116.27248348564865,
            43.658053690830364
          ],
          [
            -116.27266432522919,
            43.65835826154266
          ],
          [
            -116.27293082467793,
            43.658957886875264
          ],
          [
            -116.27318780636351,
            43.65913396640179
          ],
          [
            -116.27338292310903,
            43.659448055812845
          ],
          [
            -116.27535787612747,
            43.65986684114579
          ],
          [
            -116.27631917748744,
            43.65998105358871
          ],
          [
            -116.27718530329714,
            43.66005243832536
          ],
          [
            -116.27828523081983,
            43.660371884151466
          ]
        ]
      },
      "properties": {
        "OBJECTID": 11105022,
        "permanent_identifier": "54076011",
        "fdate": 1441065600000,
        "resolution": 2,
        "gnis_id": "00378007",
        "gnis_name": "Boise River",
        "lengthkm": 1.2469473800000002,
        "reachcode": "17050114004729",
        "flowdir": 1,
        "wbarea_permanent_identifier": "120008049",
        "ftype": 558,
        "fcode": 55800,
        "innetwork": 1,
        "mainpath": 0,
        "visibilityfilter": 5000000,
        "Shape_Length": 1723.7582027069118,
        "globalid": "{E67FCE82-4C72-11E1-BCF4-0021280458E6}"
      }
    },
    {
      "type": "Feature",
      "id": 12982743,
      "geometry": {
        "type": "LineString",
        "coordinates": [
          [
            -116.16017519594028,
            43.584705288726795
          ],
          [
            -116.1601277288671,
            43.58483848843775
          ]
        ]
      },
      "properties": {
        "OBJECTID": 12982743,
        "permanent_identifier": "54066125",
        "fdate": 1327183762000,
        "resolution": 2,
        "gnis_id": "00378007",
        "gnis_name": "Boise River",
        "lengthkm": 0.015000000000000001,
        "reachcode": "17050114000336",
        "flowdir": 1,
        "wbarea_permanent_identifier": "120008049",
        "ftype": 558,
        "fcode": 55800,
        "innetwork": 1,
        "mainpath": 0,
        "visibilityfilter": 5000000,
        "Shape_Length": 21.14122833542967,
        "globalid": "{2C2178A6-4C76-11E1-BCF4-0021280458E6}"
      }
    },
    {
      "type": "Feature",
      "id": 13126643,
      "geometry": {
        "type": "LineString",
        "coordinates": [
          [
            -116.1909432970116,
            43.60194629308395
          ],
          [
            -116.19136803044299,
            43.60221398274633
          ],
          [
            -116.19200334711503,
            43.60245311829958
          ],
          [
            -116.19276793867213,
            43.602954753739034
          ],
          [
            -116.1934729388556,
            43.603587753693645
          ],
          [
            -116.19368146183926,
            43.60389923641065
          ],
          [
            -116.19417520035402,
            43.60432456560982
          ],
          [
            -116.19493733937281,
            43.604878887276605
          ],
          [
            -116.19543760619695,
            43.605094086824096
          ]
        ]
      },
      "properties": {
        "OBJECTID": 13126643,
        "permanent_identifier": "54066115",
        "fdate": 1441065600000,
        "resolution": 2,
        "gnis_id": "00378007",
        "gnis_name": "Boise River",
        "lengthkm": 0.51104405,
        "reachcode": "17050114000333",
        "flowdir": 1,
        "wbarea_permanent_identifier": "120008049",
        "ftype": 558,
        "fcode": 55800,
        "innetwork": 1,
        "mainpath": 0,
        "visibilityfilter": 5000000,
        "Shape_Length": 705.9091744558068,
        "globalid": "{569CE024-4C86-11E1-BCF4-0021280458E6}"
      }
    },
    {
      "type": "Feature",
      "id": 13126715,
      "geometry": {
        "type": "LineString",
        "coordinates": [
          [
            -116.2320760995792,
            43.62117137882888
          ],
          [
            -116.23235969187752,
            43.621204257118194
          ],
          [
            -116.2328366153652,
            43.621396551965475
          ]
        ]
      },
      "properties": {
        "OBJECTID": 13126715,
        "permanent_identifier": "{68E41DA1-3B36-43C5-B716-DB1C1F02131C}",
        "fdate": 1441065600000,
        "resolution": 2,
        "gnis_id": "00378007",
        "gnis_name": "Boise River",
        "lengthkm": 0.06700725,
        "reachcode": "17050114002958",
        "flowdir": 1,
        "wbarea_permanent_identifier": "120008049",
        "ftype": 558,
        "fcode": 55800,
        "innetwork": 1,
        "mainpath": 0,
        "visibilityfilter": 5000000,
        "Shape_Length": 92.74189703609443,
        "globalid": "{E7367A4A-EA3A-4286-92D0-9EAFA625E929}"
      }
    },
    {
      "type": "Feature",
      "id": 16270564,
      "geometry": {
        "type": "LineString",
        "coordinates": [
          [
            -116.22073074591496,
            43.61443715216124
          ],
          [
            -116.2208646126759,
            43.614533352670314
          ],
          [
            -116.22087454561203,
            43.614560952148985
          ],
          [
            -116.2211609463112,
            43.61536475240414
          ],
          [
            -116.22217670505073,
            43.616200453414315
          ],
          [
            -116.2223854132494,
            43.61632188585102
          ],
          [
            -116.22310469475998,
            43.61684290744051
          ],
          [
            -116.22451452447943,
            43.617249795256974
          ],
          [
            -116.22525691728735,
            43.617378287081
          ],
          [
            -116.22666081388275,
            43.61791795200339
          ]
        ]
      },
      "properties": {
        "OBJECTID": 16270564,
        "permanent_identifier": "54072925",
        "fdate": 1441065600000,
        "resolution": 2,
        "gnis_id": "00378007",
        "gnis_name": "Boise River",
        "lengthkm": 0.64979454,
        "reachcode": "17050114002958",
        "flowdir": 1,
        "wbarea_permanent_identifier": "120008049",
        "ftype": 558,
        "fcode": 55800,
        "innetwork": 1,
        "mainpath": 0,
        "visibilityfilter": 5000000,
        "Shape_Length": 898.1256929389019,
        "globalid": "{97115A5A-4C74-11E1-BCF4-0021280458E6}"
      }
    },
    {
      "type": "Feature",
      "id": 17618333,
      "geometry": {
        "type": "LineString",
        "coordinates": [
          [
            -116.22955395894371,
            43.62000373669777
          ],
          [
            -116.22981157431443,
            43.62029640658224
          ],
          [
            -116.23078202821013,
            43.620801140540884
          ],
          [
            -116.23174570927097,
            43.621133074785654
          ],
          [
            -116.2320760995792,
            43.62117137882888
          ]
        ]
      },
      "properties": {
        "OBJECTID": 17618333,
        "permanent_identifier": "{AB4CE19B-9C04-4DBE-BD6D-DFB4AF4C99D1}",
        "fdate": 1441065600000,
        "resolution": 2,
        "gnis_id": "00378007",
        "gnis_name": "Boise River",
        "lengthkm": 0.24760657000000003,
        "reachcode": "17050114002958",
        "flowdir": 1,
        "wbarea_permanent_identifier": "120008049",
        "ftype": 558,
        "fcode": 55800,
        "innetwork": 1,
        "mainpath": 0,
        "visibilityfilter": 5000000,
        "Shape_Length": 342.433576751912,
        "globalid": "{9DB7DC40-DBBB-4AF6-B9F8-87F77B0BE84E}"
      }
    },
    {
      "type": "Feature",
      "id": 18515820,
      "geometry": {
        "type": "LineString",
        "coordinates": [
          [
            -116.21633861195106,
            43.611870885866495
          ],
          [
            -116.21791001160464,
            43.612495352007954
          ],
          [
            -116.21955061196198,
            43.613590151934325
          ],
          [
            -116.22073074591496,
            43.61443715216124
          ]
        ]
      },
      "properties": {
        "OBJECTID": 18515820,
        "permanent_identifier": "54066111",
        "fdate": 1327183761000,
        "resolution": 2,
        "gnis_id": "00378007",
        "gnis_name": "Boise River",
        "lengthkm": 0.458,
        "reachcode": "17050114000332",
        "flowdir": 1,
        "wbarea_permanent_identifier": "120008049",
        "ftype": 558,
        "fcode": 55800,
        "innetwork": 1,
        "mainpath": 0,
        "visibilityfilter": 5000000,
        "Shape_Length": 632.8991633787955,
        "globalid": "{2061AA39-4C86-11E1-BCF4-0021280458E6}"
      }
    },
    {
      "type": "Feature",
      "id": 21239610,
      "geometry": {
        "type": "LineString",
        "coordinates": [
          [
            -116.2622439208343,
            43.64966023066524
          ],
          [
            -116.26253837942758,
            43.649823818218096
          ],
          [
            -116.26297560550837,
            43.65008258448364
          ],
          [
            -116.26377570008044,
            43.650522784905235
          ],
          [
            -116.26411477260312,
            43.65070719354352
          ],
          [
            -116.26427434263123,
            43.650805852918786
          ],
          [
            -116.26497866334611,
            43.651043797665615
          ],
          [
            -116.26552593940856,
            43.65109138906166
          ],
          [
            -116.26600659112907,
            43.65110090552944
          ],
          [
            -116.26688699098213,
            43.65111042274855
          ],
          [
            -116.26765793707943,
            43.65177667252451
          ],
          [
            -116.26803864968574,
            43.65237153919508
          ],
          [
            -116.26821949030683,
            43.6528712238796
          ],
          [
            -116.26820997254372,
            43.653104412909094
          ]
        ]
      },
      "properties": {
        "OBJECTID": 21239610,
        "permanent_identifier": "54072811",
        "fdate": 1512950400000,
        "resolution": 2,
        "gnis_id": "00378007",
        "gnis_name": "Boise River",
        "lengthkm": 0.6768897,
        "reachcode": "17050114002923",
        "flowdir": 1,
        "wbarea_permanent_identifier": "120008049",
        "ftype": 558,
        "fcode": 55800,
        "innetwork": 1,
        "mainpath": 0,
        "visibilityfilter": 5000000,
        "Shape_Length": 936.0220223206579,
        "globalid": "{86C029A4-4C96-11E1-BCF4-0021280458E6}"
      }
    },
    {
      "type": "Feature",
      "id": 21407750,
      "geometry": {
        "type": "LineString",
        "coordinates": [
          [
            -116.15556952778171,
            43.58009148818
          ],
          [
            -116.15597492809415,
            43.5802690885261
          ],
          [
            -116.15654952857548,
            43.580536355274326
          ]
        ]
      },
      "properties": {
        "OBJECTID": 21407750,
        "permanent_identifier": "54066135",
        "fdate": 1327183762000,
        "resolution": 2,
        "gnis_id": "00378007",
        "gnis_name": "Boise River",
        "lengthkm": 0.093,
        "reachcode": "17050114000341",
        "flowdir": 1,
        "wbarea_permanent_identifier": "120008049",
        "ftype": 558,
        "fcode": 55800,
        "innetwork": 1,
        "mainpath": 0,
        "visibilityfilter": 5000000,
        "Shape_Length": 128.75422757317256,
        "globalid": "{D32DAE12-4C7C-11E1-BCF4-0021280458E6}"
      }
    },
    {
      "type": "Feature",
      "id": 21884182,
      "geometry": {
        "type": "LineString",
        "coordinates": [
          [
            -116.19543760619695,
            43.605094086824096
          ],
          [
            -116.19574420677974,
            43.60522595374996
          ],
          [
            -116.19616040679303,
            43.60536375387004
          ],
          [
            -116.19665876215646,
            43.60510978745351
          ],
          [
            -116.19744300731692,
            43.605265686690274
          ],
          [
            -116.19802860728161,
            43.605343487349145
          ],
          [
            -116.19909473618378,
            43.605665986274154
          ],
          [
            -116.19972231960826,
            43.60574926628157
          ],
          [
            -116.20019226423544,
            43.60574926628157
          ],
          [
            -116.20114404783224,
            43.60558270464455
          ],
          [
            -116.20254560738863,
            43.60524875344167
          ],
          [
            -116.20329094178575,
            43.60523415289986
          ],
          [
            -116.20378094062185,
            43.60546175307881
          ],
          [
            -116.20637920879491,
            43.60725155359176
          ],
          [
            -116.2082093423931,
            43.60882328635182
          ],
          [
            -116.20928494327492,
            43.60912855268856
          ],
          [
            -116.21025274276874,
            43.60985555299262
          ],
          [
            -116.21095441012233,
            43.61032028564822
          ],
          [
            -116.21243841013514,
            43.610815086277256
          ],
          [
            -116.21583494466233,
            43.6116705521348
          ],
          [
            -116.21633861195106,
            43.611870885866495
          ]
        ]
      },
      "properties": {
        "OBJECTID": 21884182,
        "permanent_identifier": "54066113",
        "fdate": 1441065600000,
        "resolution": 2,
        "gnis_id": "00378007",
        "gnis_name": "Boise River",
        "lengthkm": 1.9807566500000002,
        "reachcode": "17050114000332",
        "flowdir": 1,
        "wbarea_permanent_identifier": "120008049",
        "ftype": 558,
        "fcode": 55800,
        "innetwork": 1,
        "mainpath": 0,
        "visibilityfilter": 5000000,
        "Shape_Length": 2739.4531508817377,
        "globalid": "{7414204D-4C93-11E1-BCF4-0021280458E6}"
      }
    },
    {
      "type": "Feature",
      "id": 23454912,
      "geometry": {
        "type": "LineString",
        "coordinates": [
          [
            -116.18852879127867,
            43.600366823575285
          ],
          [
            -116.18925180414365,
            43.601071154127524
          ],
          [
            -116.1898082930928,
            43.60149300554357
          ],
          [
            -116.19047216305425,
            43.60178924896245
          ],
          [
            -116.1909432970116,
            43.60194629308395
          ]
        ]
      },
      "properties": {
        "OBJECTID": 23454912,
        "permanent_identifier": "{C6D92DA6-F1CB-4830-B4C7-3B93296BD5AF}",
        "fdate": 1441065600000,
        "resolution": 2,
        "gnis_id": "00378007",
        "gnis_name": "Boise River",
        "lengthkm": 0.26720167,
        "reachcode": "17050114000334",
        "flowdir": 1,
        "wbarea_permanent_identifier": "120008049",
        "ftype": 558,
        "fcode": 55800,
        "innetwork": 1,
        "mainpath": 0,
        "visibilityfilter": 5000000,
        "Shape_Length": 369.13324581287793,
        "globalid": "{0A3D9ADA-5299-431E-B598-ABF38303B549}"
      }
    },
    {
      "type": "Feature",
      "id": 23904739,
      "geometry": {
        "type": "LineString",
        "coordinates": [
          [
            -116.14434019156073,
            43.569891888658
          ],
          [
            -116.1444643907217,
            43.570193155558705
          ],
          [
            -116.14467632457529,
            43.57090268901617
          ],
          [
            -116.14489159125881,
            43.571780355678
          ],
          [
            -116.14549559202409,
            43.57278348918688
          ],
          [
            -116.14626112526433,
            43.57377828872026
          ],
          [
            -116.14723392556385,
            43.574369755625916
          ],
          [
            -116.1478417919124,
            43.574680488742125
          ],
          [
            -116.14905719267915,
            43.574829355840386
          ],
          [
            -116.15063739316805,
            43.575259155713766
          ],
          [
            -116.15136379297073,
            43.57565268877516
          ],
          [
            -116.1523689934133,
            43.5765090888144
          ],
          [
            -116.15355692720802,
            43.57795715483968
          ]
        ]
      },
      "properties": {
        "OBJECTID": 23904739,
        "permanent_identifier": "54066141",
        "fdate": 1441065600000,
        "resolution": 2,
        "gnis_id": "00378007",
        "gnis_name": "Boise River",
        "lengthkm": 1.24777201,
        "reachcode": "17050114000343",
        "flowdir": 1,
        "wbarea_permanent_identifier": "120008049",
        "ftype": 558,
        "fcode": 55800,
        "innetwork": 1,
        "mainpath": 0,
        "visibilityfilter": 5000000,
        "Shape_Length": 1721.8250840811406,
        "globalid": "{2BAA328A-4C75-11E1-BCF4-0021280458E6}"
      }
    },
    {
      "type": "Feature",
      "id": 24384214,
      "geometry": {
        "type": "LineString",
        "coordinates": [
          [
            -116.23465715003863,
            43.625078551527885
          ],
          [
            -116.23465741745584,
            43.625130551698796
          ],
          [
            -116.23465781702082,
            43.62519595218016
          ],
          [
            -116.23452521763014,
            43.62654995189544
          ],
          [
            -116.23451075108802,
            43.6277504854536
          ],
          [
            -116.234525751424,
            43.62782635224229
          ]
        ]
      },
      "properties": {
        "OBJECTID": 24384214,
        "permanent_identifier": "54072821",
        "fdate": 1512950400000,
        "resolution": 2,
        "gnis_id": "00378007",
        "gnis_name": "Boise River",
        "lengthkm": 0.30710409000000005,
        "reachcode": "17050114002928",
        "flowdir": 1,
        "wbarea_permanent_identifier": "120008049",
        "ftype": 558,
        "fcode": 55800,
        "innetwork": 1,
        "mainpath": 0,
        "visibilityfilter": 5000000,
        "Shape_Length": 423.22556757929897,
        "globalid": "{6C638864-4C9B-11E1-BCF4-0021280458E6}"
      }
    },
    {
      "type": "Feature",
      "id": 24804280,
      "geometry": {
        "type": "LineString",
        "coordinates": [
          [
            -116.25223426613637,
            43.64355325563171
          ],
          [
            -116.2530052122337,
            43.644091014730115
          ],
          [
            -116.25421397751612,
            43.644129086534626
          ],
          [
            -116.25513720990458,
            43.644357513843296
          ],
          [
            -116.25618417217323,
            43.644909548692624
          ],
          [
            -116.25661723507808,
            43.6454473069443
          ],
          [
            -116.2570078244317,
            43.64613728467693
          ],
          [
            -116.25719255768992,
            43.64636168513199
          ],
          [
            -116.25757395808911,
            43.646538484512206
          ],
          [
            -116.25819502465009,
            43.64657675128343
          ],
          [
            -116.25866122543646,
            43.64672348439426
          ],
          [
            -116.25946635827344,
            43.64674995097953
          ],
          [
            -116.26032002577136,
            43.646937684125454
          ],
          [
            -116.26060375958227,
            43.647108484682605
          ]
        ]
      },
      "properties": {
        "OBJECTID": 24804280,
        "permanent_identifier": "54072815",
        "fdate": 1441065600000,
        "resolution": 2,
        "gnis_id": "00378007",
        "gnis_name": "Boise River",
        "lengthkm": 0.8412685200000001,
        "reachcode": "17050114002925",
        "flowdir": 1,
        "wbarea_permanent_identifier": "120008049",
        "ftype": 558,
        "fcode": 55800,
        "innetwork": 1,
        "mainpath": 0,
        "visibilityfilter": 5000000,
        "Shape_Length": 1163.8705005534875,
        "globalid": "{62EEA3EE-4C8D-11E1-BCF4-0021280458E6}"
      }
    },
    {
      "type": "Feature",
      "id": 24834455,
      "geometry": {
        "type": "LineString",
        "coordinates": [
          [
            -116.234525751424,
            43.62782635224229
          ],
          [
            -116.23449157196806,
            43.62832137411599
          ],
          [
            -116.23453440138191,
            43.628478419007784
          ],
          [
            -116.23521016880738,
            43.62924936419907
          ],
          [
            -116.23614767627977,
            43.62983946959938
          ],
          [
            -116.23678839852518,
            43.63025088549572
          ],
          [
            -116.23765993198931,
            43.63065528532452
          ],
          [
            -116.23841435232801,
            43.631227085555416
          ],
          [
            -116.23910135231641,
            43.63203148542017
          ],
          [
            -116.23961217327539,
            43.63270434151267
          ],
          [
            -116.23992755284227,
            43.633455551577214
          ],
          [
            -116.24032601175341,
            43.63405111556016
          ],
          [
            -116.24057347671639,
            43.6344413482235
          ],
          [
            -116.24075907361772,
            43.63476971507487
          ],
          [
            -116.24133490401005,
            43.63609269392597
          ],
          [
            -116.24172758379618,
            43.63631630728894
          ],
          [
            -116.24250495414951,
            43.63626095207367
          ],
          [
            -116.24335744480364,
            43.63656382745072
          ],
          [
            -116.24380262056303,
            43.63683515169925
          ],
          [
            -116.2442065547633,
            43.6376330853326
          ],
          [
            -116.24437215468505,
            43.63822335240262
          ],
          [
            -116.24471275367088,
            43.63873528551211
          ]
        ]
      },
      "properties": {
        "OBJECTID": 24834455,
        "permanent_identifier": "54072819",
        "fdate": 1512950400000,
        "resolution": 2,
        "gnis_id": "00378007",
        "gnis_name": "Boise River",
        "lengthkm": 1.56123703,
        "reachcode": "17050114002928",
        "flowdir": 1,
        "wbarea_permanent_identifier": "120008049",
        "ftype": 558,
        "fcode": 55800,
        "innetwork": 1,
        "mainpath": 0,
        "visibilityfilter": 5000000,
        "Shape_Length": 2155.6032473014125,
        "globalid": "{01E6127A-4C81-11E1-BCF4-0021280458E6}"
      }
    },
    {
      "type": "Feature",
      "id": 25002996,
      "geometry": {
        "type": "LineString",
        "coordinates": [
          [
            -116.15426932766826,
            43.57942008833347
          ],
          [
            -116.15495099388014,
            43.57982048825588
          ],
          [
            -116.15556952778171,
            43.58009148818
          ]
        ]
      },
      "properties": {
        "OBJECTID": 25002996,
        "permanent_identifier": "54066137",
        "fdate": 1327183762000,
        "resolution": 2,
        "gnis_id": "00378007",
        "gnis_name": "Boise River",
        "lengthkm": 0.129,
        "reachcode": "17050114000341",
        "flowdir": 1,
        "wbarea_permanent_identifier": "120008049",
        "ftype": 558,
        "fcode": 55800,
        "innetwork": 1,
        "mainpath": 0,
        "visibilityfilter": 5000000,
        "Shape_Length": 178.16195234089213,
        "globalid": "{F01950BA-4C75-11E1-BCF4-0021280458E6}"
      }
    },
    {
      "type": "Feature",
      "id": 27275045,
      "geometry": {
        "type": "LineString",
        "coordinates": [
          [
            -116.17933793578933,
            43.600822354526244
          ],
          [
            -116.17953258845674,
            43.60115393413663
          ],
          [
            -116.18021430461424,
            43.601485868328254
          ],
          [
            -116.18108875573529,
            43.601689313293335
          ],
          [
            -116.18165982776637,
            43.601714296472686
          ],
          [
            -116.18221305152028,
            43.601639343136014
          ]
        ]
      },
      "properties": {
        "OBJECTID": 27275045,
        "permanent_identifier": "{E1B975F8-0D6E-4AFA-AD03-6923D45DC0ED}",
        "fdate": 1441065600000,
        "resolution": 2,
        "gnis_id": "00378007",
        "gnis_name": "Boise River",
        "lengthkm": 0.27142635000000004,
        "reachcode": "17050114000334",
        "flowdir": 1,
        "wbarea_permanent_identifier": "120008049",
        "ftype": 558,
        "fcode": 55800,
        "innetwork": 1,
        "mainpath": 0,
        "visibilityfilter": 5000000,
        "Shape_Length": 375.4180206316557,
        "globalid": "{AFF68A6E-03FA-47BC-AD5A-AFB73F0E8A03}"
      }
    },
    {
      "type": "Feature",
      "id": 28174822,
      "geometry": {
        "type": "LineString",
        "coordinates": [
          [
            -116.16089759593082,
            43.58647375534782
          ],
          [
            -116.16118419641248,
            43.58674835510103
          ],
          [
            -116.1616855297838,
            43.58722888865379
          ],
          [
            -116.16294654963565,
            43.58839764417555
          ],
          [
            -116.16416364439155,
            43.589043667575446
          ],
          [
            -116.1655484908932,
            43.589457693681794
          ],
          [
            -116.16656039757642,
            43.58974575515283
          ]
        ]
      },
      "properties": {
        "OBJECTID": 28174822,
        "permanent_identifier": "54066121",
        "fdate": 1441065600000,
        "resolution": 2,
        "gnis_id": "00378007",
        "gnis_name": "Boise River",
        "lengthkm": 0.6001994,
        "reachcode": "17050114000334",
        "flowdir": 1,
        "wbarea_permanent_identifier": "120008049",
        "ftype": 558,
        "fcode": 55800,
        "innetwork": 1,
        "mainpath": 0,
        "visibilityfilter": 5000000,
        "Shape_Length": 829.2234208083146,
        "globalid": "{18DE7A88-4C7F-11E1-BCF4-0021280458E6}"
      }
    }
  ]
}