{
  "type": "FeatureCollection",
  "features": [
    {
      "type": "Feature",
      "id": 691056,
      "geometry": {
        "type": "LineString",
        "coordinates": [
          [
            -74.83610800365099,
            40.10305211137984
          ],
          [
            -74.83611260385113,
            40.10304471118575
          ],
          [
            -74.83613087042289,
            40.10301604477792
          ],
          [
            -74.83616147044236,
            40.1029583776514
          ],
          [
            -74.83625693734207,
            40.10279144467018
          ],
          [
            -74.8363609376599,
            40.10262757786621
          ],
          [
            -74.83647340376113,
            40.10246697782792
          ],
          [
            -74.83659400371548,
            40.10230997806034
          ],
          [
            -74.83672273752293,
            40.102156711503966
          ],
          [
            -74.83685927117213,
            40.1020075777274
          ],
          [
            -74.83700340384004,
            40.101862711265674
          ],
          [
            -74.83715493782523,
            40.10172231112275
          ],
          [
            -74.83731360466997,
            40.10158664395539
          ],
          [
            -74.83732580388882,
            40.10157664416591
          ],
          [
            -74.8376743379858,
            40.101315777600895
          ]
        ]
      },
      "properties": {
        "OBJECTID": 691056,
        "permanent_identifier": "167401075",
        "fdate": 1593561600000,
        "resolution": 2,
        "gnis_id": "00217887",
        "gnis_name": "Delaware River",
        "lengthkm": 0.23733387,
        "reachcode": "02040201000679",
        "flowdir": 1,
        "wbarea_permanent_identifier": "167393148",
        "ftype": 558,
        "fcode": 55800,
        "innetwork": 1,
        "mainpath": 0,
        "visibilityfilter": 5000000,
        "Shape_Length": 309.700271980985,
        "globalid": "{3FDCED27-4C96-11E1-BCF4-0021280458E6}"
      }
    },
    {
      "type": "Feature",
      "id": 1585777,
      "geometry": {
        "type": "LineString",
        "coordinates": [
          [
            -74.82287866772124,
            40.12720338332878
          ],
          [
            -74.82306353520833,
            40.127126449553636
          ],
          [
            -74.82328660069308,
            40.12702531641019
          ],
          [
            -74.82350473404736,
            40.12691804974646
          ],
          [
            -74.82371760125983,
            40.12680471636482
          ],
          [
            -74.82392500150746,
            40.126685449898176
          ],
          [
            -74.82412653522523,
            40.12656051605096
          ],
          [
            -74.82432193499594,
            40.126429982419424
          ],
          [
            -74.82451106867182,
            40.12629404946728
          ],
          [
            -74.82469360120096,
            40.12615291606735
          ],
          [
            -74.82486926828774,
            40.126006715851666
          ],
          [
            -74.8250378680686,
            40.12585578294976
          ],
          [
            -74.8251992018016,
            40.12570011573875
          ],
          [
            -74.8253530020695,
            40.125540115978275
          ],
          [
            -74.82549906908984,
            40.1253758496749
          ],
          [
            -74.82552253520925,
            40.125348249275326
          ],
          [
            -74.82578800244839,
            40.125014116468705
          ],
          [
            -74.82585600237606,
            40.124928516547634
          ],
          [
            -74.8261855352844,
            40.12449998304251
          ],
          [
            -74.82650693538014,
            40.124067782095274
          ],
          [
            -74.82682013606914,
            40.123632048896525
          ],
          [
            -74.82712506867618,
            40.123192849417826
          ],
          [
            -74.82742166972866,
            40.122750315671695
          ],
          [
            -74.82770980187615,
            40.122304515224634
          ],
          [
            -74.82798953587493,
            40.12185558168514
          ],
          [
            -74.82826073645559,
            40.12140358182807
          ],
          [
            -74.82852340257763,
            40.120948581633876
          ],
          [
            -74.8287774020932,
            40.12049064788013
          ],
          [
            -74.8290226694487,
            40.120030047860126
          ],
          [
            -74.82925926915725,
            40.11956664784259
          ],
          [
            -74.8294858027413,
            40.119103447571135
          ],
          [
            -74.83248586993915,
            40.113053246451074
          ],
          [
            -74.83251580297643,
            40.112987713643385
          ],
          [
            -74.83263920300735,
            40.11270411328609
          ],
          [
            -74.8327536700552,
            40.11241837984811
          ],
          [
            -74.8328591364852,
            40.1121305125067
          ],
          [
            -74.83295547014964,
            40.11184077941545
          ],
          [
            -74.8330426700079,
            40.1115493794983
          ],
          [
            -74.8331206705064,
            40.111256446427475
          ],
          [
            -74.83318940296991,
            40.110962179928556
          ],
          [
            -74.83324893607363,
            40.11066664603578
          ],
          [
            -74.83329907003508,
            40.110370112919
          ],
          [
            -74.83331680281294,
            40.110249179056325
          ],
          [
            -74.83335880292131,
            40.11003217972936
          ],
          [
            -74.83343673682565,
            40.10966871278109
          ],
          [
            -74.83352393668392,
            40.109306445575335
          ],
          [
            -74.83362040353667,
            40.10894564552744
          ],
          [
            -74.83372600419554,
            40.10858631186503
          ],
          [
            -74.83384087080839,
            40.10822864516063
          ],
          [
            -74.83396480359265,
            40.10787277914069
          ],
          [
            -74.83406087088039,
            40.10761457889831
          ],
          [
            -74.83486660410541,
            40.105469845711596
          ],
          [
            -74.83493600355112,
            40.10529944494391
          ],
          [
            -74.8350777377885,
            40.104969645010556
          ],
          [
            -74.83522833737429,
            40.104642111714455
          ],
          [
            -74.83538780334901,
            40.10431711091099
          ],
          [
            -74.83555600356488,
            40.10399477793609
          ],
          [
            -74.83573293698136,
            40.10367511123585
          ],
          [
            -74.83591853700428,
            40.10335837826612
          ],
          [
            -74.83610800365099,
            40.10305211137984
          ]
        ]
      },
      "properties": {
        "OBJECTID": 1585777,
        "permanent_identifier": "167396126",
        "fdate": 1593561600000,
        "resolution": 2,
        "gnis_id": "00217887",
        "gnis_name": "Delaware River",
        "lengthkm": 2.97427396,
        "reachcode": "02040201000679",
        "flowdir": 1,
        "wbarea_permanent_identifier": "167393148",
        "ftype": 558,
        "fcode": 55800,
        "innetwork": 1,
        "mainpath": 0,
        "visibilityfilter": 5000000,
        "Shape_Length": 3873.215962764579,
        "globalid": "{E9BE1A5D-4C73-11E1-BCF4-0021280458E6}"
      }
    },
    {
      "type": "Feature",
      "id": 3118960,
      "geometry": {
        "type": "LineString",
        "coordinates": [
          [
            -74.76792225536906,
            40.208842668208284
          ],
          [
            -74.76772285474568,
            40.20784660121212
          ],
          [
            -74.76760185522636,
            40.2076186674577
          ],
          [
            -74.76747212146584,
            40.20739353414498
          ],
          [
            -74.76733378873364,
            40.2071714675167
          ],
          [
            -74.76718698813694,
            40.206952601108355
          ],
          [
            -74.76703185494516,
            40.20673713441477
          ],
          [
            -74.76699045522486,
            40.2066821340272
          ],
          [
            -74.76312765331711,
            40.20225820000669
          ],
          [
            -74.76293118699921,
            40.20205493341634
          ],
          [
            -74.76268718701392,
            40.20179166695821
          ],
          [
            -74.76245098687039,
            40.20152433359953
          ],
          [
            -74.76222265316275,
            40.201253066808654
          ],
          [
            -74.76200225352575,
            40.200977866538466
          ],
          [
            -74.76178991906662,
            40.200698999776115
          ],
          [
            -74.76158578609528,
            40.20041653323547
          ],
          [
            -74.76138991912487,
            40.20013066635487
          ],
          [
            -74.76120245238421,
            40.19984153261056
          ],
          [
            -74.7610235201022,
            40.199549199515424
          ],
          [
            -74.76085305256308,
            40.19925393327416
          ],
          [
            -74.76069131926509,
            40.19895579981418
          ],
          [
            -74.76053831916771,
            40.19865493261933
          ],
          [
            -74.76049785280625,
            40.19857193300284
          ],
          [
            -74.75785085018977,
            40.190783330933186
          ],
          [
            -74.75782005142834,
            40.19067733101344
          ],
          [
            -74.75773011808762,
            40.190390664768756
          ],
          [
            -74.75763105094079,
            40.19010579769662
          ],
          [
            -74.75753651739993,
            40.189858465001514
          ]
        ]
      },
      "properties": {
        "OBJECTID": 3118960,
        "permanent_identifier": "167393154",
        "fdate": 1644451200000,
        "resolution": 2,
        "gnis_id": "00217887",
        "gnis_name": "Delaware River",
        "lengthkm": 2.32874961,
        "reachcode": "02040201007997",
        "flowdir": 1,
        "wbarea_permanent_identifier": "167393148",
        "ftype": 558,
        "fcode": 55800,
        "innetwork": 1,
        "mainpath": 0,
        "visibilityfilter": 5000000,
        "Shape_Length": 3036.3560589804083,
        "globalid": "{CC879056-4C97-11E1-BCF4-0021280458E6}"
      }
    },
    {
      "type": "Feature",
      "id": 6280084,
      "geometry": {
        "type": "LineString",
        "coordinates": [
          [
            -74.75753651739993,
            40.189858465001514
          ],
          [
            -74.7575229176225,
            40.18982293092304
          ],
          [
            -74.75740578368642,
            40.18954213124285
          ],
          [
            -74.75727965017306,
            40.189263597402096
          ],
          [
            -74.75714471790545,
            40.18898759730488
          ],
          [
            -74.75700091820839,
            40.18871413098211
          ],
          [
            -74.75684844982379,
            40.188443530728925
          ],
          [
            -74.75668738454854,
            40.188175864145656
          ],
          [
            -74.75651771717995,
            40.18791126401492
          ],
          [
            -74.75633971721626,
            40.18764999745909
          ],
          [
            -74.75615338361698,
            40.18739213049377
          ],
          [
            -74.75599665112468,
            40.1871861309667
          ],
          [
            -74.75581191682592,
            40.18696006335305
          ],
          [
            -74.7556147835258,
            40.186732330442055
          ],
          [
            -74.75540978274924,
            40.18650866434031
          ],
          [
            -74.75519718295398,
            40.18628926381701
          ],
          [
            -74.75497705073415,
            40.186074264049864
          ],
          [
            -74.75474958379122,
            40.185863863810994
          ],
          [
            -74.75451491635405,
            40.1856580639381
          ],
          [
            -74.75427325028622,
            40.18545719754714
          ],
          [
            -74.75402471669493,
            40.185261263887014
          ],
          [
            -74.75376944980913,
            40.18507046332297
          ],
          [
            -74.75359605004562,
            40.18494639680101
          ],
          [
            -74.75039498084278,
            40.18316419693666
          ],
          [
            -74.75026118171655,
            40.18310279633393
          ],
          [
            -74.74989558182389,
            40.182940530199375
          ],
          [
            -74.74989258092427,
            40.18293919705889
          ],
          [
            -74.7495193143782,
            40.18278193002046
          ],
          [
            -74.74914151422615,
            40.18263106362907
          ],
          [
            -74.74875951447949,
            40.18248666311433
          ],
          [
            -74.748373447286,
            40.18234879688419
          ],
          [
            -74.74837131419159,
            40.182348063928735
          ],
          [
            -74.74231811256954,
            40.18062872983965
          ],
          [
            -74.74208731175615,
            40.18056239645514
          ],
          [
            -74.74183797799435,
            40.180483262963975
          ],
          [
            -74.74159244530271,
            40.18039752941238
          ],
          [
            -74.74135097797682,
            40.180305196570316
          ],
          [
            -74.74111384551496,
            40.18020646315782
          ],
          [
            -74.74088144540104,
            40.180101396720936
          ],
          [
            -74.74065397845813,
            40.1799901299936
          ],
          [
            -74.74043171106285,
            40.179872796503936
          ],
          [
            -74.7402149782671,
            40.179749596558636
          ],
          [
            -74.74000404540706,
            40.17962059611027
          ],
          [
            -74.73979911122467,
            40.17948599625979
          ],
          [
            -74.7396004452182,
            40.17934592973849
          ],
          [
            -74.73940831168323,
            40.17920066363232
          ],
          [
            -74.73922297803699,
            40.17905032987801
          ],
          [
            -74.73911797776611,
            40.17896019576873
          ],
          [
            -74.7383543112436,
            40.1783282630693
          ],
          [
            -74.73513724383284,
            40.175665795229904
          ],
          [
            -74.73254444262463,
            40.17351979513101
          ]
        ]
      },
      "properties": {
        "OBJECTID": 6280084,
        "permanent_identifier": "167396191",
        "fdate": 1593561600000,
        "resolution": 2,
        "gnis_id": "00217887",
        "gnis_name": "Delaware River",
        "lengthkm": 2.8830039,
        "reachcode": "02040201000682",
        "flowdir": 1,
        "wbarea_permanent_identifier": "167393148",
        "ftype": 558,
        "fcode": 55800,
        "innetwork": 1,
        "mainpath": 0,
        "visibilityfilter": 5000000,
        "Shape_Length": 3779.165700912417,
        "globalid": "{FAEE21DC-4C7E-11E1-BCF4-0021280458E6}"
      }
    },
    {
      "type": "Feature",
      "id": 6951016,
      "geometry": {
        "type": "LineString",
        "coordinates": [
          [
            -74.72259257085248,
            40.14900712446299
          ],
          [
            -74.72267717145719,
            40.148835390820835
          ],
          [
            -74.72280930468874,
            40.148587657152746
          ],
          [
            -74.72295010452672,
            40.14834272384203
          ],
          [
            -74.72309943778282,
            40.14810079055523
          ],
          [
            -74.72325723786285,
            40.14786205775676
          ],
          [
            -74.72342337157849,
            40.14762665751168
          ],
          [
            -74.72354850409829,
            40.14745885746672
          ],
          [
            -74.7235818376002,
            40.14740639078689
          ],
          [
            -74.7236677045346,
            40.14728305714375
          ],
          [
            -74.72376183746992,
            40.147163257126266
          ],
          [
            -74.72386397107003,
            40.14704739082727
          ],
          [
            -74.723973770283,
            40.146935790734624
          ],
          [
            -74.72409097081326,
            40.146828657304724
          ],
          [
            -74.72421530420307,
            40.146726323822854
          ],
          [
            -74.72434637088742,
            40.14662912357526
          ],
          [
            -74.72448377130131,
            40.146537257020285
          ],
          [
            -74.7246273046217,
            40.14645099063278
          ],
          [
            -74.72474783798188,
            40.14638532378254
          ],
          [
            -74.72978657320743,
            40.14335545659058
          ],
          [
            -74.72987990597224,
            40.14329245617738
          ],
          [
            -74.73022117298079,
            40.14305605615899
          ],
          [
            -74.7305561062598,
            40.142814389600986
          ],
          [
            -74.73088444047313,
            40.14256745644721
          ],
          [
            -74.73111970621727,
            40.14238418948585
          ],
          [
            -74.73265457272737,
            40.141180922223135
          ]
        ]
      },
      "properties": {
        "OBJECTID": 6951016,
        "permanent_identifier": "25486168",
        "fdate": 1593561600000,
        "resolution": 2,
        "gnis_id": "00217887",
        "gnis_name": "Delaware River",
        "lengthkm": 1.23863368,
        "reachcode": "02040201000017",
        "flowdir": 1,
        "wbarea_permanent_identifier": "167393148",
        "ftype": 558,
        "fcode": 55800,
        "innetwork": 1,
        "mainpath": 0,
        "visibilityfilter": 5000000,
        "Shape_Length": 1621.097113066773,
        "globalid": "{12E32BAB-4C93-11E1-BCF4-0021280458E6}"
      }
    },
    {
      "type": "Feature",
      "id": 8291621,
      "geometry": {
        "type": "LineString",
        "coordinates": [
          [
            -74.72852037461863,
            40.16923059449874
          ],
          [
            -74.72706297377262,
            40.16745499493252
          ]
        ]
      },
      "properties": {
        "OBJECTID": 8291621,
        "permanent_identifier": "167396076",
        "fdate": 1593561600000,
        "resolution": 2,
        "gnis_id": "00217887",
        "gnis_name": "Delaware River",
        "lengthkm": 0.23390823000000002,
        "reachcode": "02040201000682",
        "flowdir": 1,
        "wbarea_permanent_identifier": "167393148",
        "ftype": 558,
        "fcode": 55800,
        "innetwork": 1,
        "mainpath": 0,
        "visibilityfilter": 5000000,
        "Shape_Length": 305.3326162915455,
        "globalid": "{61DC7FE5-4C99-11E1-BCF4-0021280458E6}"
      }
    },
    {
      "type": "Feature",
      "id": 10084706,
      "geometry": {
        "type": "LineString",
        "coordinates": [
          [
            -74.8376743379858,
            40.101315777600895
          ],
          [
            -74.84004627131675,
            40.099540177584025
          ],
          [
            -74.84017693739557,
            40.099443776620966
          ],
          [
            -74.84036413880008,
            40.09931431001692
          ],
          [
            -74.84055753866474,
            40.099190310451746
          ],
          [
            -74.84075680505926,
            40.099071976939655
          ],
          [
            -74.84096173820112,
            40.09895944402386
          ],
          [
            -74.84117193852532,
            40.09885284385921
          ],
          [
            -74.84138720520886,
            40.09875231019166
          ],
          [
            -74.84160727187505,
            40.09865810968882
          ],
          [
            -74.84183173895887,
            40.0985702439689
          ],
          [
            -74.842060272449,
            40.09848891045058
          ],
          [
            -74.84229267256292,
            40.09841417681258
          ],
          [
            -74.84252853869509,
            40.09834617679567
          ],
          [
            -74.84276747232104,
            40.09828497648359
          ],
          [
            -74.84286073953221,
            40.0982631762967
          ],
          [
            -74.84304273826747,
            40.098222576623726
          ],
          [
            -74.84345620583885,
            40.09812490982766
          ],
          [
            -74.84386680569894,
            40.09802037623308
          ],
          [
            -74.84427427251161,
            40.09790897660437
          ],
          [
            -74.84453413959756,
            40.097832976765844
          ]
        ]
      },
      "properties": {
        "OBJECTID": 10084706,
        "permanent_identifier": "167395235",
        "fdate": 1593561600000,
        "resolution": 2,
        "gnis_id": "00217887",
        "gnis_name": "Delaware River",
        "lengthkm": 0.71224792,
        "reachcode": "02040201000679",
        "flowdir": 1,
        "wbarea_permanent_identifier": "167393148",
        "ftype": 558,
        "fcode": 55800,
        "innetwork": 1,
        "mainpath": 0,
        "visibilityfilter": 5000000,
        "Shape_Length": 933.9762116690115,
        "globalid": "{7C4D3FB9-4C8D-11E1-BCF4-0021280458E6}"
      }
    },
    {
      "type": "Feature",
      "id": 10084759,
      "geometry": {
        "type": "LineString",
        "coordinates": [
          [
            -74.73719117441107,
            40.137624121533456
          ],
          [
            -74.73858437431849,
            40.13653172150364
          ]
        ]
      },
      "properties": {
        "OBJECTID": 10084759,
        "permanent_identifier": "167395738",
        "fdate": 1593561600000,
        "resolution": 2,
        "gnis_id": "00217887",
        "gnis_name": "Delaware River",
        "lengthkm": 0.16978250000000003,
        "reachcode": "02040201000017",
        "flowdir": 1,
        "wbarea_permanent_identifier": "167393148",
        "ftype": 558,
        "fcode": 55800,
        "innetwork": 1,
        "mainpath": 0,
        "visibilityfilter": 5000000,
        "Shape_Length": 222.15867652746022,
        "globalid": "{FAB8AE8F-4C90-11E1-BCF4-0021280458E6}"
      }
    },
    {
      "type": "Feature",
      "id": 11430915,
      "geometry": {
        "type": "LineString",
        "coordinates": [
          [
            -74.74447617665393,
            40.134220920378986
          ],
          [
            -74.74501831039807,
            40.1341049206329
          ],
          [
            -74.74510377672694,
            40.13408998698865
          ],
          [
            -74.74530331053865,
            40.13406052063651
          ],
          [
            -74.74550444365089,
            40.134038186978714
          ],
          [
            -74.74570664435086,
            40.13402318729094
          ],
          [
            -74.74590957758667,
            40.134015453958234
          ],
          [
            -74.74611277719912,
            40.134014986982955
          ],
          [
            -74.7463157770291,
            40.13402185398524
          ],
          [
            -74.74651811091739,
            40.13403605416732
          ],
          [
            -74.74671937825852,
            40.13405745387588
          ],
          [
            -74.74691904421802,
            40.13408612072397
          ],
          [
            -74.74711684450034,
            40.134121920258295
          ],
          [
            -74.74731217767689,
            40.134164854058625
          ],
          [
            -74.74750471077685,
            40.13421465401913
          ],
          [
            -74.74769397764106,
            40.13427145377297
          ],
          [
            -74.74782517751373,
            40.13431545348239
          ],
          [
            -74.74784544503208,
            40.134321787452585
          ],
          [
            -74.74818777858783,
            40.13442385402638
          ],
          [
            -74.74853351156769,
            40.13451918714333
          ],
          [
            -74.74888224544716,
            40.13460758715583
          ],
          [
            -74.74923384495685,
            40.13468912091476
          ],
          [
            -74.7495881113548,
            40.134763654001866
          ],
          [
            -74.74989371198457,
            40.13482152088349
          ],
          [
            -74.74994471271073,
            40.13483118723578
          ],
          [
            -74.75030344507996,
            40.13489158699026
          ],
          [
            -74.75066411180163,
            40.134944920903365
          ],
          [
            -74.75102644545852,
            40.13499112057725
          ],
          [
            -74.75134664581874,
            40.135025853642425
          ],
          [
            -74.75159157916288,
            40.13504045375952
          ],
          [
            -74.75200731197646,
            40.13505945387455
          ],
          [
            -74.7524234464361,
            40.13507125376749
          ],
          [
            -74.75283991282603,
            40.13507578741419
          ],
          [
            -74.7532563126218,
            40.13507305402062
          ],
          [
            -74.75367257922923,
            40.13506305358592
          ],
          [
            -74.75408844627167,
            40.13504585372575
          ],
          [
            -74.75450371396663,
            40.135021386815765
          ],
          [
            -74.75458558004837,
            40.13501518655765
          ]
        ]
      },
      "properties": {
        "OBJECTID": 11430915,
        "permanent_identifier": "167395726",
        "fdate": 1593561600000,
        "resolution": 2,
        "gnis_id": "00217887",
        "gnis_name": "Delaware River",
        "lengthkm": 0.8731063,
        "reachcode": "02040201000015",
        "flowdir": 1,
        "wbarea_permanent_identifier": "167393148",
        "ftype": 558,
        "fcode": 55800,
        "innetwork": 1,
        "mainpath": 0,
        "visibilityfilter": 5000000,
        "Shape_Length": 1150.0281477437493,
        "globalid": "{DF39587B-4C8F-11E1-BCF4-0021280458E6}"
      }
    },
    {
      "type": "Feature",
      "id": 17045605,
      "geometry": {
        "type": "LineString",
        "coordinates": [
          [
            -74.72485310566995,
            40.1647625273895
          ],
          [
            -74.72391343908981,
            40.16361752753761
          ],
          [
            -74.7238660386108,
            40.163561993598755
          ],
          [
            -74.72367350551082,
            40.16332792722459
          ],
          [
            -74.72348890544095,
            40.163090060634694
          ],
          [
            -74.72331250581833,
            40.162848593382016
          ],
          [
            -74.72314430456193,
            40.1626037266123
          ],
          [
            -74.72298457221052,
            40.1623555270852
          ],
          [
            -74.72283330460202,
            40.162104193564076
          ],
          [
            -74.72269057145212,
            40.16184992640525
          ],
          [
            -74.72255657150285,
            40.16159292676283
          ],
          [
            -74.72243137134836,
            40.16133332661037
          ],
          [
            -74.72231497098863,
            40.161071327106654
          ],
          [
            -74.72220757124671,
            40.160807060229594
          ],
          [
            -74.72218097103936,
            40.160737726206115
          ],
          [
            -74.72180090460458,
            40.15962506007367
          ]
        ]
      },
      "properties": {
        "OBJECTID": 17045605,
        "permanent_identifier": "167395812",
        "fdate": 1593561600000,
        "resolution": 2,
        "gnis_id": "00217887",
        "gnis_name": "Delaware River",
        "lengthkm": 0.63510196,
        "reachcode": "02040201000682",
        "flowdir": 1,
        "wbarea_permanent_identifier": "167393148",
        "ftype": 558,
        "fcode": 55800,
        "innetwork": 1,
        "mainpath": 0,
        "visibilityfilter": 5000000,
        "Shape_Length": 827.7846962376065,
        "globalid": "{34823696-4C8A-11E1-BCF4-0021280458E6}"
      }
    },
    {
      "type": "Feature",
      "id": 17045642,
      "geometry": {
        "type": "LineString",
        "coordinates": [
          [
            -74.72180090460458,
            40.15962506007367
          ],
          [
            -74.72125130398953,
            40.15801585994504
          ],
          [
            -74.72122683791711,
            40.15791552666895
          ],
          [
            -74.72117437003823,
            40.157672192847926
          ],
          [
            -74.72113123782907,
            40.15742772571267
          ],
          [
            -74.721097438168,
            40.157182459258884
          ],
          [
            -74.72107310424337,
            40.15693652549117
          ],
          [
            -74.72105810390738,
            40.15669012639908
          ],
          [
            -74.72105263694252,
            40.15644352521066
          ],
          [
            -74.72105283776557,
            40.15636385939621
          ],
          [
            -74.721046903601,
            40.15597632632323
          ],
          [
            -74.72105030406563,
            40.15558865902278
          ],
          [
            -74.72106317026669,
            40.15520112550219
          ],
          [
            -74.72108550428527,
            40.15481385857634
          ],
          [
            -74.72111716981141,
            40.154426925849535
          ],
          [
            -74.72115823760143,
            40.15404052535573
          ],
          [
            -74.72120870453371,
            40.153654791509496
          ],
          [
            -74.72126857060826,
            40.153269858728414
          ],
          [
            -74.72133770367728,
            40.15288585825202
          ],
          [
            -74.72141623692912,
            40.15250292529918
          ],
          [
            -74.72150397058125,
            40.15212112510394
          ],
          [
            -74.72160103678151,
            40.15174072491334
          ],
          [
            -74.7217073044226,
            40.15136172475089
          ],
          [
            -74.7218227048293,
            40.150984325063256
          ],
          [
            -74.72194730459576,
            40.15060859188987
          ],
          [
            -74.72208103712782,
            40.15023479090157
          ],
          [
            -74.72211643712996,
            40.15014245838194
          ]
        ]
      },
      "properties": {
        "OBJECTID": 17045642,
        "permanent_identifier": "167395780",
        "fdate": 1593561600000,
        "resolution": 2,
        "gnis_id": "00217887",
        "gnis_name": "Delaware River",
        "lengthkm": 1.0776963599999998,
        "reachcode": "02040201000680",
        "flowdir": 1,
        "wbarea_permanent_identifier": "167393148",
        "ftype": 558,
        "fcode": 55800,
        "innetwork": 1,
        "mainpath": 0,
        "visibilityfilter": 5000000,
        "Shape_Length": 1401.553769783031,
        "globalid": "{37D70B1F-4C72-11E1-BCF4-0021280458E6}"
      }
    },
    {
      "type": "Feature",
      "id": 19963769,
      "geometry": {
        "type": "LineString",
        "coordinates": [
          [
            -74.73265457272737,
            40.141180922223135
          ],
          [
            -74.73719117441107,
            40.137624121533456
          ]
        ]
      },
      "properties": {
        "OBJECTID": 19963769,
        "permanent_identifier": "25486170",
        "fdate": 1593561600000,
        "resolution": 2,
        "gnis_id": "00217887",
        "gnis_name": "Delaware River",
        "lengthkm": 0.5528184100000001,
        "reachcode": "02040201000017",
        "flowdir": 1,
        "wbarea_permanent_identifier": "167393148",
        "ftype": 558,
        "fcode": 55800,
        "innetwork": 1,
        "mainpath": 0,
        "visibilityfilter": 5000000,
        "Shape_Length": 723.382366514182,
        "globalid": "{41013491-4C72-11E1-BCF4-0021280458E6}"
      }
    },
    {
      "type": "Feature",
      "id": 20861232,
      "geometry": {
        "type": "LineString",
        "coordinates": [
          [
            -74.72706297377262,
            40.16745499493252
          ],
          [
            -74.72485310566995,
            40.1647625273895
          ]
        ]
      },
      "properties": {
        "OBJECTID": 20861232,
        "permanent_identifier": "167396183",
        "fdate": 1593561600000,
        "resolution": 2,
        "gnis_id": "00217887",
        "gnis_name": "Delaware River",
        "lengthkm": 0.35469076000000005,
        "reachcode": "02040201000682",
        "flowdir": 1,
        "wbarea_permanent_identifier": "167393148",
        "ftype": 558,
        "fcode": 55800,
        "innetwork": 1,
        "mainpath": 0,
        "visibilityfilter": 5000000,
        "Shape_Length": 462.9811127965814,
        "globalid": "{63A5E61E-4C89-11E1-BCF4-0021280458E6}"
      }
    },
    {
      "type": "Feature",
      "id": 22209566,
      "geometry": {
        "type": "LineString",
        "coordinates": [
          [
            -74.79553085864598,
            40.121969516091646
          ],
          [
            -74.79599672542099,
            40.12206278361755
          ],
          [
            -74.79658465930311,
            40.1221880495672
          ],
          [
            -74.79717005948527,
            40.12232024951076
          ],
          [
            -74.79775265959084,
            40.122459383407886
          ],
          [
            -74.79833245961983,
            40.122605382789025
          ],
          [
            -74.79859632651792,
            40.12267438336842
          ],
          [
            -74.79895839275761,
            40.122760983090075
          ],
          [
            -74.79963792691564,
            40.12292931595642
          ],
          [
            -74.80031459440292,
            40.123104449676106
          ],
          [
            -74.8009881943964,
            40.12328644944029
          ],
          [
            -74.80165859370774,
            40.12347518311559
          ],
          [
            -74.80232572782387,
            40.12367071668476
          ],
          [
            -74.80298946043484,
            40.123872916420495
          ],
          [
            -74.80330792830621,
            40.12397264993849
          ],
          [
            -74.80703132885345,
            40.125214383597864
          ],
          [
            -74.81330533175858,
            40.12730631666617
          ],
          [
            -74.81331086427707,
            40.127308117125
          ],
          [
            -74.8136038640419,
            40.12740085063575
          ],
          [
            -74.81390033190605,
            40.127486850815295
          ],
          [
            -74.81419999837127,
            40.12756598323221
          ],
          [
            -74.81450266469558,
            40.12763831633231
          ],
          [
            -74.81480793235451,
            40.127703650441035
          ],
          [
            -74.81511566503815,
            40.12776198319179
          ],
          [
            -74.81542546526252,
            40.12781325015892
          ],
          [
            -74.81573713220463,
            40.12785745056285
          ],
          [
            -74.8160503994878,
            40.12789444996086
          ],
          [
            -74.81636493310069,
            40.127924316786284
          ],
          [
            -74.81668046562606,
            40.12794691659227
          ],
          [
            -74.81670166650326,
            40.12794818398242
          ],
          [
            -74.81675779914237,
            40.12795065034109
          ],
          [
            -74.81715759930161,
            40.12796405062309
          ],
          [
            -74.81755766583753,
            40.12797024993331
          ],
          [
            -74.81779946613425,
            40.127969584016704
          ]
        ]
      },
      "properties": {
        "OBJECTID": 22209566,
        "permanent_identifier": "167396127",
        "fdate": 1593561600000,
        "resolution": 2,
        "gnis_id": "00217887",
        "gnis_name": "Delaware River",
        "lengthkm": 2.0081017300000004,
        "reachcode": "02040201000697",
        "flowdir": 1,
        "wbarea_permanent_identifier": "167393148",
        "ftype": 558,
        "fcode": 55800,
        "innetwork": 1,
        "mainpath": 0,
        "visibilityfilter": 5000000,
        "Shape_Length": 2641.7671153883366,
        "globalid": "{3213BF93-4C7F-11E1-BCF4-0021280458E6}"
      }
    },
    {
      "type": "Feature",
      "id": 23331247,
      "geometry": {
        "type": "LineString",
        "coordinates": [
          [
            -74.73858437431849,
            40.13653172150364
          ],
          [
            -74.73936790879435,
            40.13591732135286
          ],
          [
            -74.73948090868944,
            40.135832054160865
          ],
          [
            -74.73965324190577,
            40.13571072089261
          ],
          [
            -74.73983177566332,
            40.13559485415322
          ],
          [
            -74.74001630913904,
            40.13548458761645
          ],
          [
            -74.74020650832158,
            40.135380187806426
          ],
          [
            -74.74040204232116,
            40.135281787600896
          ],
          [
            -74.74060257608592,
            40.13518952146792
          ],
          [
            -74.74080790879277,
            40.13510358751601
          ],
          [
            -74.74101750872896,
            40.13502412100693
          ],
          [
            -74.74123124270612,
            40.134951254814894
          ],
          [
            -74.74144857588988,
            40.13488505419361
          ],
          [
            -74.74166924190355,
            40.13482572042889
          ],
          [
            -74.74189284326323,
            40.13477325433421
          ],
          [
            -74.74200664228832,
            40.13474945397182
          ],
          [
            -74.74447617665393,
            40.134220920378986
          ]
        ]
      },
      "properties": {
        "OBJECTID": 23331247,
        "permanent_identifier": "167395727",
        "fdate": 1593561600000,
        "resolution": 2,
        "gnis_id": "00217887",
        "gnis_name": "Delaware River",
        "lengthkm": 0.5739040200000001,
        "reachcode": "02040201000017",
        "flowdir": 1,
        "wbarea_permanent_identifier": "167393148",
        "ftype": 558,
        "fcode": 55800,
        "innetwork": 1,
        "mainpath": 0,
        "visibilityfilter": 5000000,
        "Shape_Length": 753.9002436462681,
        "globalid": "{2960F9E7-4C7B-11E1-BCF4-0021280458E6}"
      }
    },
    {
      "type": "Feature",
      "id": 23555319,
      "geometry": {
        "type": "LineString",
        "coordinates": [
          [
            -74.73106697508334,
            40.17222206178727
          ],
          [
            -74.73094610875232,
            40.172102794740695
          ],
          [
            -74.7307032419084,
            40.171851462324
          ],
          [
            -74.73046804171788,
            40.171595861736826
          ],
          [
            -74.73024057477497,
            40.171336194884226
          ],
          [
            -74.73002104190265,
            40.17107259450031
          ],
          [
            -74.72980944101988,
            40.17080512891766
          ],
          [
            -74.72976170757002,
            40.170742794816285
          ],
          [
            -74.72852037461863,
            40.16923059449874
          ]
        ]
      },
      "properties": {
        "OBJECTID": 23555319,
        "permanent_identifier": "167396088",
        "fdate": 1593561600000,
        "resolution": 2,
        "gnis_id": "00217887",
        "gnis_name": "Delaware River",
        "lengthkm": 0.39837932000000004,
        "reachcode": "02040201000682",
        "flowdir": 1,
        "wbarea_permanent_identifier": "167393148",
        "ftype": 558,
        "fcode": 55800,
        "innetwork": 1,
        "mainpath": 0,
        "visibilityfilter": 5000000,
        "Shape_Length": 520.1553119581836,
        "globalid": "{6A36BC49-4C93-11E1-BCF4-0021280458E6}"
      }
    },
    {
      "type": "Feature",
      "id": 24455223,
      "geometry": {
        "type": "LineString",
        "coordinates": [
          [
            -74.73254444262463,
            40.17351979513101
          ],
          [
            -74.73190684094024,
            40.17299206170193
          ],
          [
            -74.73171910886346,
            40.17283006238361
          ],
          [
            -74.7314541754182,
            40.17259219569705
          ],
          [
            -74.73119644142662,
            40.17234972864127
          ],
          [
            -74.73106697508334,
            40.17222206178727
          ]
        ]
      },
      "properties": {
        "OBJECTID": 24455223,
        "permanent_identifier": "167396143",
        "fdate": 1593561600000,
        "resolution": 2,
        "gnis_id": "00217887",
        "gnis_name": "Delaware River",
        "lengthkm": 0.19164802000000003,
        "reachcode": "02040201000682",
        "flowdir": 1,
        "wbarea_permanent_identifier": "167393148",
        "ftype": 558,
        "fcode": 55800,
        "innetwork": 1,
        "mainpath": 0,
        "visibilityfilter": 5000000,
        "Shape_Length": 250.70331861829848,
        "globalid": "{EA8552F7-4C8D-11E1-BCF4-0021280458E6}"
      }
    },
    {
      "type": "Feature",
      "id": 24680387,
      "geometry": {
        "type": "LineString",
        "coordinates": [
          [
            -74.81779946613425,
            40.127969584016704
          ],
          [
            -74.8179578666023,
            40.12796911620427
          ],
          [
            -74.81835793313823,
            40.1279607838919
          ],
          [
            -74.81875760010915,
            40.12794518377635
          ],
          [
            -74.81915666669204,
            40.12792231664824
          ],
          [
            -74.81955493414493,
            40.12789225012621
          ],
          [
            -74.8199521340101,
            40.127854983405186
          ],
          [
            -74.82034813309919,
            40.127810450438396
          ],
          [
            -74.82074260052246,
            40.12775885011198
          ],
          [
            -74.82093173419833,
            40.127731450376054
          ],
          [
            -74.82113713349935,
            40.12769818385638
          ],
          [
            -74.82138873354387,
            40.12765064977213
          ],
          [
            -74.82163786752318,
            40.12759618355997
          ],
          [
            -74.82188426802006,
            40.12753471678112
          ],
          [
            -74.82212760102314,
            40.12746638307839
          ],
          [
            -74.82236746696742,
            40.127391316888456
          ],
          [
            -74.82260360155735,
            40.12730958342882
          ],
          [
            -74.82283573425406,
            40.12722124950647
          ],
          [
            -74.82287866772124,
            40.12720338332878
          ]
        ]
      },
      "properties": {
        "OBJECTID": 24680387,
        "permanent_identifier": "25486828",
        "fdate": 1593561600000,
        "resolution": 2,
        "gnis_id": "00217887",
        "gnis_name": "Delaware River",
        "lengthkm": 0.44175149,
        "reachcode": "02040201000698",
        "flowdir": 1,
        "wbarea_permanent_identifier": "167393148",
        "ftype": 558,
        "fcode": 55800,
        "innetwork": 1,
        "mainpath": 0,
        "visibilityfilter": 5000000,
        "Shape_Length": 581.7036796734633,
        "globalid": "{248A6D58-4C90-11E1-BCF4-0021280458E6}"
      }
    },
    {
      "type": "Feature",
      "id": 25804418,
      "geometry": {
        "type": "LineString",
        "coordinates": [
          [
            -74.72211643712996,
            40.15014245838194
          ],
          [
            -74.72222377027771,
            40.149862924516356
          ],
          [
            -74.72233957024939,
            40.149578657984996
          ],
          [
            -74.72243923674374,
            40.14933865782212
          ],
          [
            -74.72255377038573,
            40.14908579119649
          ],
          [
            -74.72259257085248,
            40.14900712446299
          ]
        ]
      },
      "properties": {
        "OBJECTID": 25804418,
        "permanent_identifier": "167395779",
        "fdate": 1593561600000,
        "resolution": 2,
        "gnis_id": "00217887",
        "gnis_name": "Delaware River",
        "lengthkm": 0.1334345,
        "reachcode": "02040201000680",
        "flowdir": 1,
        "wbarea_permanent_identifier": "167393148",
        "ftype": 558,
        "fcode": 55800,
        "innetwork": 1,
        "mainpath": 0,
        "visibilityfilter": 5000000,
        "Shape_Length": 173.67445544800006,
        "globalid": "{D644DD0B-4C7C-11E1-BCF4-0021280458E6}"
      }
    },
    {
      "type": "Feature",
      "id": 27376236,
      "geometry": {
        "type": "LineString",
        "coordinates": [
          [
            -74.7755957867085,
            40.125761784674076
          ],
          [
            -74.78296958811018,
            40.12159985019273
          ],
          [
            -74.7831040542186,
            40.121533917440004
          ],
          [
            -74.78332732156692,
            40.12143151642171
          ],
          [
            -74.78355518807483,
            40.12133531675587
          ],
          [
            -74.78378752159459,
            40.12124558342953
          ],
          [
            -74.78402392152063,
            40.1211623164684
          ],
          [
            -74.78426412147628,
            40.121085717203144
          ],
          [
            -74.78450778953126,
            40.12101591694368
          ],
          [
            -74.7847545885526,
            40.12095291650658
          ],
          [
            -74.78500418869106,
            40.12089685038111
          ],
          [
            -74.7852563214889,
            40.120847783034634
          ],
          [
            -74.78551058946222,
            40.120805716073725
          ],
          [
            -74.78576665547806,
            40.120770850023625
          ],
          [
            -74.78602418968711,
            40.12074311646658
          ],
          [
            -74.78628285599702,
            40.120722517002704
          ],
          [
            -74.78654239011215,
            40.12070924976386
          ],
          [
            -74.78680232275174,
            40.12070311662897
          ],
          [
            -74.7870623896202,
            40.12070431652098
          ],
          [
            -74.78732225566564,
            40.120712716560305
          ],
          [
            -74.78758152340411,
            40.12072838278601
          ],
          [
            -74.78783992333734,
            40.12075124994702
          ],
          [
            -74.78809705590035,
            40.12078131644472
          ],
          [
            -74.78826379000404,
            40.120804782737345
          ],
          [
            -74.79259399139316,
            40.12148171638848
          ],
          [
            -74.79302305760747,
            40.121541782683515
          ],
          [
            -74.79362185778457,
            40.12163184980179
          ],
          [
            -74.79421872569031,
            40.12172905000393
          ],
          [
            -74.79481359160893,
            40.12183325038223
          ],
          [
            -74.79540632547368,
            40.12194451694519
          ],
          [
            -74.79553085864598,
            40.121969516091646
          ]
        ]
      },
      "properties": {
        "OBJECTID": 27376236,
        "permanent_identifier": "25486988",
        "fdate": 1593561600000,
        "resolution": 2,
        "gnis_id": "00217887",
        "gnis_name": "Delaware River",
        "lengthkm": 1.8737519299999998,
        "reachcode": "02040201000697",
        "flowdir": 1,
        "wbarea_permanent_identifier": "167393148",
        "ftype": 558,
        "fcode": 55800,
        "innetwork": 1,
        "mainpath": 0,
        "visibilityfilter": 5000000,
        "Shape_Length": 2462.761230510996,
        "globalid": "{99E62A55-4C7D-11E1-BCF4-0021280458E6}"
      }
    },
    {
      "type": "Feature",
      "id": 27600121,
      "geometry": {
        "type": "LineString",
        "coordinates": [
          [
            -74.75458558004837,
            40.13501518655765
          ],
          [
            -74.75491811385632,
            40.13498972046705
          ],
          [
            -74.75533151379301,
            40.13495085387403
          ],
          [
            -74.7557435797653,
            40.13490478702428
          ],
          [
            -74.75615424726007,
            40.13485152069878
          ],
          [
            -74.7565632467791,
            40.1347911869368
          ],
          [
            -74.75697031402677,
            40.13472365366313
          ],
          [
            -74.7573752471395,
            40.134649120532146
          ],
          [
            -74.75777791501004,
            40.13456752069692
          ],
          [
            -74.75817811369376,
            40.134478986984426
          ],
          [
            -74.75857551438197,
            40.13438345333897
          ],
          [
            -74.7589700483994,
            40.13428105337931
          ],
          [
            -74.7593613817347,
            40.13417178707451
          ],
          [
            -74.75974944779374,
            40.13405572042016
          ],
          [
            -74.76013398228085,
            40.13393298703047
          ],
          [
            -74.760514782292,
            40.133803520044665
          ],
          [
            -74.76089164908518,
            40.13366751989854
          ],
          [
            -74.76126438183739,
            40.13352491972794
          ],
          [
            -74.76163278180663,
            40.13337591996638
          ],
          [
            -74.76174811561916,
            40.13332758636082
          ],
          [
            -74.76193611511314,
            40.133247786831376
          ],
          [
            -74.76239704871718,
            40.1330463198299
          ],
          [
            -74.76285331656743,
            40.132838519714404
          ],
          [
            -74.76330471575979,
            40.13262458610859
          ],
          [
            -74.76375104963338,
            40.13240458657609
          ],
          [
            -74.76419224951294,
            40.132178452640645
          ],
          [
            -74.76462811665654,
            40.131946386311526
          ],
          [
            -74.76487651601893,
            40.131810185947
          ],
          [
            -74.77335978559817,
            40.12702358436635
          ],
          [
            -74.7755957867085,
            40.125761784674076
          ]
        ]
      },
      "properties": {
        "OBJECTID": 27600121,
        "permanent_identifier": "167395689",
        "fdate": 1593561600000,
        "resolution": 2,
        "gnis_id": "00217887",
        "gnis_name": "Delaware River",
        "lengthkm": 2.08383111,
        "reachcode": "02040201000016",
        "flowdir": 1,
        "wbarea_permanent_identifier": "167393148",
        "ftype": 558,
        "fcode": 55800,
        "innetwork": 1,
        "mainpath": 0,
        "visibilityfilter": 5000000,
        "Shape_Length": 2735.9702991480954,
        "globalid": "{FAF6DA9E-4C80-11E1-BCF4-0021280458E6}"
      }
    }
  ]
}