{
  "type": "FeatureCollection",
  "features": [
    {
      "type": "Feature",
      "id": 1215500,
      "geometry": {
        "type": "LineString",
        "coordinates": [
          [
            -119.50114944110061,
            46.260614832141144
          ],
          [
            -119.50036584107112,
            46.26055336627353
          ],
          [
            -119.49982870709214,
            46.26037523285053
          ],
          [
            -119.49934490671619,
            46.260074365384774
          ],
          [
            -119.49810524070004,
            46.259486366391336
          ],
          [
            -119.4970764399092,
            46.258940632389326
          ],
          [
            -119.49646223983112,
            46.25859456607553
          ],
          [
            -119.4959602394776,
            46.25802796599122
          ]
        ]
      },
      "properties": {
        "OBJECTID": 1215500,
        "permanent_identifier": "153009529",
        "fdate": 1342768226000,
        "resolution": 2,
        "gnis_id": "01528343",
        "gnis_name": "Yakima River",
        "lengthkm": 0.508,
        "reachcode": "17030003000103",
        "flowdir": 1,
        "wbarea_permanent_identifier": "153011766",
        "ftype": 558,
        "fcode": 55800,
        "innetwork": 1,
        "mainpath": 0,
        "visibilityfilter": 5000000,
        "Shape_Length": 733.4256959298704,
        "globalid": "{CA222B4F-4C7B-11E1-BCF4-0021280458E6}"
      }
    },
    {
      "type": "Feature",
      "id": 1972994,
      "geometry": {
        "type": "LineString",
        "coordinates": [
          [
            -119.48666031731109,
            46.317535637903084
          ],
          [
            -119.48710796641946,
            46.318225830308975
          ],
          [
            -119.48723991755757,
            46.319281971351245
          ],
          [
            -119.48755305165243,
            46.32107037111553
          ],
          [
            -119.48824191835857,
            46.322147970574115
          ],
          [
            -119.48965545237849,
            46.32367823821152
          ],
          [
            -119.4914246523144,
            46.32469843716836
          ],
          [
            -119.49222145255632,
            46.32560943709561
          ],
          [
            -119.49274585352256,
            46.32609523740212
          ]
        ]
      },
      "properties": {
        "OBJECTID": 1972994,
        "permanent_identifier": "{2316C10A-1951-4646-AE7B-7B6661C31466}",
        "fdate": 1536624000000,
        "resolution": 2,
        "gnis_id": "01528343",
        "gnis_name": "Yakima River",
        "lengthkm": 1.09687055,
        "reachcode": "17030003000097",
        "flowdir": 1,
        "wbarea_permanent_identifier": "153011766",
        "ftype": 558,
        "fcode": 55800,
        "innetwork": 1,
        "mainpath": 0,
        "visibilityfilter": 5000000,
        "Shape_Length": 1591.3996249652969,
        "globalid": "{01415052-AD60-4EB2-ADA9-E992DE21EB24}"
      }
    },
    {
      "type": "Feature",
      "id": 3003117,
      "geometry": {
        "type": "LineString",
        "coordinates": [
          [
            -119.5336713161935,
            46.27693302996371
          ],
          [
            -119.5329673170036,
            46.27670042997363
          ],
          [
            -119.53191764934692,
            46.276406963452075
          ],
          [
            -119.52869164895303,
            46.27652176431276
          ],
          [
            -119.52797044765751,
            46.27664029323052
          ]
        ]
      },
      "properties": {
        "OBJECTID": 3003117,
        "permanent_identifier": "153009535",
        "fdate": 1342767940000,
        "resolution": 2,
        "gnis_id": "01528343",
        "gnis_name": "Yakima River",
        "lengthkm": 0.454,
        "reachcode": "17030003000108",
        "flowdir": 1,
        "wbarea_permanent_identifier": "153011766",
        "ftype": 558,
        "fcode": 55800,
        "innetwork": 1,
        "mainpath": 0,
        "visibilityfilter": 5000000,
        "Shape_Length": 655.0228362213898,
        "globalid": "{7660F668-4C72-11E1-BCF4-0021280458E6}"
      }
    },
    {
      "type": "Feature",
      "id": 3003166,
      "geometry": {
        "type": "LineString",
        "coordinates": [
          [
            -119.47191970897633,
            46.29089883668579
          ],
          [
            -119.47206564176778,
            46.291500637105294
          ],
          [
            -119.47367790942889,
            46.293524037313524
          ],
          [
            -119.47465470954053,
            46.294660170267115
          ],
          [
            -119.47519110994317,
            46.295245436670086
          ],
          [
            -119.47627184481902,
            46.296438237648104
          ],
          [
            -119.47671751171038,
            46.29756937045482
          ],
          [
            -119.47694271133005,
            46.29811977093355
          ]
        ]
      },
      "properties": {
        "OBJECTID": 3003166,
        "permanent_identifier": "153009518",
        "fdate": 1342767922000,
        "resolution": 2,
        "gnis_id": "01528343",
        "gnis_name": "Yakima River",
        "lengthkm": 0.898,
        "reachcode": "17030003000099",
        "flowdir": 1,
        "wbarea_permanent_identifier": "153011766",
        "ftype": 558,
        "fcode": 55800,
        "innetwork": 1,
        "mainpath": 0,
        "visibilityfilter": 5000000,
        "Shape_Length": 1302.698396358179,
        "globalid": "{8919FA2B-4C71-11E1-BCF4-0021280458E6}"
      }
    },
    {
      "type": "Feature",
      "id": 3226631,
      "geometry": {
        "type": "LineString",
        "coordinates": [
          [
            -119.57122165540231,
            46.27142075907827
          ],
          [
            -119.57004572208447,
            46.27123862589439
          ],
          [
            -119.5681290545697,
            46.271080759430966
          ],
          [
            -119.56651052081375,
            46.2714737592881
          ],
          [
            -119.56573185499578,
            46.27246316001443
          ],
          [
            -119.56415985391361,
            46.27356782678133
          ],
          [
            -119.56118712049948,
            46.2746225603373
          ]
        ]
      },
      "properties": {
        "OBJECTID": 3226631,
        "permanent_identifier": "153009541",
        "fdate": 1342768521000,
        "resolution": 2,
        "gnis_id": "01528343",
        "gnis_name": "Yakima River",
        "lengthkm": 0.93,
        "reachcode": "17030003000112",
        "flowdir": 1,
        "wbarea_permanent_identifier": "153011766",
        "ftype": 558,
        "fcode": 55800,
        "innetwork": 1,
        "mainpath": 0,
        "visibilityfilter": 5000000,
        "Shape_Length": 1342.8959906523296,
        "globalid": "{44898250-4C94-11E1-BCF4-0021280458E6}"
      }
    },
    {
      "type": "Feature",
      "id": 3226755,
      "geometry": {
        "type": "LineString",
        "coordinates": [
          [
            -119.52182444810505,
            46.275257364386896
          ],
          [
            -119.52134782845323,
            46.275089477909766
          ],
          [
            -119.52047787347894,
            46.274998841106964
          ],
          [
            -119.51869769695145,
            46.27495470000476
          ],
          [
            -119.51761377908257,
            46.27486165863827
          ],
          [
            -119.51632664599317,
            46.27393616515913
          ],
          [
            -119.51524584556371,
            46.273009431902416
          ],
          [
            -119.51522664667363,
            46.27299316483014
          ],
          [
            -119.51519884569022,
            46.27297276499253
          ],
          [
            -119.51418444588789,
            46.27223083234831
          ],
          [
            -119.51329184473487,
            46.27125456478386
          ]
        ]
      },
      "properties": {
        "OBJECTID": 3226755,
        "permanent_identifier": "153009532",
        "fdate": 1342768512000,
        "resolution": 2,
        "gnis_id": "01528343",
        "gnis_name": "Yakima River",
        "lengthkm": 0.8540000000000001,
        "reachcode": "17030003000105",
        "flowdir": 1,
        "wbarea_permanent_identifier": "153011766",
        "ftype": 558,
        "fcode": 55800,
        "innetwork": 1,
        "mainpath": 0,
        "visibilityfilter": 5000000,
        "Shape_Length": 1234.1130696032885,
        "globalid": "{B7603C16-4C92-11E1-BCF4-0021280458E6}"
      }
    },
    {
      "type": "Feature",
      "id": 3759246,
      "geometry": {
        "type": "LineString",
        "coordinates": [
          [
            -119.47807224516242,
            46.300728037342736
          ],
          [
            -119.47816031282592,
            46.30091937114791
          ],
          [
            -119.47822531185398,
            46.30121663787166
          ],
          [
            -119.47839024583409,
            46.30197063732087
          ],
          [
            -119.47794184546028,
            46.30356263749996
          ],
          [
            -119.47732511272278,
            46.305108237613325
          ],
          [
            -119.47639084651335,
            46.305981637985425
          ],
          [
            -119.4747507123152,
            46.3071275712607
          ],
          [
            -119.47322431262903,
            46.308229971465984
          ],
          [
            -119.47237324646575,
            46.30980697171613
          ],
          [
            -119.47216224701154,
            46.310753771628264
          ],
          [
            -119.47216964624775,
            46.310794972251315
          ]
        ]
      },
      "properties": {
        "OBJECTID": 3759246,
        "permanent_identifier": "153009516",
        "fdate": 1536624000000,
        "resolution": 2,
        "gnis_id": "01528343",
        "gnis_name": "Yakima River",
        "lengthkm": 1.2656873100000001,
        "reachcode": "17030003000098",
        "flowdir": 1,
        "wbarea_permanent_identifier": "153011766",
        "ftype": 558,
        "fcode": 55800,
        "innetwork": 1,
        "mainpath": 0,
        "visibilityfilter": 5000000,
        "Shape_Length": 1836.1549163323364,
        "globalid": "{3DC2C3BD-4C8B-11E1-BCF4-0021280458E6}"
      }
    },
    {
      "type": "Feature",
      "id": 4792382,
      "geometry": {
        "type": "LineString",
        "coordinates": [
          [
            -119.58883345665542,
            46.266551157014085
          ],
          [
            -119.58845705706192,
            46.26701515673723
          ]
        ]
      },
      "properties": {
        "OBJECTID": 4792382,
        "permanent_identifier": "153009930",
        "fdate": 1342768033000,
        "resolution": 2,
        "gnis_id": "01528343",
        "gnis_name": "Yakima River",
        "lengthkm": 0.059000000000000004,
        "reachcode": "17030003000114",
        "flowdir": 1,
        "wbarea_permanent_identifier": "153011738",
        "ftype": 558,
        "fcode": 55800,
        "innetwork": 1,
        "mainpath": 0,
        "visibilityfilter": 5000000,
        "Shape_Length": 85.66413502623419,
        "globalid": "{E317EA69-4C76-11E1-BCF4-0021280458E6}"
      }
    },
    {
      "type": "Feature",
      "id": 6133993,
      "geometry": {
        "type": "LineString",
        "coordinates": [
          [
            -119.54275931803332,
            46.27774976189903
          ],
          [
            -119.54234045113182,
            46.27783656237446
          ],
          [
            -119.54045671755391,
            46.27828802921139
          ],
          [
            -119.5397571177411,
            46.27807882971794
          ],
          [
            -119.5386383170154,
            46.27790122933686
          ]
        ]
      },
      "properties": {
        "OBJECTID": 6133993,
        "permanent_identifier": "153009540",
        "fdate": 1342768118000,
        "resolution": 2,
        "gnis_id": "01528343",
        "gnis_name": "Yakima River",
        "lengthkm": 0.335,
        "reachcode": "17030003000111",
        "flowdir": 1,
        "wbarea_permanent_identifier": "153011766",
        "ftype": 558,
        "fcode": 55800,
        "innetwork": 1,
        "mainpath": 0,
        "visibilityfilter": 5000000,
        "Shape_Length": 483.2668579131937,
        "globalid": "{C5FEE80F-4C8A-11E1-BCF4-0021280458E6}"
      }
    },
    {
      "type": "Feature",
      "id": 6804296,
      "geometry": {
        "type": "LineString",
        "coordinates": [
          [
            -119.64068512930707,
            46.252705617602146
          ],
          [
            -119.6405003304952,
            46.253036751106094
          ],
          [
            -119.63817252932644,
            46.25389275141998
          ],
          [
            -119.63756946192004,
            46.25413915158236
          ]
        ]
      },
      "properties": {
        "OBJECTID": 6804296,
        "permanent_identifier": "153009936",
        "fdate": 1342768203000,
        "resolution": 2,
        "gnis_id": "01528343",
        "gnis_name": "Yakima River",
        "lengthkm": 0.29700000000000004,
        "reachcode": "17030003000117",
        "flowdir": 1,
        "wbarea_permanent_identifier": "153011738",
        "ftype": 558,
        "fcode": 55800,
        "innetwork": 1,
        "mainpath": 0,
        "visibilityfilter": 5000000,
        "Shape_Length": 428.61176918299753,
        "globalid": "{FE8D034C-4C91-11E1-BCF4-0021280458E6}"
      }
    },
    {
      "type": "Feature",
      "id": 6804300,
      "geometry": {
        "type": "LineString",
        "coordinates": [
          [
            -119.49445690634583,
            46.25761376631859
          ],
          [
            -119.49273490502537,
            46.25685816625546
          ]
        ]
      },
      "properties": {
        "OBJECTID": 6804300,
        "permanent_identifier": "153009523",
        "fdate": 1342767953000,
        "resolution": 2,
        "gnis_id": "01528343",
        "gnis_name": "Yakima River",
        "lengthkm": 0.157,
        "reachcode": "17030003000102",
        "flowdir": 1,
        "wbarea_permanent_identifier": "153011766",
        "ftype": 558,
        "fcode": 55800,
        "innetwork": 1,
        "mainpath": 0,
        "visibilityfilter": 5000000,
        "Shape_Length": 227.03570107808113,
        "globalid": "{D579F714-4C81-11E1-BCF4-0021280458E6}"
      }
    },
    {
      "type": "Feature",
      "id": 7027788,
      "geometry": {
        "type": "LineString",
        "coordinates": [
          [
            -119.59266185643295,
            46.26016342330505
          ],
          [
            -119.59226205731426,
            46.26129802306601
          ],
          [
            -119.59112712415173,
            46.26348375685253
          ],
          [
            -119.5893880570356,
            46.26586775676421
          ],
          [
            -119.58883345665542,
            46.266551157014085
          ]
        ]
      },
      "properties": {
        "OBJECTID": 7027788,
        "permanent_identifier": "153009932",
        "fdate": 1342768011000,
        "resolution": 2,
        "gnis_id": "01528343",
        "gnis_name": "Yakima River",
        "lengthkm": 0.771,
        "reachcode": "17030003000115",
        "flowdir": 1,
        "wbarea_permanent_identifier": "153011738",
        "ftype": 558,
        "fcode": 55800,
        "innetwork": 1,
        "mainpath": 0,
        "visibilityfilter": 5000000,
        "Shape_Length": 1118.0660451633084,
        "globalid": "{CAC89907-4C72-11E1-BCF4-0021280458E6}"
      }
    },
    {
      "type": "Feature",
      "id": 7251619,
      "geometry": {
        "type": "LineString",
        "coordinates": [
          [
            -119.48040805323916,
            46.337132639179984
          ],
          [
            -119.47955245346988,
            46.33720963998777
          ],
          [
            -119.4773236528538,
            46.33775184016358
          ],
          [
            -119.47530265309086,
            46.33874557310354
          ],
          [
            -119.47264765293119,
            46.340900840315435
          ]
        ]
      },
      "properties": {
        "OBJECTID": 7251619,
        "permanent_identifier": "153009508",
        "fdate": 1342768159000,
        "resolution": 2,
        "gnis_id": "01528343",
        "gnis_name": "Yakima River",
        "lengthkm": 0.755,
        "reachcode": "17030003000093",
        "flowdir": 1,
        "wbarea_permanent_identifier": "153011766",
        "ftype": 558,
        "fcode": 55800,
        "innetwork": 1,
        "mainpath": 0,
        "visibilityfilter": 5000000,
        "Shape_Length": 1091.5199709413362,
        "globalid": "{D4A2C894-4C96-11E1-BCF4-0021280458E6}"
      }
    },
    {
      "type": "Feature",
      "id": 8591338,
      "geometry": {
        "type": "LineString",
        "coordinates": [
          [
            -119.57333972240603,
            46.27160202566873
          ],
          [
            -119.57267612194286,
            46.271646158682444
          ],
          [
            -119.57176085588152,
            46.27150422573643
          ]
        ]
      },
      "properties": {
        "OBJECTID": 8591338,
        "permanent_identifier": "153009929",
        "fdate": 1342767999000,
        "resolution": 2,
        "gnis_id": "01528343",
        "gnis_name": "Yakima River",
        "lengthkm": 0.124,
        "reachcode": "17030003000113",
        "flowdir": 1,
        "wbarea_permanent_identifier": "153011738",
        "ftype": 558,
        "fcode": 55800,
        "innetwork": 1,
        "mainpath": 0,
        "visibilityfilter": 5000000,
        "Shape_Length": 178.632162691607,
        "globalid": "{5D2179FE-4C73-11E1-BCF4-0021280458E6}"
      }
    },
    {
      "type": "Feature",
      "id": 9264239,
      "geometry": {
        "type": "LineString",
        "coordinates": [
          [
            -119.56118712049948,
            46.2746225603373
          ],
          [
            -119.56029712068113,
            46.27493822709504
          ],
          [
            -119.55847205448278,
            46.27541082732792
          ],
          [
            -119.55625292042615,
            46.27577842764122
          ],
          [
            -119.55179625255285,
            46.27590402793125
          ],
          [
            -119.54979671900324,
            46.27629362807587
          ],
          [
            -119.54888785222512,
            46.27648102838863
          ]
        ]
      },
      "properties": {
        "OBJECTID": 9264239,
        "permanent_identifier": "153009538",
        "fdate": 1342768118000,
        "resolution": 2,
        "gnis_id": "01528343",
        "gnis_name": "Yakima River",
        "lengthkm": 0.9820000000000001,
        "reachcode": "17030003000111",
        "flowdir": 1,
        "wbarea_permanent_identifier": "153011766",
        "ftype": 558,
        "fcode": 55800,
        "innetwork": 1,
        "mainpath": 0,
        "visibilityfilter": 5000000,
        "Shape_Length": 1415.7091374865145,
        "globalid": "{6766C504-4C8C-11E1-BCF4-0021280458E6}"
      }
    },
    {
      "type": "Feature",
      "id": 10386294,
      "geometry": {
        "type": "LineString",
        "coordinates": [
          [
            -119.47264765293119,
            46.340900840315435
          ],
          [
            -119.47206011965463,
            46.34137764045573
          ],
          [
            -119.46880332049933,
            46.34475897428945
          ],
          [
            -119.46744212012943,
            46.34662084163455
          ],
          [
            -119.46687252045378,
            46.34811484157581
          ],
          [
            -119.46566345341654,
            46.349078441235044
          ],
          [
            -119.46325825317783,
            46.35033084179076
          ],
          [
            -119.46145725348691,
            46.3511016423547
          ],
          [
            -119.46091245285452,
            46.35125477569813
          ]
        ]
      },
      "properties": {
        "OBJECTID": 10386294,
        "permanent_identifier": "153009509",
        "fdate": 1342768159000,
        "resolution": 2,
        "gnis_id": "01528343",
        "gnis_name": "Yakima River",
        "lengthkm": 1.506,
        "reachcode": "17030003000093",
        "flowdir": 1,
        "wbarea_permanent_identifier": "153011766",
        "ftype": 558,
        "fcode": 55800,
        "innetwork": 1,
        "mainpath": 0,
        "visibilityfilter": 5000000,
        "Shape_Length": 2183.5212156914663,
        "globalid": "{BF3C2465-4C78-11E1-BCF4-0021280458E6}"
      }
    },
    {
      "type": "Feature",
      "id": 10473192,
      "geometry": {
        "type": "LineString",
        "coordinates": [
          [
            -119.47418851395682,
            46.313527038438465
          ],
          [
            -119.47474011447792,
            46.31370123810825
          ],
          [
            -119.47692631459765,
            46.31435703887943
          ],
          [
            -119.47823031578126,
            46.315250371777566
          ],
          [
            -119.47855484892442,
            46.31546923790308
          ],
          [
            -119.47915291552516,
            46.31587257160463
          ],
          [
            -119.48052191573683,
            46.3163089713341
          ],
          [
            -119.48195031586386,
            46.3165784375966
          ],
          [
            -119.48328698564826,
            46.3168930763768
          ],
          [
            -119.48412045118145,
            46.317012710922064
          ],
          [
            -119.48568717779753,
            46.31711808264656
          ],
          [
            -119.48666031731109,
            46.317535637903084
          ]
        ]
      },
      "properties": {
        "OBJECTID": 10473192,
        "permanent_identifier": "153009514",
        "fdate": 1536624000000,
        "resolution": 2,
        "gnis_id": "01528343",
        "gnis_name": "Yakima River",
        "lengthkm": 1.0858743700000002,
        "reachcode": "17030003000097",
        "flowdir": 1,
        "wbarea_permanent_identifier": "153011766",
        "ftype": 558,
        "fcode": 55800,
        "innetwork": 1,
        "mainpath": 0,
        "visibilityfilter": 5000000,
        "Shape_Length": 1568.2496062886194,
        "globalid": "{983A3734-4C9A-11E1-BCF4-0021280458E6}"
      }
    },
    {
      "type": "Feature",
      "id": 11284344,
      "geometry": {
        "type": "LineString",
        "coordinates": [
          [
            -119.48381732077907,
            46.33556023905654
          ],
          [
            -119.4815668531266,
            46.33655303910242
          ],
          [
            -119.48069065390868,
            46.337107373086646
          ],
          [
            -119.48040805323916,
            46.337132639179984
          ]
        ]
      },
      "properties": {
        "OBJECTID": 11284344,
        "permanent_identifier": "153009510",
        "fdate": 1342768515000,
        "resolution": 2,
        "gnis_id": "01528343",
        "gnis_name": "Yakima River",
        "lengthkm": 0.319,
        "reachcode": "17030003000094",
        "flowdir": 1,
        "wbarea_permanent_identifier": "153011766",
        "ftype": 558,
        "fcode": 55800,
        "innetwork": 1,
        "mainpath": 0,
        "visibilityfilter": 5000000,
        "Shape_Length": 461.31118857694287,
        "globalid": "{0B4E795E-4C93-11E1-BCF4-0021280458E6}"
      }
    },
    {
      "type": "Feature",
      "id": 11284374,
      "geometry": {
        "type": "LineString",
        "coordinates": [
          [
            -119.4712275073592,
            46.287272036581385
          ],
          [
            -119.4712262410295,
            46.28734123682101
          ],
          [
            -119.47153344200034,
            46.28854937013002
          ],
          [
            -119.47169950808127,
            46.28999063683256
          ],
          [
            -119.47191970897633,
            46.29089883668579
          ]
        ]
      },
      "properties": {
        "OBJECTID": 11284374,
        "permanent_identifier": "153009520",
        "fdate": 1342768182000,
        "resolution": 2,
        "gnis_id": "01528343",
        "gnis_name": "Yakima River",
        "lengthkm": 0.406,
        "reachcode": "17030003000100",
        "flowdir": 1,
        "wbarea_permanent_identifier": "153011766",
        "ftype": 558,
        "fcode": 55800,
        "innetwork": 1,
        "mainpath": 0,
        "visibilityfilter": 5000000,
        "Shape_Length": 590.0138283008072,
        "globalid": "{D8838841-4C79-11E1-BCF4-0021280458E6}"
      }
    },
    {
      "type": "Feature",
      "id": 11733118,
      "geometry": {
        "type": "LineString",
        "coordinates": [
          [
            -119.58845705706192,
            46.26701515673723
          ],
          [
            -119.5883558568207,
            46.26713975711855
          ],
          [
            -119.58719525680968,
            46.26820735757001
          ],
          [
            -119.58533525780891,
            46.26904595802239
          ],
          [
            -119.58162785651015,
            46.269950824549156
          ],
          [
            -119.5783272560824,
            46.27106222465861
          ],
          [
            -119.57566865567561,
            46.27144715885264
          ],
          [
            -119.57333972240603,
            46.27160202566873
          ]
        ]
      },
      "properties": {
        "OBJECTID": 11733118,
        "permanent_identifier": "153009931",
        "fdate": 1342768033000,
        "resolution": 2,
        "gnis_id": "01528343",
        "gnis_name": "Yakima River",
        "lengthkm": 1.313,
        "reachcode": "17030003000114",
        "flowdir": 1,
        "wbarea_permanent_identifier": "153011738",
        "ftype": 558,
        "fcode": 55800,
        "innetwork": 1,
        "mainpath": 0,
        "visibilityfilter": 5000000,
        "Shape_Length": 1894.4636412913924,
        "globalid": "{5A8E932B-4C74-11E1-BCF4-0021280458E6}"
      }
    },
    {
      "type": "Feature",
      "id": 12406449,
      "geometry": {
        "type": "LineString",
        "coordinates": [
          [
            -119.64404432843914,
            46.244769349799796
          ],
          [
            -119.64372786151436,
            46.24521694983697
          ],
          [
            -119.64320206207061,
            46.24606654979418
          ],
          [
            -119.64248386271527,
            46.247036550074164
          ],
          [
            -119.64211612868766,
            46.2480701502508
          ],
          [
            -119.6422002620927,
            46.249862616807306
          ],
          [
            -119.642225862347,
            46.25040795043099
          ]
        ]
      },
      "properties": {
        "OBJECTID": 12406449,
        "permanent_identifier": "153009942",
        "fdate": 1342768320000,
        "resolution": 2,
        "gnis_id": "01528343",
        "gnis_name": "Yakima River",
        "lengthkm": 0.657,
        "reachcode": "17030003000119",
        "flowdir": 1,
        "wbarea_permanent_identifier": "153011738",
        "ftype": 558,
        "fcode": 55800,
        "innetwork": 1,
        "mainpath": 0,
        "visibilityfilter": 5000000,
        "Shape_Length": 952.2492419767765,
        "globalid": "{81E44D11-4C9B-11E1-BCF4-0021280458E6}"
      }
    },
    {
      "type": "Feature",
      "id": 12406596,
      "geometry": {
        "type": "LineString",
        "coordinates": [
          [
            -119.47344390169017,
            46.25482583496526
          ],
          [
            -119.47351450191194,
            46.2550850347322
          ],
          [
            -119.4735494357549,
            46.25579956834402
          ],
          [
            -119.47386883490408,
            46.25634936761729
          ],
          [
            -119.47326350225543,
            46.25773896793774
          ],
          [
            -119.4725683028603,
            46.25877063477088
          ],
          [
            -119.47235963524246,
            46.26002996838233
          ],
          [
            -119.47291870263449,
            46.26110636811925
          ],
          [
            -119.47322170297015,
            46.26137316880725
          ]
        ]
      },
      "properties": {
        "OBJECTID": 12406596,
        "permanent_identifier": "153009527",
        "fdate": 1342767953000,
        "resolution": 2,
        "gnis_id": "01528343",
        "gnis_name": "Yakima River",
        "lengthkm": 0.767,
        "reachcode": "17030003000102",
        "flowdir": 1,
        "wbarea_permanent_identifier": "153011766",
        "ftype": 558,
        "fcode": 55800,
        "innetwork": 1,
        "mainpath": 0,
        "visibilityfilter": 5000000,
        "Shape_Length": 1112.7089019908963,
        "globalid": "{94217939-4C72-11E1-BCF4-0021280458E6}"
      }
    },
    {
      "type": "Feature",
      "id": 12855489,
      "geometry": {
        "type": "LineString",
        "coordinates": [
          [
            -119.47532510156817,
            46.25303816780728
          ],
          [
            -119.47456363473418,
            46.25319703453367
          ],
          [
            -119.4738136345833,
            46.25371483451095
          ],
          [
            -119.47327363497409,
            46.25420103474821
          ],
          [
            -119.47344390169017,
            46.25482583496526
          ]
        ]
      },
      "properties": {
        "OBJECTID": 12855489,
        "permanent_identifier": "153009528",
        "fdate": 1342767953000,
        "resolution": 2,
        "gnis_id": "01528343",
        "gnis_name": "Yakima River",
        "lengthkm": 0.28200000000000003,
        "reachcode": "17030003000102",
        "flowdir": 1,
        "wbarea_permanent_identifier": "153011766",
        "ftype": 558,
        "fcode": 55800,
        "innetwork": 1,
        "mainpath": 0,
        "visibilityfilter": 5000000,
        "Shape_Length": 407.5729643264817,
        "globalid": "{0174D960-4C99-11E1-BCF4-0021280458E6}"
      }
    },
    {
      "type": "Feature",
      "id": 12942283,
      "geometry": {
        "type": "LineString",
        "coordinates": [
          [
            -119.49306912033605,
            46.32727117061829
          ],
          [
            -119.49303332076892,
            46.32744717027263
          ],
          [
            -119.49294672025812,
            46.32756797089972
          ],
          [
            -119.4929361203398,
            46.327582837169494
          ],
          [
            -119.4922395203861,
            46.328556170985955
          ],
          [
            -119.49196845403428,
            46.328949038019466
          ]
        ]
      },
      "properties": {
        "OBJECTID": 12942283,
        "permanent_identifier": "153009512",
        "fdate": 1342768378000,
        "resolution": 2,
        "gnis_id": "01528343",
        "gnis_name": "Yakima River",
        "lengthkm": 0.20500000000000002,
        "reachcode": "17030003000096",
        "flowdir": 1,
        "wbarea_permanent_identifier": "153011766",
        "ftype": 558,
        "fcode": 55800,
        "innetwork": 1,
        "mainpath": 0,
        "visibilityfilter": 5000000,
        "Shape_Length": 298.23327042183973,
        "globalid": "{C12F7796-4C85-11E1-BCF4-0021280458E6}"
      }
    },
    {
      "type": "Feature",
      "id": 13305165,
      "geometry": {
        "type": "LineString",
        "coordinates": [
          [
            -119.53717885070974,
            46.277726362698516
          ],
          [
            -119.53611485073978,
            46.27770262978883
          ],
          [
            -119.53486124989428,
            46.27732616333629
          ],
          [
            -119.5336713161935,
            46.27693302996371
          ]
        ]
      },
      "properties": {
        "OBJECTID": 13305165,
        "permanent_identifier": "153009536",
        "fdate": 1342768264000,
        "resolution": 2,
        "gnis_id": "01528343",
        "gnis_name": "Yakima River",
        "lengthkm": 0.28900000000000003,
        "reachcode": "17030003000109",
        "flowdir": 1,
        "wbarea_permanent_identifier": "153011766",
        "ftype": 558,
        "fcode": 55800,
        "innetwork": 1,
        "mainpath": 0,
        "visibilityfilter": 5000000,
        "Shape_Length": 417.4772579206782,
        "globalid": "{33D9FBB1-4C82-11E1-BCF4-0021280458E6}"
      }
    },
    {
      "type": "Feature",
      "id": 15101646,
      "geometry": {
        "type": "LineString",
        "coordinates": [
          [
            -119.47809523887945,
            46.27348716828076
          ],
          [
            -119.47809343979642,
            46.27350816920671
          ],
          [
            -119.4780084396267,
            46.27504743554738
          ],
          [
            -119.47835610695898,
            46.27624483552256
          ],
          [
            -119.4781986398498,
            46.27696663551362
          ]
        ]
      },
      "properties": {
        "OBJECTID": 15101646,
        "permanent_identifier": "153009521",
        "fdate": 1342767939000,
        "resolution": 2,
        "gnis_id": "01528343",
        "gnis_name": "Yakima River",
        "lengthkm": 0.39,
        "reachcode": "17030003000101",
        "flowdir": 1,
        "wbarea_permanent_identifier": "153011766",
        "ftype": 558,
        "fcode": 55800,
        "innetwork": 1,
        "mainpath": 0,
        "visibilityfilter": 5000000,
        "Shape_Length": 565.7268068430444,
        "globalid": "{9B2A787E-4C71-11E1-BCF4-0021280458E6}"
      }
    },
    {
      "type": "Feature",
      "id": 15326219,
      "geometry": {
        "type": "LineString",
        "coordinates": [
          [
            -119.6588949305667,
            46.24210654828471
          ],
          [
            -119.65661386289479,
            46.24080214869549
          ],
          [
            -119.65605652903216,
            46.240386347918765
          ],
          [
            -119.65470192980898,
            46.23967021516528
          ],
          [
            -119.65367472935924,
            46.2393475479152
          ],
          [
            -119.65279332955313,
            46.23929014816993
          ],
          [
            -119.6513575281088,
            46.23934041586139
          ],
          [
            -119.65037632862004,
            46.23957701603384
          ],
          [
            -119.64914272891622,
            46.24027381606384
          ],
          [
            -119.6483645292574,
            46.241121548774586
          ],
          [
            -119.64760732861225,
            46.24178141616625
          ],
          [
            -119.64636746177305,
            46.24264595003093
          ],
          [
            -119.64450292812576,
            46.24412041626976
          ],
          [
            -119.64404432843914,
            46.244769349799796
          ]
        ]
      },
      "properties": {
        "OBJECTID": 15326219,
        "permanent_identifier": "153009941",
        "fdate": 1342768320000,
        "resolution": 2,
        "gnis_id": "01528343",
        "gnis_name": "Yakima River",
        "lengthkm": 1.5310000000000001,
        "reachcode": "17030003000119",
        "flowdir": 1,
        "wbarea_permanent_identifier": "153011738",
        "ftype": 558,
        "fcode": 55800,
        "innetwork": 1,
        "mainpath": 0,
        "visibilityfilter": 5000000,
        "Shape_Length": 2212.447464824575,
        "globalid": "{017BE798-4C99-11E1-BCF4-0021280458E6}"
      }
    },
    {
      "type": "Feature",
      "id": 15862210,
      "geometry": {
        "type": "LineString",
        "coordinates": [
          [
            -119.49274585352256,
            46.32609523740212
          ],
          [
            -119.49297372003048,
            46.32630623739392
          ],
          [
            -119.49321925376267,
            46.32653357110049
          ],
          [
            -119.49306912033605,
            46.32727117061829
          ]
        ]
      },
      "properties": {
        "OBJECTID": 15862210,
        "permanent_identifier": "153009513",
        "fdate": 1536624000000,
        "resolution": 2,
        "gnis_id": "01528343",
        "gnis_name": "Yakima River",
        "lengthkm": 0.14342027,
        "reachcode": "17030003000096",
        "flowdir": 1,
        "wbarea_permanent_identifier": "153011766",
        "ftype": 558,
        "fcode": 55800,
        "innetwork": 1,
        "mainpath": 0,
        "visibilityfilter": 5000000,
        "Shape_Length": 208.22253498055628,
        "globalid": "{906FE299-4C93-11E1-BCF4-0021280458E6}"
      }
    },
    {
      "type": "Feature",
      "id": 17123317,
      "geometry": {
        "type": "LineString",
        "coordinates": [
          [
            -119.63756946192004,
            46.25413915158236
          ],
          [
            -119.63572426243222,
            46.25489261844438
          ]
        ]
      },
      "properties": {
        "OBJECTID": 17123317,
        "permanent_identifier": "153009937",
        "fdate": 1342768203000,
        "resolution": 2,
        "gnis_id": "01528343",
        "gnis_name": "Yakima River",
        "lengthkm": 0.165,
        "reachcode": "17030003000117",
        "flowdir": 1,
        "wbarea_permanent_identifier": "153011738",
        "ftype": 558,
        "fcode": 55800,
        "innetwork": 1,
        "mainpath": 0,
        "visibilityfilter": 5000000,
        "Shape_Length": 238.55033581775226,
        "globalid": "{F9FDD6A6-4C79-11E1-BCF4-0021280458E6}"
      }
    },
    {
      "type": "Feature",
      "id": 18246296,
      "geometry": {
        "type": "LineString",
        "coordinates": [
          [
            -119.52797044765751,
            46.27664029323052
          ],
          [
            -119.52585883404471,
            46.276778716886184
          ],
          [
            -119.52380518128902,
            46.27668202008371
          ],
          [
            -119.5228149145883,
            46.27655256453786
          ],
          [
            -119.52227700228998,
            46.27607515694604
          ],
          [
            -119.5221416153091,
            46.27541803524323
          ]
        ]
      },
      "properties": {
        "OBJECTID": 18246296,
        "permanent_identifier": "153009534",
        "fdate": 1342768414000,
        "resolution": 2,
        "gnis_id": "01528343",
        "gnis_name": "Yakima River",
        "lengthkm": 0.542,
        "reachcode": "17030003000107",
        "flowdir": 1,
        "wbarea_permanent_identifier": "153011766",
        "ftype": 558,
        "fcode": 55800,
        "innetwork": 1,
        "mainpath": 0,
        "visibilityfilter": 5000000,
        "Shape_Length": 781.8070342966463,
        "globalid": "{D9E49832-4C89-11E1-BCF4-0021280458E6}"
      }
    },
    {
      "type": "Feature",
      "id": 18332270,
      "geometry": {
        "type": "LineString",
        "coordinates": [
          [
            -119.47694271133005,
            46.29811977093355
          ],
          [
            -119.4770565113957,
            46.29839823689264
          ],
          [
            -119.47751044532852,
            46.29950723691562
          ],
          [
            -119.47807224516242,
            46.300728037342736
          ]
        ]
      },
      "properties": {
        "OBJECTID": 18332270,
        "permanent_identifier": "153009517",
        "fdate": 1342768167000,
        "resolution": 2,
        "gnis_id": "01528343",
        "gnis_name": "Yakima River",
        "lengthkm": 0.302,
        "reachcode": "17030003000098",
        "flowdir": 1,
        "wbarea_permanent_identifier": "153011766",
        "ftype": 558,
        "fcode": 55800,
        "innetwork": 1,
        "mainpath": 0,
        "visibilityfilter": 5000000,
        "Shape_Length": 438.7207907491122,
        "globalid": "{1097B635-4C79-11E1-BCF4-0021280458E6}"
      }
    },
    {
      "type": "Feature",
      "id": 18919822,
      "geometry": {
        "type": "LineString",
        "coordinates": [
          [
            -119.6320388621812,
            46.25623355179168
          ],
          [
            -119.63087652968132,
            46.2567635523793
          ],
          [
            -119.6284992615333,
            46.25702981878369
          ],
          [
            -119.62624986146857,
            46.256626352328176
          ],
          [
            -119.6261537286272,
            46.256605152839185
          ],
          [
            -119.62414792794225,
            46.25616315249131
          ],
          [
            -119.62180866113097,
            46.255901219535254
          ],
          [
            -119.62018032658666,
            46.2561156197823
          ]
        ]
      },
      "properties": {
        "OBJECTID": 18919822,
        "permanent_identifier": "153009933",
        "fdate": 1342768285000,
        "resolution": 2,
        "gnis_id": "01528343",
        "gnis_name": "Yakima River",
        "lengthkm": 0.9540000000000001,
        "reachcode": "17030003000116",
        "flowdir": 1,
        "wbarea_permanent_identifier": "153011738",
        "ftype": 558,
        "fcode": 55800,
        "innetwork": 1,
        "mainpath": 0,
        "visibilityfilter": 5000000,
        "Shape_Length": 1375.6736360365717,
        "globalid": "{B2AC2904-4C7E-11E1-BCF4-0021280458E6}"
      }
    },
    {
      "type": "Feature",
      "id": 19144204,
      "geometry": {
        "type": "LineString",
        "coordinates": [
          [
            -119.4959602394776,
            46.25802796599122
          ],
          [
            -119.49470450553768,
            46.257720632975385
          ],
          [
            -119.49445690634583,
            46.25761376631859
          ]
        ]
      },
      "properties": {
        "OBJECTID": 19144204,
        "permanent_identifier": "153009522",
        "fdate": 1342767953000,
        "resolution": 2,
        "gnis_id": "01528343",
        "gnis_name": "Yakima River",
        "lengthkm": 0.125,
        "reachcode": "17030003000102",
        "flowdir": 1,
        "wbarea_permanent_identifier": "153011766",
        "ftype": 558,
        "fcode": 55800,
        "innetwork": 1,
        "mainpath": 0,
        "visibilityfilter": 5000000,
        "Shape_Length": 180.77898790060075,
        "globalid": "{08DF91CB-4C7D-11E1-BCF4-0021280458E6}"
      }
    },
    {
      "type": "Feature",
      "id": 19367663,
      "geometry": {
        "type": "LineString",
        "coordinates": [
          [
            -119.4781986398498,
            46.27696663551362
          ],
          [
            -119.47803050726861,
            46.27773743589532
          ],
          [
            -119.4770391074265,
            46.279101235760514
          ],
          [
            -119.47595584093182,
            46.28064276922321
          ],
          [
            -119.47481370727505,
            46.2814696366534
          ],
          [
            -119.47407904043095,
            46.28244503620745
          ],
          [
            -119.47276203985795,
            46.28314757017165
          ],
          [
            -119.47187670787442,
            46.28399896989739
          ],
          [
            -119.47169064169233,
            46.28447716992225
          ],
          [
            -119.47125450713155,
            46.28583463670475
          ],
          [
            -119.4712275073592,
            46.287272036581385
          ]
        ]
      },
      "properties": {
        "OBJECTID": 19367663,
        "permanent_identifier": "153009519",
        "fdate": 1342768182000,
        "resolution": 2,
        "gnis_id": "01528343",
        "gnis_name": "Yakima River",
        "lengthkm": 1.309,
        "reachcode": "17030003000100",
        "flowdir": 1,
        "wbarea_permanent_identifier": "153011766",
        "ftype": 558,
        "fcode": 55800,
        "innetwork": 1,
        "mainpath": 0,
        "visibilityfilter": 5000000,
        "Shape_Length": 1898.0495796700604,
        "globalid": "{FCAE6B76-4C86-11E1-BCF4-0021280458E6}"
      }
    },
    {
      "type": "Feature",
      "id": 19815648,
      "geometry": {
        "type": "LineString",
        "coordinates": [
          [
            -119.49273490502537,
            46.25685816625546
          ],
          [
            -119.4922298382186,
            46.256636433342024
          ],
          [
            -119.48841850423672,
            46.25522976649801
          ],
          [
            -119.48698090370938,
            46.25467023292786
          ],
          [
            -119.48452643627391,
            46.25384463323477
          ],
          [
            -119.47868163485252,
            46.2527990340266
          ],
          [
            -119.47574263554584,
            46.2529510344997
          ],
          [
            -119.47532510156817,
            46.25303816780728
          ]
        ]
      },
      "properties": {
        "OBJECTID": 19815648,
        "permanent_identifier": "153009524",
        "fdate": 1342767953000,
        "resolution": 2,
        "gnis_id": "01528343",
        "gnis_name": "Yakima River",
        "lengthkm": 1.445,
        "reachcode": "17030003000102",
        "flowdir": 1,
        "wbarea_permanent_identifier": "153011766",
        "ftype": 558,
        "fcode": 55800,
        "innetwork": 1,
        "mainpath": 0,
        "visibilityfilter": 5000000,
        "Shape_Length": 2083.71706301256,
        "globalid": "{D88368CA-4C79-11E1-BCF4-0021280458E6}"
      }
    },
    {
      "type": "Feature",
      "id": 19815654,
      "geometry": {
        "type": "LineString",
        "coordinates": [
          [
            -119.49196845403428,
            46.328949038019466
          ],
          [
            -119.49121485363624,
            46.33004157134413
          ],
          [
            -119.49120852094724,
            46.330191971631194
          ],
          [
            -119.48994612134749,
            46.33115537133477
          ],
          [
            -119.48872765412746,
            46.332681371553576
          ],
          [
            -119.48702825320225,
            46.333865638639104
          ],
          [
            -119.48473152133373,
            46.33515697217803
          ],
          [
            -119.48381732077907,
            46.33556023905654
          ]
        ]
      },
      "properties": {
        "OBJECTID": 19815654,
        "permanent_identifier": "153009511",
        "fdate": 1342768552000,
        "resolution": 2,
        "gnis_id": "01528343",
        "gnis_name": "Yakima River",
        "lengthkm": 0.9860000000000001,
        "reachcode": "17030003000095",
        "flowdir": 1,
        "wbarea_permanent_identifier": "153011766",
        "ftype": 558,
        "fcode": 55800,
        "innetwork": 1,
        "mainpath": 0,
        "visibilityfilter": 5000000,
        "Shape_Length": 1429.0031891260032,
        "globalid": "{6FEC4A46-4C9C-11E1-BCF4-0021280458E6}"
      }
    },
    {
      "type": "Feature",
      "id": 21163362,
      "geometry": {
        "type": "LineString",
        "coordinates": [
          [
            -119.642225862347,
            46.25040795043099
          ],
          [
            -119.64161666307463,
            46.250972350497825
          ],
          [
            -119.6411368625108,
            46.251659617490525
          ],
          [
            -119.64077153003535,
            46.25255081755788
          ],
          [
            -119.64068512930707,
            46.252705617602146
          ]
        ]
      },
      "properties": {
        "OBJECTID": 21163362,
        "permanent_identifier": "153009939",
        "fdate": 1342768524000,
        "resolution": 2,
        "gnis_id": "01528343",
        "gnis_name": "Yakima River",
        "lengthkm": 0.28400000000000003,
        "reachcode": "17030003000118",
        "flowdir": 1,
        "wbarea_permanent_identifier": "153011738",
        "ftype": 558,
        "fcode": 55800,
        "innetwork": 1,
        "mainpath": 0,
        "visibilityfilter": 5000000,
        "Shape_Length": 412.0680941712311,
        "globalid": "{44DAA8F9-4C93-11E1-BCF4-0021280458E6}"
      }
    },
    {
      "type": "Feature",
      "id": 21296672,
      "geometry": {
        "type": "LineString",
        "coordinates": [
          [
            -119.5221416153091,
            46.27541803524323
          ],
          [
            -119.52182444810505,
            46.275257364386896
          ]
        ]
      },
      "properties": {
        "OBJECTID": 21296672,
        "permanent_identifier": "153009533",
        "fdate": 1326918004000,
        "resolution": 2,
        "gnis_id": "01528343",
        "gnis_name": "Yakima River",
        "lengthkm": 0.030000000000000002,
        "reachcode": "17030003000106",
        "flowdir": 1,
        "wbarea_permanent_identifier": "153011766",
        "ftype": 558,
        "fcode": 55800,
        "innetwork": 1,
        "mainpath": 0,
        "visibilityfilter": 5000000,
        "Shape_Length": 43.774187086485604,
        "globalid": "{ADA684BE-4C8E-11E1-BCF4-0021280458E6}"
      }
    },
    {
      "type": "Feature",
      "id": 21838098,
      "geometry": {
        "type": "LineString",
        "coordinates": [
          [
            -119.60100172275854,
            46.255878954956856
          ],
          [
            -119.59978665704368,
            46.256277555445415
          ],
          [
            -119.59674972269099,
            46.25745242238794
          ],
          [
            -119.59426252318218,
            46.25903815545759
          ],
          [
            -119.59266185643295,
            46.26016342330505
          ]
        ]
      },
      "properties": {
        "OBJECTID": 21838098,
        "permanent_identifier": "153009935",
        "fdate": 1342768285000,
        "resolution": 2,
        "gnis_id": "01528343",
        "gnis_name": "Yakima River",
        "lengthkm": 0.808,
        "reachcode": "17030003000116",
        "flowdir": 1,
        "wbarea_permanent_identifier": "153011738",
        "ftype": 558,
        "fcode": 55800,
        "innetwork": 1,
        "mainpath": 0,
        "visibilityfilter": 5000000,
        "Shape_Length": 1167.8361967836602,
        "globalid": "{E6350DDF-4C9A-11E1-BCF4-0021280458E6}"
      }
    },
    {
      "type": "Feature",
      "id": 22286850,
      "geometry": {
        "type": "LineString",
        "coordinates": [
          [
            -119.63572426243222,
            46.25489261844438
          ],
          [
            -119.63489972988214,
            46.25522955137527
          ],
          [
            -119.63236666156014,
            46.256083951911315
          ],
          [
            -119.6320388621812,
            46.25623355179168
          ]
        ]
      },
      "properties": {
        "OBJECTID": 22286850,
        "permanent_identifier": "153009938",
        "fdate": 1342768203000,
        "resolution": 2,
        "gnis_id": "01528343",
        "gnis_name": "Yakima River",
        "lengthkm": 0.322,
        "reachcode": "17030003000117",
        "flowdir": 1,
        "wbarea_permanent_identifier": "153011738",
        "ftype": 558,
        "fcode": 55800,
        "innetwork": 1,
        "mainpath": 0,
        "visibilityfilter": 5000000,
        "Shape_Length": 464.081677838311,
        "globalid": "{326EBA70-4C9A-11E1-BCF4-0021280458E6}"
      }
    },
    {
      "type": "Feature",
      "id": 22960027,
      "geometry": {
        "type": "LineString",
        "coordinates": [
          [
            -119.50373404186152,
            46.26223663207426
          ],
          [
            -119.5027960411761,
            46.26174083234101
          ],
          [
            -119.50121484073418,
            46.260655432380744
          ],
          [
            -119.50114944110061,
            46.260614832141144
          ]
        ]
      },
      "properties": {
        "OBJECTID": 22960027,
        "permanent_identifier": "153009531",
        "fdate": 1342768427000,
        "resolution": 2,
        "gnis_id": "01528343",
        "gnis_name": "Yakima River",
        "lengthkm": 0.269,
        "reachcode": "17030003000104",
        "flowdir": 1,
        "wbarea_permanent_identifier": "153011766",
        "ftype": 558,
        "fcode": 55800,
        "innetwork": 1,
        "mainpath": 0,
        "visibilityfilter": 5000000,
        "Shape_Length": 389.26438541627317,
        "globalid": "{F0F08C33-4C8E-11E1-BCF4-0021280458E6}"
      }
    },
    {
      "type": "Feature",
      "id": 24758418,
      "geometry": {
        "type": "LineString",
        "coordinates": [
          [
            -119.62018032658666,
            46.2561156197823
          ],
          [
            -119.61976812742606,
            46.25617001975461
          ],
          [
            -119.61670766035981,
            46.2570199536773
          ],
          [
            -119.61274592657463,
            46.25743635430159
          ],
          [
            -119.61001345866981,
            46.25702875471633
          ],
          [
            -119.60692725816087,
            46.25584635452122
          ],
          [
            -119.60520745756952,
            46.25532462116608
          ],
          [
            -119.60362592415674,
            46.25529182110678
          ],
          [
            -119.60148032358683,
            46.25572215511607
          ],
          [
            -119.60100172275854,
            46.255878954956856
          ]
        ]
      },
      "properties": {
        "OBJECTID": 24758418,
        "permanent_identifier": "153009934",
        "fdate": 1342768285000,
        "resolution": 2,
        "gnis_id": "01528343",
        "gnis_name": "Yakima River",
        "lengthkm": 1.565,
        "reachcode": "17030003000116",
        "flowdir": 1,
        "wbarea_permanent_identifier": "153011738",
        "ftype": 558,
        "fcode": 55800,
        "innetwork": 1,
        "mainpath": 0,
        "visibilityfilter": 5000000,
        "Shape_Length": 2256.7338390448886,
        "globalid": "{F0F5FCC7-4C8E-11E1-BCF4-0021280458E6}"
      }
    },
    {
      "type": "Feature",
      "id": 25743523,
      "geometry": {
        "type": "LineString",
        "coordinates": [
          [
            -119.47216964624775,
            46.310794972251315
          ],
          [
            -119.47237391344794,
            46.311905238408855
          ],
          [
            -119.47288844703168,
            46.312813838815536
          ],
          [
            -119.47353924788797,
            46.31332197171567
          ],
          [
            -119.47418851395682,
            46.313527038438465
          ]
        ]
      },
      "properties": {
        "OBJECTID": 25743523,
        "permanent_identifier": "153009515",
        "fdate": 1536624000000,
        "resolution": 2,
        "gnis_id": "01528343",
        "gnis_name": "Yakima River",
        "lengthkm": 0.36297955,
        "reachcode": "17030003000097",
        "flowdir": 1,
        "wbarea_permanent_identifier": "153011766",
        "ftype": 558,
        "fcode": 55800,
        "innetwork": 1,
        "mainpath": 0,
        "visibilityfilter": 5000000,
        "Shape_Length": 526.4188784775532,
        "globalid": "{478855D7-4C8F-11E1-BCF4-0021280458E6}"
      }
    },
    {
      "type": "Feature",
      "id": 26106156,
      "geometry": {
        "type": "LineString",
        "coordinates": [
          [
            -119.51329184473487,
            46.27125456478386
          ],
          [
            -119.51326924538017,
            46.27122956532414
          ],
          [
            -119.51241664547001,
            46.27030696529486
          ],
          [
            -119.51150964436904,
            46.269729965285684
          ],
          [
            -119.51115311064783,
            46.26942556494555
          ],
          [
            -119.51085084388853,
            46.26745863123686
          ],
          [
            -119.51073404396381,
            46.266799031733775
          ],
          [
            -119.51036930979532,
            46.26604823175138
          ],
          [
            -119.50905084311012,
            46.265110365621766
          ],
          [
            -119.50747790970962,
            46.26399163181428
          ],
          [
            -119.5048998414202,
            46.26285303196478
          ],
          [
            -119.50373404186152,
            46.26223663207426
          ]
        ]
      },
      "properties": {
        "OBJECTID": 26106156,
        "permanent_identifier": "153009530",
        "fdate": 1342768427000,
        "resolution": 2,
        "gnis_id": "01528343",
        "gnis_name": "Yakima River",
        "lengthkm": 1.313,
        "reachcode": "17030003000104",
        "flowdir": 1,
        "wbarea_permanent_identifier": "153011766",
        "ftype": 558,
        "fcode": 55800,
        "innetwork": 1,
        "mainpath": 0,
        "visibilityfilter": 5000000,
        "Shape_Length": 1900.1466649899216,
        "globalid": "{85985D8A-4C91-11E1-BCF4-0021280458E6}"
      }
    },
    {
      "type": "Feature",
      "id": 26782457,
      "geometry": {
        "type": "LineString",
        "coordinates": [
          [
            -119.5386383170154,
            46.27790122933686
          ],
          [
            -119.53759431818716,
            46.27773556315374
          ],
          [
            -119.53717885070974,
            46.277726362698516
          ]
        ]
      },
      "properties": {
        "OBJECTID": 26782457,
        "permanent_identifier": "153009537",
        "fdate": 1342768549000,
        "resolution": 2,
        "gnis_id": "01528343",
        "gnis_name": "Yakima River",
        "lengthkm": 0.115,
        "reachcode": "17030003000110",
        "flowdir": 1,
        "wbarea_permanent_identifier": "153011766",
        "ftype": 558,
        "fcode": 55800,
        "innetwork": 1,
        "mainpath": 0,
        "visibilityfilter": 5000000,
        "Shape_Length": 165.51445818356476,
        "globalid": "{F74E3B3F-4C9B-11E1-BCF4-0021280458E6}"
      }
    },
    {
      "type": "Feature",
      "id": 27005177,
      "geometry": {
        "type": "LineString",
        "coordinates": [
          [
            -119.4760415049621,
            46.26634543526577
          ],
          [
            -119.47619310450092,
            46.26669403574917
          ],
          [
            -119.47669070443679,
            46.267624968675364
          ],
          [
            -119.4771816387128,
            46.26847743535984
          ],
          [
            -119.47741803863885,
            46.27046616895997
          ],
          [
            -119.4781556397884,
            46.272760835814516
          ],
          [
            -119.47809523887945,
            46.27348716828076
          ]
        ]
      },
      "properties": {
        "OBJECTID": 27005177,
        "permanent_identifier": "153009525",
        "fdate": 1342767953000,
        "resolution": 2,
        "gnis_id": "01528343",
        "gnis_name": "Yakima River",
        "lengthkm": 0.8150000000000001,
        "reachcode": "17030003000102",
        "flowdir": 1,
        "wbarea_permanent_identifier": "153011766",
        "ftype": 558,
        "fcode": 55800,
        "innetwork": 1,
        "mainpath": 0,
        "visibilityfilter": 5000000,
        "Shape_Length": 1183.242768157196,
        "globalid": "{3F89082B-4C95-11E1-BCF4-0021280458E6}"
      }
    },
    {
      "type": "Feature",
      "id": 27453641,
      "geometry": {
        "type": "LineString",
        "coordinates": [
          [
            -119.47322170297015,
            46.26137316880725
          ],
          [
            -119.47372583641804,
            46.26181683570486
          ],
          [
            -119.47431103681771,
            46.262804235358466
          ],
          [
            -119.47458270355754,
            46.263755435476966
          ],
          [
            -119.47530590371862,
            46.264654768334694
          ],
          [
            -119.4760415049621,
            46.26634543526577
          ]
        ]
      },
      "properties": {
        "OBJECTID": 27453641,
        "permanent_identifier": "153009526",
        "fdate": 1342767953000,
        "resolution": 2,
        "gnis_id": "01528343",
        "gnis_name": "Yakima River",
        "lengthkm": 0.599,
        "reachcode": "17030003000102",
        "flowdir": 1,
        "wbarea_permanent_identifier": "153011766",
        "ftype": 558,
        "fcode": 55800,
        "innetwork": 1,
        "mainpath": 0,
        "visibilityfilter": 5000000,
        "Shape_Length": 868.751485391634,
        "globalid": "{69BC92CE-4C82-11E1-BCF4-0021280458E6}"
      }
    },
    {
      "type": "Feature",
      "id": 28128218,
      "geometry": {
        "type": "LineString",
        "coordinates": [
          [
            -119.54888785222512,
            46.27648102838863
          ],
          [
            -119.54723771849665,
            46.27682102833613
          ],
          [
            -119.54275931803332,
            46.27774976189903
          ]
        ]
      },
      "properties": {
        "OBJECTID": 28128218,
        "permanent_identifier": "153009539",
        "fdate": 1342768118000,
        "resolution": 2,
        "gnis_id": "01528343",
        "gnis_name": "Yakima River",
        "lengthkm": 0.49400000000000005,
        "reachcode": "17030003000111",
        "flowdir": 1,
        "wbarea_permanent_identifier": "153011766",
        "ftype": 558,
        "fcode": 55800,
        "innetwork": 1,
        "mainpath": 0,
        "visibilityfilter": 5000000,
        "Shape_Length": 712.1706456116872,
        "globalid": "{982AB7B8-4C76-11E1-BCF4-0021280458E6}"
      }
    },
    {
      "type": "Feature",
      "id": 28128253,
      "geometry": {
        "type": "LineString",
        "coordinates": [
          [
            -119.57176085588152,
            46.27150422573643
          ],
          [
            -119.57122165540231,
            46.27142075907827
          ]
        ]
      },
      "properties": {
        "OBJECTID": 28128253,
        "permanent_identifier": "153009542",
        "fdate": 1342767999000,
        "resolution": 2,
        "gnis_id": "01528343",
        "gnis_name": "Yakima River",
        "lengthkm": 0.043000000000000003,
        "reachcode": "17030003000113",
        "flowdir": 1,
        "wbarea_permanent_identifier": "153011766",
        "ftype": 558,
        "fcode": 55800,
        "innetwork": 1,
        "mainpath": 0,
        "visibilityfilter": 5000000,
        "Shape_Length": 61.51018047481172,
        "globalid": "{D4A2B141-4C96-11E1-BCF4-0021280458E6}"
      }
    }
  ]
}