{
  "type": "FeatureCollection",
  "features": [
    {
      "type": "Feature",
      "id": 1458703,
      "geometry": {
        "type": "LineString",
        "coordinates": [
          [
            -116.15355692720802,
            43.57795715483968
          ],
          [
            -116.15362139452327,
            43.578035755162155
          ],
          [
            -116.15421759440626,
            43.579090688771146
          ],
          [
            -116.15426932766826,
            43.57942008833347
          ]
        ]
      },
      "properties": {
        "OBJECTID": 1458703,
        "permanent_identifier": "54066139",
        "fdate": 1327183762000,
        "resolution": 2,
        "gnis_id": "00378007",
        "gnis_name": "Boise River",
        "lengthkm": 0.17400000000000002,
        "reachcode": "17050114000342",
        "flowdir": 1,
        "wbarea_permanent_identifier": "120008049",
        "ftype": 558,
        "fcode": 55800,
        "innetwork": 1,
        "mainpath": 0,
        "visibilityfilter": 5000000,
        "Shape_Length": 240.15990136579447,
        "globalid": "{A95E3A6D-4C8E-11E1-BCF4-0021280458E6}"
      }
    },
    {
      "type": "Feature",
      "id": 1738388,
      "geometry": {
        "type": "LineString",
        "coordinates": [
          [
            -116.29754397448406,
            43.666410355917805
          ],
          [
            -116.29795800082215,
            43.66665306131919
          ],
          [
            -116.29844341090394,
            43.666981426729706
          ],
          [
            -116.29909538444186,
            43.66746683720181
          ],
          [
            -116.29962838437987,
            43.667814237843196
          ],
          [
            -116.30001385638798,
            43.667942728445986
          ],
          [
            -116.30076576591854,
            43.668185433672825
          ],
          [
            -116.3014653282721,
            43.66841862118579
          ],
          [
            -116.30196123629993,
            43.66859008320984
          ]
        ]
      },
      "properties": {
        "OBJECTID": 1738388,
        "permanent_identifier": "54072775",
        "fdate": 1512950400000,
        "resolution": 2,
        "gnis_id": "00378007",
        "gnis_name": "Boise River",
        "lengthkm": 0.43584842,
        "reachcode": "17050114002915",
        "flowdir": 1,
        "wbarea_permanent_identifier": "120008049",
        "ftype": 558,
        "fcode": 55800,
        "innetwork": 1,
        "mainpath": 0,
        "visibilityfilter": 5000000,
        "Shape_Length": 603.1614735258765,
        "globalid": "{94441BC6-4C7B-11E1-BCF4-0021280458E6}"
      }
    },
    {
      "type": "Feature",
      "id": 2129839,
      "geometry": {
        "type": "LineString",
        "coordinates": [
          [
            -116.1601277288671,
            43.58483848843775
          ],
          [
            -116.16001959658934,
            43.58526015518611
          ],
          [
            -116.16010632924792,
            43.5855503546605
          ],
          [
            -116.1603467300266,
            43.58588435565652
          ],
          [
            -116.16089759593082,
            43.58647375534782
          ]
        ]
      },
      "properties": {
        "OBJECTID": 2129839,
        "permanent_identifier": "54066123",
        "fdate": 1327183761000,
        "resolution": 2,
        "gnis_id": "00378007",
        "gnis_name": "Boise River",
        "lengthkm": 0.202,
        "reachcode": "17050114000335",
        "flowdir": 1,
        "wbarea_permanent_identifier": "120008049",
        "ftype": 558,
        "fcode": 55800,
        "innetwork": 1,
        "mainpath": 0,
        "visibilityfilter": 5000000,
        "Shape_Length": 278.8167132922718,
        "globalid": "{641FF5A6-4C95-11E1-BCF4-0021280458E6}"
      }
    },
    {
      "type": "Feature",
      "id": 2854977,
      "geometry": {
        "type": "LineString",
        "coordinates": [
          [
            -116.13194452094672,
            43.564996289928125
          ],
          [
            -116.13196012063021,
            43.56501188943259
          ],
          [
            -116.13208378807832,
            43.565156956337205
          ]
        ]
      },
      "properties": {
        "OBJECTID": 2854977,
        "permanent_identifier": "{369B3F09-D45C-4151-B103-2269DAE6B0CA}",
        "fdate": 1512950400000,
        "resolution": 2,
        "gnis_id": "00378007",
        "gnis_name": "Boise River",
        "lengthkm": 0.02114736,
        "reachcode": "17050114000345",
        "flowdir": 1,
        "wbarea_permanent_identifier": "54083065",
        "ftype": 558,
        "fcode": 55800,
        "innetwork": 1,
        "mainpath": 0,
        "visibilityfilter": 5000000,
        "Shape_Length": 29.15531656108374,
        "globalid": "{71A3508E-B1AB-4566-98E3-45E5E132695B}"
      }
    },
    {
      "type": "Feature",
      "id": 3302799,
      "geometry": {
        "type": "LineString",
        "coordinates": [
          [
            -116.27828523081983,
            43.660371884151466
          ],
          [
            -116.27847783155453,
            43.66044595128828
          ],
          [
            -116.27915003202996,
            43.6607683511244
          ],
          [
            -116.2793276313881,
            43.660853551134636
          ],
          [
            -116.27988837091803,
            43.661123194673664
          ],
          [
            -116.28037853936112,
            43.66137541747216
          ],
          [
            -116.28071166419228,
            43.66172757763711
          ],
          [
            -116.28139695042145,
            43.661998837165356
          ],
          [
            -116.28182525288392,
            43.66214636363058
          ],
          [
            -116.28262475123013,
            43.66237003357737
          ],
          [
            -116.2837859287374,
            43.662527076798476
          ],
          [
            -116.28454122936778,
            43.66258434009796
          ],
          [
            -116.28514222090917,
            43.66252231721194
          ],
          [
            -116.28573708578722,
            43.66251755837769
          ],
          [
            -116.28647947859517,
            43.66263177255287
          ],
          [
            -116.2878072195586,
            43.66279833572534
          ],
          [
            -116.28982024258902,
            43.663255190491064
          ],
          [
            -116.29097190337372,
            43.663393199350715
          ],
          [
            -116.29213307984047,
            43.66353596739975
          ],
          [
            -116.29344654155786,
            43.663888127687656
          ],
          [
            -116.29480759417198,
            43.664644795692226
          ],
          [
            -116.29621136798437,
            43.665359682738895
          ],
          [
            -116.2969015686549,
            43.665859683115606
          ],
          [
            -116.29754397448406,
            43.666410355917805
          ]
        ]
      },
      "properties": {
        "OBJECTID": 3302799,
        "permanent_identifier": "54072785",
        "fdate": 1441065600000,
        "resolution": 2,
        "gnis_id": "00378007",
        "gnis_name": "Boise River",
        "lengthkm": 1.74666762,
        "reachcode": "17050114002917",
        "flowdir": 1,
        "wbarea_permanent_identifier": "120008049",
        "ftype": 558,
        "fcode": 55800,
        "innetwork": 1,
        "mainpath": 0,
        "visibilityfilter": 5000000,
        "Shape_Length": 2418.5631464344774,
        "globalid": "{6C63691E-4C9B-11E1-BCF4-0021280458E6}"
      }
    },
    {
      "type": "Feature",
      "id": 3718925,
      "geometry": {
        "type": "LineString",
        "coordinates": [
          [
            -116.16829619949732,
            43.59033375519541
          ],
          [
            -116.16857639861473,
            43.59037775456258
          ],
          [
            -116.16968039878694,
            43.59078008779985
          ],
          [
            -116.17064753337966,
            43.5915073550638
          ],
          [
            -116.1714039338543,
            43.592469888020894
          ],
          [
            -116.17164173225783,
            43.59310788847231
          ],
          [
            -116.17192073372077,
            43.59357075496578
          ],
          [
            -116.1725675337244,
            43.59401035501457
          ],
          [
            -116.17331973356386,
            43.594332287699544
          ],
          [
            -116.17418593741361,
            43.59489000290733
          ],
          [
            -116.1747320231053,
            43.59552531831348
          ],
          [
            -116.17502826725466,
            43.59623558792778
          ],
          [
            -116.17513177331892,
            43.597024380229065
          ],
          [
            -116.17512560191268,
            43.59739288779097
          ],
          [
            -116.17579533528236,
            43.598065154968104
          ],
          [
            -116.17675020198097,
            43.59906428783965
          ],
          [
            -116.17767273617125,
            43.59979848842116
          ],
          [
            -116.17828453573775,
            43.60027728791362
          ],
          [
            -116.17933793578933,
            43.600822354526244
          ]
        ]
      },
      "properties": {
        "OBJECTID": 3718925,
        "permanent_identifier": "54066117",
        "fdate": 1441065600000,
        "resolution": 2,
        "gnis_id": "00378007",
        "gnis_name": "Boise River",
        "lengthkm": 1.53443784,
        "reachcode": "17050114000334",
        "flowdir": 1,
        "wbarea_permanent_identifier": "120008049",
        "ftype": 558,
        "fcode": 55800,
        "innetwork": 1,
        "mainpath": 0,
        "visibilityfilter": 5000000,
        "Shape_Length": 2117.8445029451705,
        "globalid": "{F5D5828B-4C8A-11E1-BCF4-0021280458E6}"
      }
    },
    {
      "type": "Feature",
      "id": 4167195,
      "geometry": {
        "type": "LineString",
        "coordinates": [
          [
            -116.18677472174548,
            43.599642241956104
          ],
          [
            -116.18743478023144,
            43.599654872621564
          ],
          [
            -116.18790234411719,
            43.59980121016374
          ],
          [
            -116.18832560415264,
            43.60016888766786
          ],
          [
            -116.18852879127867,
            43.600366823575285
          ]
        ]
      },
      "properties": {
        "OBJECTID": 4167195,
        "permanent_identifier": "{AF3B505B-D21E-4486-B347-6D97B932B696}",
        "fdate": 1441065600000,
        "resolution": 2,
        "gnis_id": "00378007",
        "gnis_name": "Boise River",
        "lengthkm": 0.17483368000000002,
        "reachcode": "17050114000334",
        "flowdir": 1,
        "wbarea_permanent_identifier": "120008049",
        "ftype": 558,
        "fcode": 55800,
        "innetwork": 1,
        "mainpath": 0,
        "visibilityfilter": 5000000,
        "Shape_Length": 241.70091751346706,
        "globalid": "{FBA5FD91-8CA7-4FF5-B3D8-9C8E8326BF16}"
      }
    },
    {
      "type": "Feature",
      "id": 5285316,
      "geometry": {
        "type": "LineString",
        "coordinates": [
          [
            -116.34048538096398,
            43.68477274869603
          ],
          [
            -116.34074414612458,
            43.68501069502596
          ],
          [
            -116.34106834941855,
            43.685236744068064
          ],
          [
            -116.3415204468091,
            43.685525254950754
          ],
          [
            -116.34187736656837,
            43.68586432754337
          ],
          [
            -116.34206177518004,
            43.68601304290892
          ],
          [
            -116.3423443363093,
            43.68621529738145
          ],
          [
            -116.34246925760071,
            43.686280733701004
          ],
          [
            -116.34263582105686,
            43.68636698778828
          ],
          [
            -116.34288863748546,
            43.68647108966692
          ]
        ]
      },
      "properties": {
        "OBJECTID": 5285316,
        "permanent_identifier": "54072919",
        "fdate": 1441065600000,
        "resolution": 2,
        "gnis_id": "00378007",
        "gnis_name": "Boise River",
        "lengthkm": 0.27243903,
        "reachcode": "17050114002955",
        "flowdir": 1,
        "wbarea_permanent_identifier": "120008043",
        "ftype": 558,
        "fcode": 55800,
        "innetwork": 1,
        "mainpath": 0,
        "visibilityfilter": 5000000,
        "Shape_Length": 376.82259183470586,
        "globalid": "{7408336B-4C93-11E1-BCF4-0021280458E6}"
      }
    },
    {
      "type": "Feature",
      "id": 5508568,
      "geometry": {
        "type": "LineString",
        "coordinates": [
          [
            -116.10171794282614,
            43.55222694283391
          ],
          [
            -116.1018510479163,
            43.5523650045683
          ],
          [
            -116.1023261140511,
            43.55285775770969
          ]
        ]
      },
      "properties": {
        "OBJECTID": 5508568,
        "permanent_identifier": "54066169",
        "fdate": 1441065600000,
        "resolution": 2,
        "gnis_id": "00378007",
        "gnis_name": "Boise River",
        "lengthkm": 0.08573282,
        "reachcode": "17050114000355",
        "flowdir": 1,
        "wbarea_permanent_identifier": "54083075",
        "ftype": 558,
        "fcode": 55800,
        "innetwork": 1,
        "mainpath": 0,
        "visibilityfilter": 5000000,
        "Shape_Length": 118.20145176963983,
        "globalid": "{966C52B1-4C90-11E1-BCF4-0021280458E6}"
      }
    },
    {
      "type": "Feature",
      "id": 5731757,
      "geometry": {
        "type": "LineString",
        "coordinates": [
          [
            -116.16656039757642,
            43.58974575515283
          ],
          [
            -116.16735113150597,
            43.590196754938724
          ],
          [
            -116.16803573202333,
            43.590292955027266
          ],
          [
            -116.16829619949732,
            43.59033375519541
          ]
        ]
      },
      "properties": {
        "OBJECTID": 5731757,
        "permanent_identifier": "54066119",
        "fdate": 1327183761000,
        "resolution": 2,
        "gnis_id": "00378007",
        "gnis_name": "Boise River",
        "lengthkm": 0.159,
        "reachcode": "17050114000334",
        "flowdir": 1,
        "wbarea_permanent_identifier": "120008049",
        "ftype": 558,
        "fcode": 55800,
        "innetwork": 1,
        "mainpath": 0,
        "visibilityfilter": 5000000,
        "Shape_Length": 219.3358020763519,
        "globalid": "{F1A7D226-4C9B-11E1-BCF4-0021280458E6}"
      }
    },
    {
      "type": "Feature",
      "id": 5731925,
      "geometry": {
        "type": "LineString",
        "coordinates": [
          [
            -116.30196123629993,
            43.66859008320984
          ],
          [
            -116.3022553098957,
            43.668823129908155
          ],
          [
            -116.30265505906878,
            43.66897065691429
          ],
          [
            -116.30304529047875,
            43.6690848701019
          ],
          [
            -116.30345927103333,
            43.66915981838964
          ]
        ]
      },
      "properties": {
        "OBJECTID": 5731925,
        "permanent_identifier": "{77CE37E6-C210-47FA-8EEA-62D381AE0387}",
        "fdate": 1441065600000,
        "resolution": 2,
        "gnis_id": "00378007",
        "gnis_name": "Boise River",
        "lengthkm": 0.1393132,
        "reachcode": "17050114002914",
        "flowdir": 1,
        "wbarea_permanent_identifier": "120008049",
        "ftype": 558,
        "fcode": 55800,
        "innetwork": 1,
        "mainpath": 0,
        "visibilityfilter": 5000000,
        "Shape_Length": 192.88293817914254,
        "globalid": "{ADB82C96-C816-403A-ABC8-3CD573548B3A}"
      }
    },
    {
      "type": "Feature",
      "id": 5929183,
      "geometry": {
        "type": "LineString",
        "coordinates": [
          [
            -116.15654952857548,
            43.580536355274326
          ],
          [
            -116.15749812813873,
            43.580977555037244
          ],
          [
            -116.15846432833203,
            43.58123268837666
          ]
        ]
      },
      "properties": {
        "OBJECTID": 5929183,
        "permanent_identifier": "54066133",
        "fdate": 1327183762000,
        "resolution": 2,
        "gnis_id": "00378007",
        "gnis_name": "Boise River",
        "lengthkm": 0.17400000000000002,
        "reachcode": "17050114000340",
        "flowdir": 1,
        "wbarea_permanent_identifier": "120008049",
        "ftype": 558,
        "fcode": 55800,
        "innetwork": 1,
        "mainpath": 0,
        "visibilityfilter": 5000000,
        "Shape_Length": 239.96945404020738,
        "globalid": "{84DB15D3-4C8B-11E1-BCF4-0021280458E6}"
      }
    },
    {
      "type": "Feature",
      "id": 5985475,
      "geometry": {
        "type": "LineString",
        "coordinates": [
          [
            -116.15914692894331,
            43.58164915535127
          ],
          [
            -116.15935572870896,
            43.58178608838119
          ],
          [
            -116.16045412976852,
            43.582796754678185
          ],
          [
            -116.1605921961241,
            43.58315488825646
          ],
          [
            -116.16066279634585,
            43.58333808810083
          ],
          [
            -116.16043352927937,
            43.58398108909314
          ],
          [
            -116.16017519594028,
            43.584705288726795
          ]
        ]
      },
      "properties": {
        "OBJECTID": 5985475,
        "permanent_identifier": "54066129",
        "fdate": 1512950400000,
        "resolution": 2,
        "gnis_id": "00378007",
        "gnis_name": "Boise River",
        "lengthkm": 0.38619883,
        "reachcode": "17050114000339",
        "flowdir": 1,
        "wbarea_permanent_identifier": "120008049",
        "ftype": 558,
        "fcode": 55800,
        "innetwork": 1,
        "mainpath": 0,
        "visibilityfilter": 5000000,
        "Shape_Length": 532.4032979104182,
        "globalid": "{966C341D-4C90-11E1-BCF4-0021280458E6}"
      }
    },
    {
      "type": "Feature",
      "id": 6179552,
      "geometry": {
        "type": "LineString",
        "coordinates": [
          [
            -116.11741317125299,
            43.55881975548156
          ],
          [
            -116.11761651654021,
            43.55880749025131
          ],
          [
            -116.11907298402735,
            43.55880215691885
          ],
          [
            -116.11940338474092,
            43.558932956516685
          ]
        ]
      },
      "properties": {
        "OBJECTID": 6179552,
        "permanent_identifier": "54072963",
        "fdate": 1441065600000,
        "resolution": 2,
        "gnis_id": "00378007",
        "gnis_name": "Boise River",
        "lengthkm": 0.16388382,
        "reachcode": "17050114002972",
        "flowdir": 1,
        "wbarea_permanent_identifier": "{A3263EAA-320F-4025-BBF4-9B47D8E42638}",
        "ftype": 558,
        "fcode": 55800,
        "innetwork": 1,
        "mainpath": 0,
        "visibilityfilter": 5000000,
        "Shape_Length": 226.76035556801432,
        "globalid": "{9F2F3C10-4C97-11E1-BCF4-0021280458E6}"
      }
    },
    {
      "type": "Feature",
      "id": 6600048,
      "geometry": {
        "type": "LineString",
        "coordinates": [
          [
            -116.15846432833203,
            43.58123268837666
          ],
          [
            -116.15891879501821,
            43.58149955512496
          ],
          [
            -116.15914692894331,
            43.58164915535127
          ]
        ]
      },
      "properties": {
        "OBJECTID": 6600048,
        "permanent_identifier": "54066131",
        "fdate": 1327183762000,
        "resolution": 2,
        "gnis_id": "00378007",
        "gnis_name": "Boise River",
        "lengthkm": 0.07200000000000001,
        "reachcode": "17050114000340",
        "flowdir": 1,
        "wbarea_permanent_identifier": "120008049",
        "ftype": 558,
        "fcode": 55800,
        "innetwork": 1,
        "mainpath": 0,
        "visibilityfilter": 5000000,
        "Shape_Length": 99.38081544762468,
        "globalid": "{5A571F59-4C76-11E1-BCF4-0021280458E6}"
      }
    },
    {
      "type": "Feature",
      "id": 6626219,
      "geometry": {
        "type": "LineString",
        "coordinates": [
          [
            -116.18221305152028,
            43.601639343136014
          ],
          [
            -116.1831874417555,
            43.60132525438766
          ],
          [
            -116.18371925028225,
            43.60100759611698
          ],
          [
            -116.18500473620652,
            43.59987475443451
          ],
          [
            -116.18573680379706,
            43.59965975398647
          ],
          [
            -116.18633820426827,
            43.59963388757047
          ],
          [
            -116.18677472174548,
            43.599642241956104
          ]
        ]
      },
      "properties": {
        "OBJECTID": 6626219,
        "permanent_identifier": "{58F89A07-5DBF-44D5-9A75-67ABE9317818}",
        "fdate": 1441065600000,
        "resolution": 2,
        "gnis_id": "00378007",
        "gnis_name": "Boise River",
        "lengthkm": 0.45170997000000007,
        "reachcode": "17050114000334",
        "flowdir": 1,
        "wbarea_permanent_identifier": "120008049",
        "ftype": 558,
        "fcode": 55800,
        "innetwork": 1,
        "mainpath": 0,
        "visibilityfilter": 5000000,
        "Shape_Length": 624.4807086131415,
        "globalid": "{A817F64E-DC79-4982-8299-BF5C9AF0139D}"
      }
    },
    {
      "type": "Feature",
      "id": 7550492,
      "geometry": {
        "type": "LineString",
        "coordinates": [
          [
            -116.11217969179307,
            43.55937434019563
          ],
          [
            -116.1130595162309,
            43.55914035697685
          ],
          [
            -116.11426371669133,
            43.55891995687489
          ],
          [
            -116.11491343018973,
            43.55874058792328
          ],
          [
            -116.1151955126734,
            43.558662711182365
          ],
          [
            -116.1160521186389,
            43.55865319365277
          ],
          [
            -116.1169277611712,
            43.558848308740885
          ],
          [
            -116.11741317125299,
            43.55881975548156
          ]
        ]
      },
      "properties": {
        "OBJECTID": 7550492,
        "permanent_identifier": "{D0B3C926-C32F-4CF4-BC96-014FFAB4DF47}",
        "fdate": 1512950400000,
        "resolution": 2,
        "gnis_id": "00378007",
        "gnis_name": "Boise River",
        "lengthkm": 0.43742351,
        "reachcode": "17050114002971",
        "flowdir": 1,
        "wbarea_permanent_identifier": "{A3263EAA-320F-4025-BBF4-9B47D8E42638}",
        "ftype": 558,
        "fcode": 55800,
        "innetwork": 1,
        "mainpath": 0,
        "visibilityfilter": 5000000,
        "Shape_Length": 605.1501856511085,
        "globalid": "{728FCF70-5033-4ACE-A4B8-BFB6943658B9}"
      }
    },
    {
      "type": "Feature",
      "id": 7744168,
      "geometry": {
        "type": "LineString",
        "coordinates": [
          [
            -116.24471275367088,
            43.63873528551211
          ],
          [
            -116.24501322134716,
            43.63918675240654
          ],
          [
            -116.24580562117141,
            43.639873551985325
          ],
          [
            -116.24592393403235,
            43.64003641392042
          ],
          [
            -116.2466967551717,
            43.64034235162471
          ],
          [
            -116.24740395920585,
            43.6404980284983
          ],
          [
            -116.24822725248015,
            43.640574170613085
          ],
          [
            -116.24930752744004,
            43.64061224163429
          ],
          [
            -116.24990715276047,
            43.64093584810552
          ],
          [
            -116.25049249987542,
            43.64158306184298
          ],
          [
            -116.25090652621347,
            43.64207799073895
          ],
          [
            -116.25150615049338,
            43.64278706984987
          ],
          [
            -116.25173015662072,
            43.64300988498258
          ],
          [
            -116.25223426613637,
            43.64355325563171
          ]
        ]
      },
      "properties": {
        "OBJECTID": 7744168,
        "permanent_identifier": "54072817",
        "fdate": 1441065600000,
        "resolution": 2,
        "gnis_id": "00378007",
        "gnis_name": "Boise River",
        "lengthkm": 0.86695072,
        "reachcode": "17050114002926",
        "flowdir": 1,
        "wbarea_permanent_identifier": "120008049",
        "ftype": 558,
        "fcode": 55800,
        "innetwork": 1,
        "mainpath": 0,
        "visibilityfilter": 5000000,
        "Shape_Length": 1198.3445727587193,
        "globalid": "{620185CF-4C7D-11E1-BCF4-0021280458E6}"
      }
    },
    {
      "type": "Feature",
      "id": 7941233,
      "geometry": {
        "type": "LineString",
        "coordinates": [
          [
            -116.1023261140511,
            43.55285775770969
          ],
          [
            -116.1027687134487,
            43.55331675815809
          ],
          [
            -116.10320151413902,
            43.5539705579582
          ],
          [
            -116.10333651404132,
            43.554137158370246
          ]
        ]
      },
      "properties": {
        "OBJECTID": 7941233,
        "permanent_identifier": "54066167",
        "fdate": 1327183762000,
        "resolution": 2,
        "gnis_id": "00378007",
        "gnis_name": "Boise River",
        "lengthkm": 0.165,
        "reachcode": "17050114000354",
        "flowdir": 1,
        "wbarea_permanent_identifier": "54083075",
        "ftype": 558,
        "fcode": 55800,
        "innetwork": 1,
        "mainpath": 0,
        "visibilityfilter": 5000000,
        "Shape_Length": 227.07270935958462,
        "globalid": "{3C026820-4C79-11E1-BCF4-0021280458E6}"
      }
    },
    {
      "type": "Feature",
      "id": 7967422,
      "geometry": {
        "type": "LineString",
        "coordinates": [
          [
            -116.22666081388275,
            43.61791795200339
          ],
          [
            -116.22711221411565,
            43.61801648518621
          ],
          [
            -116.22807300977614,
            43.61828842951491
          ],
          [
            -116.22872800918651,
            43.61882810058119
          ],
          [
            -116.22926280820755,
            43.61967296756667
          ],
          [
            -116.22955395894371,
            43.62000373669777
          ]
        ]
      },
      "properties": {
        "OBJECTID": 7967422,
        "permanent_identifier": "{D949A5BA-55D4-4096-80FF-61FF8736E98B}",
        "fdate": 1441065600000,
        "resolution": 2,
        "gnis_id": "00378007",
        "gnis_name": "Boise River",
        "lengthkm": 0.34817498,
        "reachcode": "17050114002958",
        "flowdir": 1,
        "wbarea_permanent_identifier": "120008049",
        "ftype": 558,
        "fcode": 55800,
        "innetwork": 1,
        "mainpath": 0,
        "visibilityfilter": 5000000,
        "Shape_Length": 481.0059835093018,
        "globalid": "{FF36766A-8035-44C6-B262-690CF23896B3}"
      }
    },
    {
      "type": "Feature",
      "id": 7996888,
      "geometry": {
        "type": "LineString",
        "coordinates": [
          [
            -116.26060375958227,
            43.647108484682605
          ],
          [
            -116.26072082588365,
            43.647178951083774
          ],
          [
            -116.26111962608987,
            43.64740866635465
          ],
          [
            -116.26162228614186,
            43.64792619825208
          ],
          [
            -116.26173531100976,
            43.64799460821151
          ],
          [
            -116.26196433459133,
            43.64824742524856
          ],
          [
            -116.26215766578075,
            43.64872034349318
          ],
          [
            -116.2622379731428,
            43.64926464503496
          ],
          [
            -116.26221417821472,
            43.64941038677838
          ],
          [
            -116.2622439208343,
            43.64966023066524
          ]
        ]
      },
      "properties": {
        "OBJECTID": 7996888,
        "permanent_identifier": "{0303E815-62C4-4EE6-A6E4-6197711BA628}",
        "fdate": 1512950400000,
        "resolution": 2,
        "gnis_id": "00378007",
        "gnis_name": "Boise River",
        "lengthkm": 0.32974422999999997,
        "reachcode": "17050114002924",
        "flowdir": 1,
        "wbarea_permanent_identifier": "120008049",
        "ftype": 558,
        "fcode": 55800,
        "innetwork": 1,
        "mainpath": 0,
        "visibilityfilter": 5000000,
        "Shape_Length": 455.16011015107324,
        "globalid": "{13FE9CB6-0CAD-4563-A8FA-7D2A7D744F68}"
      }
    },
    {
      "type": "Feature",
      "id": 8191090,
      "geometry": {
        "type": "LineString",
        "coordinates": [
          [
            -116.13694032270504,
            43.570029088920585
          ],
          [
            -116.13770172294483,
            43.570128155899795
          ],
          [
            -116.13978938971157,
            43.569905755935416
          ],
          [
            -116.14135579064056,
            43.56966288888957
          ],
          [
            -116.14248099064943,
            43.56935348918189
          ],
          [
            -116.14381119039432,
            43.569417155259266
          ],
          [
            -116.14409239050529,
            43.56962888851066
          ]
        ]
      },
      "properties": {
        "OBJECTID": 8191090,
        "permanent_identifier": "54066143",
        "fdate": 1327183762000,
        "resolution": 2,
        "gnis_id": "00378007",
        "gnis_name": "Boise River",
        "lengthkm": 0.598,
        "reachcode": "17050114000343",
        "flowdir": 1,
        "wbarea_permanent_identifier": "54083055",
        "ftype": 558,
        "fcode": 55800,
        "innetwork": 1,
        "mainpath": 0,
        "visibilityfilter": 5000000,
        "Shape_Length": 826.8496654546115,
        "globalid": "{2D69A14F-4C8D-11E1-BCF4-0021280458E6}"
      }
    },
    {
      "type": "Feature",
      "id": 8668919,
      "geometry": {
        "type": "LineString",
        "coordinates": [
          [
            -116.12173518468127,
            43.56046769004744
          ],
          [
            -116.12176011795337,
            43.56048508981639
          ]
        ]
      },
      "properties": {
        "OBJECTID": 8668919,
        "permanent_identifier": "{7D85384C-434E-4469-A4FD-DFA3FFC1D840}",
        "fdate": 1441065600000,
        "resolution": 2,
        "gnis_id": "00378007",
        "gnis_name": "Boise River",
        "lengthkm": 0.00279159,
        "reachcode": "17050114000348",
        "flowdir": 1,
        "wbarea_permanent_identifier": "54083065",
        "ftype": 558,
        "fcode": 55800,
        "innetwork": 1,
        "mainpath": 0,
        "visibilityfilter": 5000000,
        "Shape_Length": 3.8533486124909486,
        "globalid": "{030DFD09-640B-45D2-B3B2-D9E54B052C7C}"
      }
    },
    {
      "type": "Feature",
      "id": 8835170,
      "geometry": {
        "type": "LineString",
        "coordinates": [
          [
            -116.127433386329,
            43.5617566897253
          ],
          [
            -116.12843538608944,
            43.56206575597812
          ],
          [
            -116.12989898643612,
            43.56296935592987
          ],
          [
            -116.13042058732579,
            43.563462155814044
          ],
          [
            -116.13194452094672,
            43.564996289928125
          ]
        ]
      },
      "properties": {
        "OBJECTID": 8835170,
        "permanent_identifier": "54066149",
        "fdate": 1327183762000,
        "resolution": 2,
        "gnis_id": "00378007",
        "gnis_name": "Boise River",
        "lengthkm": 0.522,
        "reachcode": "17050114000346",
        "flowdir": 1,
        "wbarea_permanent_identifier": "54083065",
        "ftype": 558,
        "fcode": 55800,
        "innetwork": 1,
        "mainpath": 0,
        "visibilityfilter": 5000000,
        "Shape_Length": 721.0715954488685,
        "globalid": "{F4F0C45E-4C81-11E1-BCF4-0021280458E6}"
      }
    },
    {
      "type": "Feature",
      "id": 9059869,
      "geometry": {
        "type": "LineString",
        "coordinates": [
          [
            -116.2328366153652,
            43.621396551965475
          ],
          [
            -116.23331754907038,
            43.62159048528036
          ],
          [
            -116.23380521607012,
            43.622122085030966
          ],
          [
            -116.23440914920072,
            43.62304068531094
          ],
          [
            -116.23465181730268,
            43.624083085079974
          ],
          [
            -116.23465715003863,
            43.625078551527885
          ]
        ]
      },
      "properties": {
        "OBJECTID": 9059869,
        "permanent_identifier": "54072923",
        "fdate": 1327183770000,
        "resolution": 2,
        "gnis_id": "00378007",
        "gnis_name": "Boise River",
        "lengthkm": 0.458,
        "reachcode": "17050114002957",
        "flowdir": 1,
        "wbarea_permanent_identifier": "120008049",
        "ftype": 558,
        "fcode": 55800,
        "innetwork": 1,
        "mainpath": 0,
        "visibilityfilter": 5000000,
        "Shape_Length": 631.5029091233323,
        "globalid": "{EF03D593-4C74-11E1-BCF4-0021280458E6}"
      }
    },
    {
      "type": "Feature",
      "id": 9507464,
      "geometry": {
        "type": "LineString",
        "coordinates": [
          [
            -116.13406472208537,
            43.56876855620858
          ],
          [
            -116.13521012197788,
            43.56946835616223
          ],
          [
            -116.13617938966495,
            43.56989175597116
          ],
          [
            -116.13687338932458,
            43.570020355735544
          ],
          [
            -116.13694032270504,
            43.570029088920585
          ]
        ]
      },
      "properties": {
        "OBJECTID": 9507464,
        "permanent_identifier": "54066145",
        "fdate": 1327183762000,
        "resolution": 2,
        "gnis_id": "00378007",
        "gnis_name": "Boise River",
        "lengthkm": 0.275,
        "reachcode": "17050114000344",
        "flowdir": 1,
        "wbarea_permanent_identifier": "54083055",
        "ftype": 558,
        "fcode": 55800,
        "innetwork": 1,
        "mainpath": 0,
        "visibilityfilter": 5000000,
        "Shape_Length": 380.0909977926523,
        "globalid": "{62FA7A18-4C8D-11E1-BCF4-0021280458E6}"
      }
    },
    {
      "type": "Feature",
      "id": 10463132,
      "geometry": {
        "type": "LineString",
        "coordinates": [
          [
            -116.12092638500296,
            43.55990149055863
          ],
          [
            -116.12173518468127,
            43.56046769004744
          ]
        ]
      },
      "properties": {
        "OBJECTID": 10463132,
        "permanent_identifier": "54066155",
        "fdate": 1441065600000,
        "resolution": 2,
        "gnis_id": "00378007",
        "gnis_name": "Boise River",
        "lengthkm": 0.09069261,
        "reachcode": "17050114000348",
        "flowdir": 1,
        "wbarea_permanent_identifier": "{A3263EAA-320F-4025-BBF4-9B47D8E42638}",
        "ftype": 558,
        "fcode": 55800,
        "innetwork": 1,
        "mainpath": 0,
        "visibilityfilter": 5000000,
        "Shape_Length": 125.18621531391064,
        "globalid": "{1E526A76-4C7C-11E1-BCF4-0021280458E6}"
      }
    },
    {
      "type": "Feature",
      "id": 11105022,
      "geometry": {
        "type": "LineString",
        "coordinates": [
          [
            -116.26820997254372,
            43.653104412909094
          ],
          [
            -116.26819569537875,
            43.65340422432433
          ],
          [
            -116.26825042849981,
            43.65373595141248
          ],
          [
            -116.26846695318876,
            43.65421324113051
          ],
          [
            -116.26930928302983,
            43.655007980796086
          ],
          [
            -116.2699707743309,
            43.65566947011508
          ],
          [
            -116.27054660264217,
            43.65625957728982
          ],
          [
            -116.27113671124002,
            43.65671643363165
          ],
          [
            -116.27152694160947,
            43.65710666588231
          ],
          [
            -116.27188862077057,
            43.657435031566855
          ],
          [
            -116.27218843186998,
            43.657696770978326
          ],
          [
            -116.27248348564865,
            43.658053690830364
          ],
          [
            -116.27266432522919,
            43.65835826154266
          ],
          [
            -116.27293082467793,
            43.658957886875264
          ],
          [
            -116.27318780636351,
            43.65913396640179
          ],
          [
            -116.27338292310903,
            43.659448055812845
          ],
          [
            -116.27535787612747,
            43.65986684114579
          ],
          [
            -116.27631917748744,
            43.65998105358871
          ],
          [
            -116.27718530329714,
            43.66005243832536
          ],
          [
            -116.27828523081983,
            43.660371884151466
          ]
        ]
      },
      "properties": {
        "OBJECTID": 11105022,
        "permanent_identifier": "54076011",
        "fdate": 1441065600000,
        "resolution": 2,
        "gnis_id": "00378007",
        "gnis_name": "Boise River",
        "lengthkm": 1.2469473800000002,
        "reachcode": "17050114004729",
        "flowdir": 1,
        "wbarea_permanent_identifier": "120008049",
        "ftype": 558,
        "fcode": 55800,
        "innetwork": 1,
        "mainpath": 0,
        "visibilityfilter": 5000000,
        "Shape_Length": 1723.7582027069118,
        "globalid": "{E67FCE82-4C72-11E1-BCF4-0021280458E6}"
      }
    },
    {
      "type": "Feature",
      "id": 12201542,
      "geometry": {
        "type": "LineString",
        "coordinates": [
          [
            -116.10364491474766,
            43.55451769160267
          ],
          [
            -116.10478318074011,
            43.55592229126855
          ],
          [
            -116.10497291480401,
            43.55653255753058
          ]
        ]
      },
      "properties": {
        "OBJECTID": 12201542,
        "permanent_identifier": "54066163",
        "fdate": 1327183762000,
        "resolution": 2,
        "gnis_id": "00378007",
        "gnis_name": "Boise River",
        "lengthkm": 0.251,
        "reachcode": "17050114000352",
        "flowdir": 1,
        "wbarea_permanent_identifier": "54083075",
        "ftype": 558,
        "fcode": 55800,
        "innetwork": 1,
        "mainpath": 0,
        "visibilityfilter": 5000000,
        "Shape_Length": 346.30280532821854,
        "globalid": "{D5ACE7C8-4C7B-11E1-BCF4-0021280458E6}"
      }
    },
    {
      "type": "Feature",
      "id": 12227866,
      "geometry": {
        "type": "LineString",
        "coordinates": [
          [
            -116.34288863748546,
            43.68647108966692
          ],
          [
            -116.34342996585637,
            43.686325348340674
          ],
          [
            -116.34385826831887,
            43.68632832199667
          ],
          [
            -116.34438175049371,
            43.686402680655235
          ],
          [
            -116.34497959025808,
            43.68619150281728
          ],
          [
            -116.34550902012442,
            43.68598924901698
          ],
          [
            -116.34583917006934,
            43.68581673737473
          ],
          [
            -116.34639818127253,
            43.685397746323176
          ],
          [
            -116.34708684819614,
            43.68503674668461
          ],
          [
            -116.34767338047914,
            43.684778052806216
          ],
          [
            -116.34836818239036,
            43.68457104091683
          ]
        ]
      },
      "properties": {
        "OBJECTID": 12227866,
        "permanent_identifier": "54072921",
        "fdate": 1441065600000,
        "resolution": 2,
        "gnis_id": "00378007",
        "gnis_name": "Boise River",
        "lengthkm": 0.50680242,
        "reachcode": "17050114002956",
        "flowdir": 1,
        "wbarea_permanent_identifier": "120008043",
        "ftype": 558,
        "fcode": 55800,
        "innetwork": 1,
        "mainpath": 0,
        "visibilityfilter": 5000000,
        "Shape_Length": 701.8738619087294,
        "globalid": "{5D31C510-4C8B-11E1-BCF4-0021280458E6}"
      }
    },
    {
      "type": "Feature",
      "id": 12227908,
      "geometry": {
        "type": "LineString",
        "coordinates": [
          [
            -116.10986526252482,
            43.55960229628955
          ],
          [
            -116.11006658293316,
            43.55967149142076
          ],
          [
            -116.11056538260455,
            43.559639290551466
          ]
        ]
      },
      "properties": {
        "OBJECTID": 12227908,
        "permanent_identifier": "54066159",
        "fdate": 1441065600000,
        "resolution": 2,
        "gnis_id": "00378007",
        "gnis_name": "Boise River",
        "lengthkm": 0.05822021,
        "reachcode": "17050114000351",
        "flowdir": 1,
        "wbarea_permanent_identifier": "{285D5727-3F5B-4115-A38F-A11DBD669BC4}",
        "ftype": 558,
        "fcode": 55800,
        "innetwork": 1,
        "mainpath": 0,
        "visibilityfilter": 5000000,
        "Shape_Length": 80.54994952723897,
        "globalid": "{6C6B4CD3-4C9B-11E1-BCF4-0021280458E6}"
      }
    },
    {
      "type": "Feature",
      "id": 12982743,
      "geometry": {
        "type": "LineString",
        "coordinates": [
          [
            -116.16017519594028,
            43.584705288726795
          ],
          [
            -116.1601277288671,
            43.58483848843775
          ]
        ]
      },
      "properties": {
        "OBJECTID": 12982743,
        "permanent_identifier": "54066125",
        "fdate": 1327183762000,
        "resolution": 2,
        "gnis_id": "00378007",
        "gnis_name": "Boise River",
        "lengthkm": 0.015000000000000001,
        "reachcode": "17050114000336",
        "flowdir": 1,
        "wbarea_permanent_identifier": "120008049",
        "ftype": 558,
        "fcode": 55800,
        "innetwork": 1,
        "mainpath": 0,
        "visibilityfilter": 5000000,
        "Shape_Length": 21.14122833542967,
        "globalid": "{2C2178A6-4C76-11E1-BCF4-0021280458E6}"
      }
    },
    {
      "type": "Feature",
      "id": 13126643,
      "geometry": {
        "type": "LineString",
        "coordinates": [
          [
            -116.1909432970116,
            43.60194629308395
          ],
          [
            -116.19136803044299,
            43.60221398274633
          ],
          [
            -116.19200334711503,
            43.60245311829958
          ],
          [
            -116.19276793867213,
            43.602954753739034
          ],
          [
            -116.1934729388556,
            43.603587753693645
          ],
          [
            -116.19368146183926,
            43.60389923641065
          ],
          [
            -116.19417520035402,
            43.60432456560982
          ],
          [
            -116.19493733937281,
            43.604878887276605
          ],
          [
            -116.19543760619695,
            43.605094086824096
          ]
        ]
      },
      "properties": {
        "OBJECTID": 13126643,
        "permanent_identifier": "54066115",
        "fdate": 1441065600000,
        "resolution": 2,
        "gnis_id": "00378007",
        "gnis_name": "Boise River",
        "lengthkm": 0.51104405,
        "reachcode": "17050114000333",
        "flowdir": 1,
        "wbarea_permanent_identifier": "120008049",
        "ftype": 558,
        "fcode": 55800,
        "innetwork": 1,
        "mainpath": 0,
        "visibilityfilter": 5000000,
        "Shape_Length": 705.9091744558068,
        "globalid": "{569CE024-4C86-11E1-BCF4-0021280458E6}"
      }
    },
    {
      "type": "Feature",
      "id": 13126715,
      "geometry": {
        "type": "LineString",
        "coordinates": [
          [
            -116.2320760995792,
            43.62117137882888
          ],
          [
            -116.23235969187752,
            43.621204257118194
          ],
          [
            -116.2328366153652,
            43.621396551965475
          ]
        ]
      },
      "properties": {
        "OBJECTID": 13126715,
        "permanent_identifier": "{68E41DA1-3B36-43C5-B716-DB1C1F02131C}",
        "fdate": 1441065600000,
        "resolution": 2,
        "gnis_id": "00378007",
        "gnis_name": "Boise River",
        "lengthkm": 0.06700725,
        "reachcode": "17050114002958",
        "flowdir": 1,
        "wbarea_permanent_identifier": "120008049",
        "ftype": 558,
        "fcode": 55800,
        "innetwork": 1,
        "mainpath": 0,
        "visibilityfilter": 5000000,
        "Shape_Length": 92.74189703609443,
        "globalid": "{E7367A4A-EA3A-4286-92D0-9EAFA625E929}"
      }
    },
    {
      "type": "Feature",
      "id": 14248449,
      "geometry": {
        "type": "LineString",
        "coordinates": [
          [
            -116.11147841463968,
            43.55956084115406
          ],
          [
            -116.11217969179307,
            43.55937434019563
          ]
        ]
      },
      "properties": {
        "OBJECTID": 14248449,
        "permanent_identifier": "{3EBE5630-63A3-423E-882C-BCBD84C5A787}",
        "fdate": 1441065600000,
        "resolution": 2,
        "gnis_id": "00378007",
        "gnis_name": "Boise River",
        "lengthkm": 0.06012356,
        "reachcode": "17050114000351",
        "flowdir": 1,
        "wbarea_permanent_identifier": "{A3263EAA-320F-4025-BBF4-9B47D8E42638}",
        "ftype": 558,
        "fcode": 55800,
        "innetwork": 1,
        "mainpath": 0,
        "visibilityfilter": 5000000,
        "Shape_Length": 83.15690012093616,
        "globalid": "{787C7AA2-BE11-4DC2-BA92-323E28B66D2D}"
      }
    },
    {
      "type": "Feature",
      "id": 15821133,
      "geometry": {
        "type": "LineString",
        "coordinates": [
          [
            -116.10001712677489,
            43.546727021642816
          ],
          [
            -116.09997647623894,
            43.54761844308146
          ],
          [
            -116.09987653816526,
            43.54844292626375
          ],
          [
            -116.09968508826105,
            43.54912152225103
          ],
          [
            -116.09982377893694,
            43.5498256907339
          ],
          [
            -116.10004429095159,
            43.55081644034663
          ],
          [
            -116.10043333303136,
            43.551344679888814
          ],
          [
            -116.10171794282614,
            43.55222694283391
          ]
        ]
      },
      "properties": {
        "OBJECTID": 15821133,
        "permanent_identifier": "54066171",
        "fdate": 1441065600000,
        "resolution": 2,
        "gnis_id": "00378007",
        "gnis_name": "Boise River",
        "lengthkm": 0.6700604400000001,
        "reachcode": "17050114000356",
        "flowdir": 1,
        "wbarea_permanent_identifier": "54083075",
        "ftype": 558,
        "fcode": 55800,
        "innetwork": 1,
        "mainpath": 0,
        "visibilityfilter": 5000000,
        "Shape_Length": 922.8532054346763,
        "globalid": "{F1A7F22A-4C9B-11E1-BCF4-0021280458E6}"
      }
    },
    {
      "type": "Feature",
      "id": 16270564,
      "geometry": {
        "type": "LineString",
        "coordinates": [
          [
            -116.22073074591496,
            43.61443715216124
          ],
          [
            -116.2208646126759,
            43.614533352670314
          ],
          [
            -116.22087454561203,
            43.614560952148985
          ],
          [
            -116.2211609463112,
            43.61536475240414
          ],
          [
            -116.22217670505073,
            43.616200453414315
          ],
          [
            -116.2223854132494,
            43.61632188585102
          ],
          [
            -116.22310469475998,
            43.61684290744051
          ],
          [
            -116.22451452447943,
            43.617249795256974
          ],
          [
            -116.22525691728735,
            43.617378287081
          ],
          [
            -116.22666081388275,
            43.61791795200339
          ]
        ]
      },
      "properties": {
        "OBJECTID": 16270564,
        "permanent_identifier": "54072925",
        "fdate": 1441065600000,
        "resolution": 2,
        "gnis_id": "00378007",
        "gnis_name": "Boise River",
        "lengthkm": 0.64979454,
        "reachcode": "17050114002958",
        "flowdir": 1,
        "wbarea_permanent_identifier": "120008049",
        "ftype": 558,
        "fcode": 55800,
        "innetwork": 1,
        "mainpath": 0,
        "visibilityfilter": 5000000,
        "Shape_Length": 898.1256929389019,
        "globalid": "{97115A5A-4C74-11E1-BCF4-0021280458E6}"
      }
    },
    {
      "type": "Feature",
      "id": 17392865,
      "geometry": {
        "type": "LineString",
        "coordinates": [
          [
            -116.10497291480401,
            43.55653255753058
          ],
          [
            -116.10535831501531,
            43.557772491422845
          ],
          [
            -116.10578712213669,
            43.558543738938454
          ],
          [
            -116.10639150581845,
            43.55917191567374
          ],
          [
            -116.10722431685586,
            43.55955738919728
          ],
          [
            -116.10811899491443,
            43.55961449651132
          ],
          [
            -116.10941951551231,
            43.55944909130406
          ]
        ]
      },
      "properties": {
        "OBJECTID": 17392865,
        "permanent_identifier": "54066161",
        "fdate": 1441065600000,
        "resolution": 2,
        "gnis_id": "00378007",
        "gnis_name": "Boise River",
        "lengthkm": 0.5779344000000001,
        "reachcode": "17050114000351",
        "flowdir": 1,
        "wbarea_permanent_identifier": "54083075",
        "ftype": 558,
        "fcode": 55800,
        "innetwork": 1,
        "mainpath": 0,
        "visibilityfilter": 5000000,
        "Shape_Length": 797.5757824055096,
        "globalid": "{AD323A4A-4C99-11E1-BCF4-0021280458E6}"
      }
    },
    {
      "type": "Feature",
      "id": 17618333,
      "geometry": {
        "type": "LineString",
        "coordinates": [
          [
            -116.22955395894371,
            43.62000373669777
          ],
          [
            -116.22981157431443,
            43.62029640658224
          ],
          [
            -116.23078202821013,
            43.620801140540884
          ],
          [
            -116.23174570927097,
            43.621133074785654
          ],
          [
            -116.2320760995792,
            43.62117137882888
          ]
        ]
      },
      "properties": {
        "OBJECTID": 17618333,
        "permanent_identifier": "{AB4CE19B-9C04-4DBE-BD6D-DFB4AF4C99D1}",
        "fdate": 1441065600000,
        "resolution": 2,
        "gnis_id": "00378007",
        "gnis_name": "Boise River",
        "lengthkm": 0.24760657000000003,
        "reachcode": "17050114002958",
        "flowdir": 1,
        "wbarea_permanent_identifier": "120008049",
        "ftype": 558,
        "fcode": 55800,
        "innetwork": 1,
        "mainpath": 0,
        "visibilityfilter": 5000000,
        "Shape_Length": 342.433576751912,
        "globalid": "{9DB7DC40-DBBB-4AF6-B9F8-87F77B0BE84E}"
      }
    },
    {
      "type": "Feature",
      "id": 18158139,
      "geometry": {
        "type": "LineString",
        "coordinates": [
          [
            -116.10333651404132,
            43.554137158370246
          ],
          [
            -116.10364491474766,
            43.55451769160267
          ]
        ]
      },
      "properties": {
        "OBJECTID": 18158139,
        "permanent_identifier": "54066165",
        "fdate": 1327183762000,
        "resolution": 2,
        "gnis_id": "00378007",
        "gnis_name": "Boise River",
        "lengthkm": 0.049,
        "reachcode": "17050114000353",
        "flowdir": 1,
        "wbarea_permanent_identifier": "54083075",
        "ftype": 558,
        "fcode": 55800,
        "innetwork": 1,
        "mainpath": 0,
        "visibilityfilter": 5000000,
        "Shape_Length": 67.78753709298411,
        "globalid": "{A4044EE3-4C99-11E1-BCF4-0021280458E6}"
      }
    },
    {
      "type": "Feature",
      "id": 18515820,
      "geometry": {
        "type": "LineString",
        "coordinates": [
          [
            -116.21633861195106,
            43.611870885866495
          ],
          [
            -116.21791001160464,
            43.612495352007954
          ],
          [
            -116.21955061196198,
            43.613590151934325
          ],
          [
            -116.22073074591496,
            43.61443715216124
          ]
        ]
      },
      "properties": {
        "OBJECTID": 18515820,
        "permanent_identifier": "54066111",
        "fdate": 1327183761000,
        "resolution": 2,
        "gnis_id": "00378007",
        "gnis_name": "Boise River",
        "lengthkm": 0.458,
        "reachcode": "17050114000332",
        "flowdir": 1,
        "wbarea_permanent_identifier": "120008049",
        "ftype": 558,
        "fcode": 55800,
        "innetwork": 1,
        "mainpath": 0,
        "visibilityfilter": 5000000,
        "Shape_Length": 632.8991633787955,
        "globalid": "{2061AA39-4C86-11E1-BCF4-0021280458E6}"
      }
    },
    {
      "type": "Feature",
      "id": 18740083,
      "geometry": {
        "type": "LineString",
        "coordinates": [
          [
            -116.34836818239036,
            43.68457104091683
          ],
          [
            -116.34857281585847,
            43.68460911113652
          ],
          [
            -116.34935090105856,
            43.68470904892243
          ],
          [
            -116.34989579637953,
            43.68482088297064
          ],
          [
            -116.35075240234504,
            43.684961271938874
          ],
          [
            -116.35112121956834,
            43.685027896255235
          ],
          [
            -116.35181738249783,
            43.68519974649862
          ],
          [
            -116.35272973610495,
            43.685415748805795
          ],
          [
            -116.35326749440422,
            43.68571080138975
          ],
          [
            -116.35331508217934,
            43.6861581401482
          ],
          [
            -116.35339360606636,
            43.68622952460457
          ],
          [
            -116.35360061819487,
            43.6864008454483
          ],
          [
            -116.35412172066883,
            43.68641274231381
          ],
          [
            -116.35435533300466,
            43.68652852049038
          ]
        ]
      },
      "properties": {
        "OBJECTID": 18740083,
        "permanent_identifier": "54072907",
        "fdate": 1441065600000,
        "resolution": 2,
        "gnis_id": "00378007",
        "gnis_name": "Boise River",
        "lengthkm": 0.56765785,
        "reachcode": "17050114002953",
        "flowdir": 1,
        "wbarea_permanent_identifier": "120008043",
        "ftype": 558,
        "fcode": 55800,
        "innetwork": 1,
        "mainpath": 0,
        "visibilityfilter": 5000000,
        "Shape_Length": 786.2335655553586,
        "globalid": "{54E59C35-4C82-11E1-BCF4-0021280458E6}"
      }
    },
    {
      "type": "Feature",
      "id": 18995163,
      "geometry": {
        "type": "LineString",
        "coordinates": [
          [
            -116.12213271751725,
            43.56071415614529
          ],
          [
            -116.12458098545201,
            43.56110168956582
          ],
          [
            -116.12493371914361,
            43.56115749022203
          ],
          [
            -116.1271977865735,
            43.56168395618128
          ],
          [
            -116.127433386329,
            43.5617566897253
          ]
        ]
      },
      "properties": {
        "OBJECTID": 18995163,
        "permanent_identifier": "54066151",
        "fdate": 1512950400000,
        "resolution": 2,
        "gnis_id": "00378007",
        "gnis_name": "Boise River",
        "lengthkm": 0.44261548000000006,
        "reachcode": "17050114000347",
        "flowdir": 1,
        "wbarea_permanent_identifier": "54083065",
        "ftype": 558,
        "fcode": 55800,
        "innetwork": 1,
        "mainpath": 0,
        "visibilityfilter": 5000000,
        "Shape_Length": 612.3582833539837,
        "globalid": "{6A83FD4D-4C77-11E1-BCF4-0021280458E6}"
      }
    },
    {
      "type": "Feature",
      "id": 19189712,
      "geometry": {
        "type": "LineString",
        "coordinates": [
          [
            -116.14409239050529,
            43.56962888851066
          ],
          [
            -116.14429439038223,
            43.56978088925757
          ],
          [
            -116.14434019156073,
            43.569891888658
          ]
        ]
      },
      "properties": {
        "OBJECTID": 19189712,
        "permanent_identifier": "{D419925C-E057-4C0E-A09E-F82B53593B6E}",
        "fdate": 1441065600000,
        "resolution": 2,
        "gnis_id": "00378007",
        "gnis_name": "Boise River",
        "lengthkm": 0.03641195,
        "reachcode": "17050114000343",
        "flowdir": 1,
        "wbarea_permanent_identifier": "54083055",
        "ftype": 558,
        "fcode": 55800,
        "innetwork": 1,
        "mainpath": 0,
        "visibilityfilter": 5000000,
        "Shape_Length": 50.21984921779514,
        "globalid": "{EAA3403D-D609-448A-B628-F3471F195274}"
      }
    },
    {
      "type": "Feature",
      "id": 19861309,
      "geometry": {
        "type": "LineString",
        "coordinates": [
          [
            -116.33740281295873,
            43.683820394849405
          ],
          [
            -116.33763885598165,
            43.68381658807947
          ],
          [
            -116.33803860411422,
            43.68378993842564
          ],
          [
            -116.33840408954815,
            43.68379183993033
          ],
          [
            -116.3389952438825,
            43.68387152849765
          ],
          [
            -116.33975964606246,
            43.68421952494763
          ],
          [
            -116.34016712848312,
            43.68453777742445
          ],
          [
            -116.34048538096398,
            43.68477274869603
          ]
        ]
      },
      "properties": {
        "OBJECTID": 19861309,
        "permanent_identifier": "54072903",
        "fdate": 1441065600000,
        "resolution": 2,
        "gnis_id": "00378007",
        "gnis_name": "Boise River",
        "lengthkm": 0.28633693,
        "reachcode": "17050114002952",
        "flowdir": 1,
        "wbarea_permanent_identifier": "120008043",
        "ftype": 558,
        "fcode": 55800,
        "innetwork": 1,
        "mainpath": 0,
        "visibilityfilter": 5000000,
        "Shape_Length": 396.54506755737657,
        "globalid": "{94C93216-4C87-11E1-BCF4-0021280458E6}"
      }
    },
    {
      "type": "Feature",
      "id": 20060900,
      "geometry": {
        "type": "LineString",
        "coordinates": [
          [
            -116.30631463743178,
            43.670163349319296
          ],
          [
            -116.30683377121566,
            43.67025108219403
          ],
          [
            -116.30760783787402,
            43.67048468240878
          ]
        ]
      },
      "properties": {
        "OBJECTID": 20060900,
        "permanent_identifier": "54077155",
        "fdate": 1327183773000,
        "resolution": 2,
        "gnis_id": "00378007",
        "gnis_name": "Boise River",
        "lengthkm": 0.11,
        "reachcode": "17050114005030",
        "flowdir": 1,
        "wbarea_permanent_identifier": "120008043",
        "ftype": 558,
        "fcode": 55800,
        "innetwork": 1,
        "mainpath": 0,
        "visibilityfilter": 5000000,
        "Shape_Length": 152.71373936177372,
        "globalid": "{AF72FEE0-4C8A-11E1-BCF4-0021280458E6}"
      }
    },
    {
      "type": "Feature",
      "id": 21239610,
      "geometry": {
        "type": "LineString",
        "coordinates": [
          [
            -116.2622439208343,
            43.64966023066524
          ],
          [
            -116.26253837942758,
            43.649823818218096
          ],
          [
            -116.26297560550837,
            43.65008258448364
          ],
          [
            -116.26377570008044,
            43.650522784905235
          ],
          [
            -116.26411477260312,
            43.65070719354352
          ],
          [
            -116.26427434263123,
            43.650805852918786
          ],
          [
            -116.26497866334611,
            43.651043797665615
          ],
          [
            -116.26552593940856,
            43.65109138906166
          ],
          [
            -116.26600659112907,
            43.65110090552944
          ],
          [
            -116.26688699098213,
            43.65111042274855
          ],
          [
            -116.26765793707943,
            43.65177667252451
          ],
          [
            -116.26803864968574,
            43.65237153919508
          ],
          [
            -116.26821949030683,
            43.6528712238796
          ],
          [
            -116.26820997254372,
            43.653104412909094
          ]
        ]
      },
      "properties": {
        "OBJECTID": 21239610,
        "permanent_identifier": "54072811",
        "fdate": 1512950400000,
        "resolution": 2,
        "gnis_id": "00378007",
        "gnis_name": "Boise River",
        "lengthkm": 0.6768897,
        "reachcode": "17050114002923",
        "flowdir": 1,
        "wbarea_permanent_identifier": "120008049",
        "ftype": 558,
        "fcode": 55800,
        "innetwork": 1,
        "mainpath": 0,
        "visibilityfilter": 5000000,
        "Shape_Length": 936.0220223206579,
        "globalid": "{86C029A4-4C96-11E1-BCF4-0021280458E6}"
      }
    },
    {
      "type": "Feature",
      "id": 21407750,
      "geometry": {
        "type": "LineString",
        "coordinates": [
          [
            -116.15556952778171,
            43.58009148818
          ],
          [
            -116.15597492809415,
            43.5802690885261
          ],
          [
            -116.15654952857548,
            43.580536355274326
          ]
        ]
      },
      "properties": {
        "OBJECTID": 21407750,
        "permanent_identifier": "54066135",
        "fdate": 1327183762000,
        "resolution": 2,
        "gnis_id": "00378007",
        "gnis_name": "Boise River",
        "lengthkm": 0.093,
        "reachcode": "17050114000341",
        "flowdir": 1,
        "wbarea_permanent_identifier": "120008049",
        "ftype": 558,
        "fcode": 55800,
        "innetwork": 1,
        "mainpath": 0,
        "visibilityfilter": 5000000,
        "Shape_Length": 128.75422757317256,
        "globalid": "{D32DAE12-4C7C-11E1-BCF4-0021280458E6}"
      }
    },
    {
      "type": "Feature",
      "id": 21434291,
      "geometry": {
        "type": "LineString",
        "coordinates": [
          [
            -116.10941951551231,
            43.55944909130406
          ],
          [
            -116.10986526252482,
            43.55960229628955
          ]
        ]
      },
      "properties": {
        "OBJECTID": 21434291,
        "permanent_identifier": "{DBBC565E-1E1F-493B-929D-D122906205C7}",
        "fdate": 1441065600000,
        "resolution": 2,
        "gnis_id": "00378007",
        "gnis_name": "Boise River",
        "lengthkm": 0.03972121,
        "reachcode": "17050114000351",
        "flowdir": 1,
        "wbarea_permanent_identifier": "54083075",
        "ftype": 558,
        "fcode": 55800,
        "innetwork": 1,
        "mainpath": 0,
        "visibilityfilter": 5000000,
        "Shape_Length": 54.91870373605983,
        "globalid": "{F0A8BDCD-35AA-4934-B496-724C4526F3AE}"
      }
    },
    {
      "type": "Feature",
      "id": 21884182,
      "geometry": {
        "type": "LineString",
        "coordinates": [
          [
            -116.19543760619695,
            43.605094086824096
          ],
          [
            -116.19574420677974,
            43.60522595374996
          ],
          [
            -116.19616040679303,
            43.60536375387004
          ],
          [
            -116.19665876215646,
            43.60510978745351
          ],
          [
            -116.19744300731692,
            43.605265686690274
          ],
          [
            -116.19802860728161,
            43.605343487349145
          ],
          [
            -116.19909473618378,
            43.605665986274154
          ],
          [
            -116.19972231960826,
            43.60574926628157
          ],
          [
            -116.20019226423544,
            43.60574926628157
          ],
          [
            -116.20114404783224,
            43.60558270464455
          ],
          [
            -116.20254560738863,
            43.60524875344167
          ],
          [
            -116.20329094178575,
            43.60523415289986
          ],
          [
            -116.20378094062185,
            43.60546175307881
          ],
          [
            -116.20637920879491,
            43.60725155359176
          ],
          [
            -116.2082093423931,
            43.60882328635182
          ],
          [
            -116.20928494327492,
            43.60912855268856
          ],
          [
            -116.21025274276874,
            43.60985555299262
          ],
          [
            -116.21095441012233,
            43.61032028564822
          ],
          [
            -116.21243841013514,
            43.610815086277256
          ],
          [
            -116.21583494466233,
            43.6116705521348
          ],
          [
            -116.21633861195106,
            43.611870885866495
          ]
        ]
      },
      "properties": {
        "OBJECTID": 21884182,
        "permanent_identifier": "54066113",
        "fdate": 1441065600000,
        "resolution": 2,
        "gnis_id": "00378007",
        "gnis_name": "Boise River",
        "lengthkm": 1.9807566500000002,
        "reachcode": "17050114000332",
        "flowdir": 1,
        "wbarea_permanent_identifier": "120008049",
        "ftype": 558,
        "fcode": 55800,
        "innetwork": 1,
        "mainpath": 0,
        "visibilityfilter": 5000000,
        "Shape_Length": 2739.4531508817377,
        "globalid": "{7414204D-4C93-11E1-BCF4-0021280458E6}"
      }
    },
    {
      "type": "Feature",
      "id": 21914927,
      "geometry": {
        "type": "LineString",
        "coordinates": [
          [
            -116.12176011795337,
            43.56048508981639
          ],
          [
            -116.12213271751725,
            43.56071415614529
          ]
        ]
      },
      "properties": {
        "OBJECTID": 21914927,
        "permanent_identifier": "{4D439E1E-33B1-41DE-B4F4-5016265C539D}",
        "fdate": 1441065600000,
        "resolution": 2,
        "gnis_id": "00378007",
        "gnis_name": "Boise River",
        "lengthkm": 0.03939183,
        "reachcode": "17050114000348",
        "flowdir": 1,
        "wbarea_permanent_identifier": "54083065",
        "ftype": 558,
        "fcode": 55800,
        "innetwork": 1,
        "mainpath": 0,
        "visibilityfilter": 5000000,
        "Shape_Length": 54.39351745586869,
        "globalid": "{0491C984-87F7-449C-945F-ADB34947B940}"
      }
    },
    {
      "type": "Feature",
      "id": 23454912,
      "geometry": {
        "type": "LineString",
        "coordinates": [
          [
            -116.18852879127867,
            43.600366823575285
          ],
          [
            -116.18925180414365,
            43.601071154127524
          ],
          [
            -116.1898082930928,
            43.60149300554357
          ],
          [
            -116.19047216305425,
            43.60178924896245
          ],
          [
            -116.1909432970116,
            43.60194629308395
          ]
        ]
      },
      "properties": {
        "OBJECTID": 23454912,
        "permanent_identifier": "{C6D92DA6-F1CB-4830-B4C7-3B93296BD5AF}",
        "fdate": 1441065600000,
        "resolution": 2,
        "gnis_id": "00378007",
        "gnis_name": "Boise River",
        "lengthkm": 0.26720167,
        "reachcode": "17050114000334",
        "flowdir": 1,
        "wbarea_permanent_identifier": "120008049",
        "ftype": 558,
        "fcode": 55800,
        "innetwork": 1,
        "mainpath": 0,
        "visibilityfilter": 5000000,
        "Shape_Length": 369.13324581287793,
        "globalid": "{0A3D9ADA-5299-431E-B598-ABF38303B549}"
      }
    },
    {
      "type": "Feature",
      "id": 23904739,
      "geometry": {
        "type": "LineString",
        "coordinates": [
          [
            -116.14434019156073,
            43.569891888658
          ],
          [
            -116.1444643907217,
            43.570193155558705
          ],
          [
            -116.14467632457529,
            43.57090268901617
          ],
          [
            -116.14489159125881,
            43.571780355678
          ],
          [
            -116.14549559202409,
            43.57278348918688
          ],
          [
            -116.14626112526433,
            43.57377828872026
          ],
          [
            -116.14723392556385,
            43.574369755625916
          ],
          [
            -116.1478417919124,
            43.574680488742125
          ],
          [
            -116.14905719267915,
            43.574829355840386
          ],
          [
            -116.15063739316805,
            43.575259155713766
          ],
          [
            -116.15136379297073,
            43.57565268877516
          ],
          [
            -116.1523689934133,
            43.5765090888144
          ],
          [
            -116.15355692720802,
            43.57795715483968
          ]
        ]
      },
      "properties": {
        "OBJECTID": 23904739,
        "permanent_identifier": "54066141",
        "fdate": 1441065600000,
        "resolution": 2,
        "gnis_id": "00378007",
        "gnis_name": "Boise River",
        "lengthkm": 1.24777201,
        "reachcode": "17050114000343",
        "flowdir": 1,
        "wbarea_permanent_identifier": "120008049",
        "ftype": 558,
        "fcode": 55800,
        "innetwork": 1,
        "mainpath": 0,
        "visibilityfilter": 5000000,
        "Shape_Length": 1721.8250840811406,
        "globalid": "{2BAA328A-4C75-11E1-BCF4-0021280458E6}"
      }
    },
    {
      "type": "Feature",
      "id": 24128950,
      "geometry": {
        "type": "LineString",
        "coordinates": [
          [
            -116.30760783787402,
            43.67048468240878
          ],
          [
            -116.30774234768487,
            43.670617242842575
          ],
          [
            -116.30779469590239,
            43.67076476844948
          ],
          [
            -116.30781373142864,
            43.67095988590096
          ],
          [
            -116.30780897202682,
            43.671097893605314
          ],
          [
            -116.30783437666075,
            43.67121181599188
          ]
        ]
      },
      "properties": {
        "OBJECTID": 24128950,
        "permanent_identifier": "54077709",
        "fdate": 1441065600000,
        "resolution": 2,
        "gnis_id": "00378007",
        "gnis_name": "Boise River",
        "lengthkm": 0.08541054000000001,
        "reachcode": "17050114005263",
        "flowdir": 1,
        "wbarea_permanent_identifier": "120008043",
        "ftype": 558,
        "fcode": 55800,
        "innetwork": 1,
        "mainpath": 0,
        "visibilityfilter": 5000000,
        "Shape_Length": 117.85570760315146,
        "globalid": "{D571F9E8-4C7D-11E1-BCF4-0021280458E6}"
      }
    },
    {
      "type": "Feature",
      "id": 24384214,
      "geometry": {
        "type": "LineString",
        "coordinates": [
          [
            -116.23465715003863,
            43.625078551527885
          ],
          [
            -116.23465741745584,
            43.625130551698796
          ],
          [
            -116.23465781702082,
            43.62519595218016
          ],
          [
            -116.23452521763014,
            43.62654995189544
          ],
          [
            -116.23451075108802,
            43.6277504854536
          ],
          [
            -116.234525751424,
            43.62782635224229
          ]
        ]
      },
      "properties": {
        "OBJECTID": 24384214,
        "permanent_identifier": "54072821",
        "fdate": 1512950400000,
        "resolution": 2,
        "gnis_id": "00378007",
        "gnis_name": "Boise River",
        "lengthkm": 0.30710409000000005,
        "reachcode": "17050114002928",
        "flowdir": 1,
        "wbarea_permanent_identifier": "120008049",
        "ftype": 558,
        "fcode": 55800,
        "innetwork": 1,
        "mainpath": 0,
        "visibilityfilter": 5000000,
        "Shape_Length": 423.22556757929897,
        "globalid": "{6C638864-4C9B-11E1-BCF4-0021280458E6}"
      }
    },
    {
      "type": "Feature",
      "id": 24804280,
      "geometry": {
        "type": "LineString",
        "coordinates": [
          [
            -116.25223426613637,
            43.64355325563171
          ],
          [
            -116.2530052122337,
            43.644091014730115
          ],
          [
            -116.25421397751612,
            43.644129086534626
          ],
          [
            -116.25513720990458,
            43.644357513843296
          ],
          [
            -116.25618417217323,
            43.644909548692624
          ],
          [
            -116.25661723507808,
            43.6454473069443
          ],
          [
            -116.2570078244317,
            43.64613728467693
          ],
          [
            -116.25719255768992,
            43.64636168513199
          ],
          [
            -116.25757395808911,
            43.646538484512206
          ],
          [
            -116.25819502465009,
            43.64657675128343
          ],
          [
            -116.25866122543646,
            43.64672348439426
          ],
          [
            -116.25946635827344,
            43.64674995097953
          ],
          [
            -116.26032002577136,
            43.646937684125454
          ],
          [
            -116.26060375958227,
            43.647108484682605
          ]
        ]
      },
      "properties": {
        "OBJECTID": 24804280,
        "permanent_identifier": "54072815",
        "fdate": 1441065600000,
        "resolution": 2,
        "gnis_id": "00378007",
        "gnis_name": "Boise River",
        "lengthkm": 0.8412685200000001,
        "reachcode": "17050114002925",
        "flowdir": 1,
        "wbarea_permanent_identifier": "120008049",
        "ftype": 558,
        "fcode": 55800,
        "innetwork": 1,
        "mainpath": 0,
        "visibilityfilter": 5000000,
        "Shape_Length": 1163.8705005534875,
        "globalid": "{62EEA3EE-4C8D-11E1-BCF4-0021280458E6}"
      }
    },
    {
      "type": "Feature",
      "id": 24834455,
      "geometry": {
        "type": "LineString",
        "coordinates": [
          [
            -116.234525751424,
            43.62782635224229
          ],
          [
            -116.23449157196806,
            43.62832137411599
          ],
          [
            -116.23453440138191,
            43.628478419007784
          ],
          [
            -116.23521016880738,
            43.62924936419907
          ],
          [
            -116.23614767627977,
            43.62983946959938
          ],
          [
            -116.23678839852518,
            43.63025088549572
          ],
          [
            -116.23765993198931,
            43.63065528532452
          ],
          [
            -116.23841435232801,
            43.631227085555416
          ],
          [
            -116.23910135231641,
            43.63203148542017
          ],
          [
            -116.23961217327539,
            43.63270434151267
          ],
          [
            -116.23992755284227,
            43.633455551577214
          ],
          [
            -116.24032601175341,
            43.63405111556016
          ],
          [
            -116.24057347671639,
            43.6344413482235
          ],
          [
            -116.24075907361772,
            43.63476971507487
          ],
          [
            -116.24133490401005,
            43.63609269392597
          ],
          [
            -116.24172758379618,
            43.63631630728894
          ],
          [
            -116.24250495414951,
            43.63626095207367
          ],
          [
            -116.24335744480364,
            43.63656382745072
          ],
          [
            -116.24380262056303,
            43.63683515169925
          ],
          [
            -116.2442065547633,
            43.6376330853326
          ],
          [
            -116.24437215468505,
            43.63822335240262
          ],
          [
            -116.24471275367088,
            43.63873528551211
          ]
        ]
      },
      "properties": {
        "OBJECTID": 24834455,
        "permanent_identifier": "54072819",
        "fdate": 1512950400000,
        "resolution": 2,
        "gnis_id": "00378007",
        "gnis_name": "Boise River",
        "lengthkm": 1.56123703,
        "reachcode": "17050114002928",
        "flowdir": 1,
        "wbarea_permanent_identifier": "120008049",
        "ftype": 558,
        "fcode": 55800,
        "innetwork": 1,
        "mainpath": 0,
        "visibilityfilter": 5000000,
        "Shape_Length": 2155.6032473014125,
        "globalid": "{01E6127A-4C81-11E1-BCF4-0021280458E6}"
      }
    },
    {
      "type": "Feature",
      "id": 25002996,
      "geometry": {
        "type": "LineString",
        "coordinates": [
          [
            -116.15426932766826,
            43.57942008833347
          ],
          [
            -116.15495099388014,
            43.57982048825588
          ],
          [
            -116.15556952778171,
            43.58009148818
          ]
        ]
      },
      "properties": {
        "OBJECTID": 25002996,
        "permanent_identifier": "54066137",
        "fdate": 1327183762000,
        "resolution": 2,
        "gnis_id": "00378007",
        "gnis_name": "Boise River",
        "lengthkm": 0.129,
        "reachcode": "17050114000341",
        "flowdir": 1,
        "wbarea_permanent_identifier": "120008049",
        "ftype": 558,
        "fcode": 55800,
        "innetwork": 1,
        "mainpath": 0,
        "visibilityfilter": 5000000,
        "Shape_Length": 178.16195234089213,
        "globalid": "{F01950BA-4C75-11E1-BCF4-0021280458E6}"
      }
    },
    {
      "type": "Feature",
      "id": 25058863,
      "geometry": {
        "type": "LineString",
        "coordinates": [
          [
            -116.13208378807832,
            43.565156956337205
          ],
          [
            -116.13368872101633,
            43.56703848932068
          ],
          [
            -116.13382692160074,
            43.56765815608585
          ],
          [
            -116.13396498795632,
            43.56827788960672
          ],
          [
            -116.13406472208537,
            43.56876855620858
          ]
        ]
      },
      "properties": {
        "OBJECTID": 25058863,
        "permanent_identifier": "54066147",
        "fdate": 1512950400000,
        "resolution": 2,
        "gnis_id": "00378007",
        "gnis_name": "Boise River",
        "lengthkm": 0.44193155,
        "reachcode": "17050114000345",
        "flowdir": 1,
        "wbarea_permanent_identifier": "54083055",
        "ftype": 558,
        "fcode": 55800,
        "innetwork": 1,
        "mainpath": 0,
        "visibilityfilter": 5000000,
        "Shape_Length": 608.90570497151,
        "globalid": "{8DC079E0-4C83-11E1-BCF4-0021280458E6}"
      }
    },
    {
      "type": "Feature",
      "id": 25478128,
      "geometry": {
        "type": "LineString",
        "coordinates": [
          [
            -116.30783437666075,
            43.67121181599188
          ],
          [
            -116.30790415069865,
            43.671321563315246
          ],
          [
            -116.3081087852073,
            43.67145957169322
          ],
          [
            -116.30871857238131,
            43.67167868289866
          ],
          [
            -116.30894157231242,
            43.671795748652485
          ],
          [
            -116.30966971188768,
            43.672121062648884
          ],
          [
            -116.31023126407452,
            43.67219720531718
          ],
          [
            -116.31095643916883,
            43.67240954854789
          ],
          [
            -116.31153045070802,
            43.672477981041915
          ],
          [
            -116.31190203887297,
            43.672666949330655
          ],
          [
            -116.31266307388539,
            43.6730062210343
          ],
          [
            -116.31307131485524,
            43.67315037811385
          ],
          [
            -116.31333827630098,
            43.67309294878297
          ],
          [
            -116.31353395701586,
            43.67319657847934
          ],
          [
            -116.3140003315714,
            43.67360108736227
          ],
          [
            -116.31412882293448,
            43.67400559427119
          ],
          [
            -116.31412406353263,
            43.674476727713916
          ],
          [
            -116.31416689398698,
            43.67497165572894
          ],
          [
            -116.31479163987565,
            43.675558148955005
          ],
          [
            -116.3154187737895,
            43.67584848170682
          ],
          [
            -116.31594564082097,
            43.675884348656055
          ],
          [
            -116.31647497287715,
            43.67594723523671
          ],
          [
            -116.31730302451273,
            43.6758806106194
          ],
          [
            -116.31807304141331,
            43.67570394879966
          ],
          [
            -116.31894961210183,
            43.6758425393763
          ],
          [
            -116.31950164652555,
            43.67596627082803
          ],
          [
            -116.31986332464612,
            43.6762280122308
          ],
          [
            -116.3199156728636,
            43.67653734102865
          ],
          [
            -116.31971104147657,
            43.676665831770926
          ],
          [
            -116.31943026382233,
            43.67673245702154
          ],
          [
            -116.31928334668586,
            43.67683731162501
          ],
          [
            -116.31918279885934,
            43.677227384493555
          ],
          [
            -116.31929701409796,
            43.67745105468822
          ],
          [
            -116.31963965669226,
            43.677503403119395
          ],
          [
            -116.31975862925165,
            43.67760809909219
          ],
          [
            -116.32001221671585,
            43.6781166223703
          ],
          [
            -116.320191691116,
            43.67824579454645
          ],
          [
            -116.32046294996655,
            43.67854560684639
          ],
          [
            -116.3212767254777,
            43.678997703132744
          ],
          [
            -116.32194773350136,
            43.6789453552527
          ],
          [
            -116.32265681361808,
            43.67885017819816
          ],
          [
            -116.3230898754824,
            43.67860271338711
          ],
          [
            -116.32356576780109,
            43.678112543569206
          ],
          [
            -116.32427484687726,
            43.67802688341425
          ],
          [
            -116.32562638172824,
            43.678345730891984
          ],
          [
            -116.32611655017134,
            43.678426633771316
          ],
          [
            -116.32694377666358,
            43.678588880944005
          ],
          [
            -116.32801536108471,
            43.67900722044535
          ],
          [
            -116.32856263714714,
            43.67941648829159
          ],
          [
            -116.32928599338828,
            43.680439656981406
          ],
          [
            -116.32954297507388,
            43.68066332573687
          ],
          [
            -116.32995224305064,
            43.68079181667397
          ],
          [
            -116.33077077588258,
            43.68108687017753
          ],
          [
            -116.33097472363886,
            43.681222424746984
          ],
          [
            -116.33200333817412,
            43.68157228019602
          ],
          [
            -116.33236397784194,
            43.68174848151549
          ]
        ]
      },
      "properties": {
        "OBJECTID": 25478128,
        "permanent_identifier": "54072787",
        "fdate": 1441065600000,
        "resolution": 2,
        "gnis_id": "00378007",
        "gnis_name": "Boise River",
        "lengthkm": 2.75450679,
        "reachcode": "17050114002918",
        "flowdir": 1,
        "wbarea_permanent_identifier": "120008043",
        "ftype": 558,
        "fcode": 55800,
        "innetwork": 1,
        "mainpath": 0,
        "visibilityfilter": 5000000,
        "Shape_Length": 3811.9152665445235,
        "globalid": "{640EF6CC-4C95-11E1-BCF4-0021280458E6}"
      }
    },
    {
      "type": "Feature",
      "id": 26152263,
      "geometry": {
        "type": "LineString",
        "coordinates": [
          [
            -116.11940338474092,
            43.558932956516685
          ],
          [
            -116.11987298391085,
            43.55911895665265
          ],
          [
            -116.12075191765172,
            43.55977935685566
          ],
          [
            -116.12092638500296,
            43.55990149055863
          ]
        ]
      },
      "properties": {
        "OBJECTID": 26152263,
        "permanent_identifier": "54072965",
        "fdate": 1441065600000,
        "resolution": 2,
        "gnis_id": "00378007",
        "gnis_name": "Boise River",
        "lengthkm": 0.16479199,
        "reachcode": "17050114002973",
        "flowdir": 1,
        "wbarea_permanent_identifier": "{A3263EAA-320F-4025-BBF4-9B47D8E42638}",
        "ftype": 558,
        "fcode": 55800,
        "innetwork": 1,
        "mainpath": 0,
        "visibilityfilter": 5000000,
        "Shape_Length": 227.5210955198733,
        "globalid": "{E20238C9-4C8D-11E1-BCF4-0021280458E6}"
      }
    },
    {
      "type": "Feature",
      "id": 27050596,
      "geometry": {
        "type": "LineString",
        "coordinates": [
          [
            -116.11056538260455,
            43.559639290551466
          ],
          [
            -116.11138171678842,
            43.55958655739655
          ],
          [
            -116.11147841463968,
            43.55956084115406
          ]
        ]
      },
      "properties": {
        "OBJECTID": 27050596,
        "permanent_identifier": "54066157",
        "fdate": 1441065600000,
        "resolution": 2,
        "gnis_id": "00378007",
        "gnis_name": "Boise River",
        "lengthkm": 0.07421331,
        "reachcode": "17050114000351",
        "flowdir": 1,
        "wbarea_permanent_identifier": "{285D5727-3F5B-4115-A38F-A11DBD669BC4}",
        "ftype": 558,
        "fcode": 55800,
        "innetwork": 1,
        "mainpath": 0,
        "visibilityfilter": 5000000,
        "Shape_Length": 102.70060377211502,
        "globalid": "{E55FCF55-4C89-11E1-BCF4-0021280458E6}"
      }
    },
    {
      "type": "Feature",
      "id": 27275045,
      "geometry": {
        "type": "LineString",
        "coordinates": [
          [
            -116.17933793578933,
            43.600822354526244
          ],
          [
            -116.17953258845674,
            43.60115393413663
          ],
          [
            -116.18021430461424,
            43.601485868328254
          ],
          [
            -116.18108875573529,
            43.601689313293335
          ],
          [
            -116.18165982776637,
            43.601714296472686
          ],
          [
            -116.18221305152028,
            43.601639343136014
          ]
        ]
      },
      "properties": {
        "OBJECTID": 27275045,
        "permanent_identifier": "{E1B975F8-0D6E-4AFA-AD03-6923D45DC0ED}",
        "fdate": 1441065600000,
        "resolution": 2,
        "gnis_id": "00378007",
        "gnis_name": "Boise River",
        "lengthkm": 0.27142635000000004,
        "reachcode": "17050114000334",
        "flowdir": 1,
        "wbarea_permanent_identifier": "120008049",
        "ftype": 558,
        "fcode": 55800,
        "innetwork": 1,
        "mainpath": 0,
        "visibilityfilter": 5000000,
        "Shape_Length": 375.4180206316557,
        "globalid": "{AFF68A6E-03FA-47BC-AD5A-AFB73F0E8A03}"
      }
    },
    {
      "type": "Feature",
      "id": 27275046,
      "geometry": {
        "type": "LineString",
        "coordinates": [
          [
            -116.30345927103333,
            43.66915981838964
          ],
          [
            -116.3037496101531,
            43.669275227189544
          ],
          [
            -116.30428736949294,
            43.669470341956945
          ],
          [
            -116.30490126989727,
            43.66965594030637
          ],
          [
            -116.30571941044792,
            43.66992573698735
          ],
          [
            -116.30631463743178,
            43.670163349319296
          ]
        ]
      },
      "properties": {
        "OBJECTID": 27275046,
        "permanent_identifier": "{DFCD653C-B5D7-4684-B9AD-1E4C3E5D7108}",
        "fdate": 1441065600000,
        "resolution": 2,
        "gnis_id": "00378007",
        "gnis_name": "Boise River",
        "lengthkm": 0.25539698000000005,
        "reachcode": "17050114002914",
        "flowdir": 1,
        "wbarea_permanent_identifier": "120008043",
        "ftype": 558,
        "fcode": 55800,
        "innetwork": 1,
        "mainpath": 0,
        "visibilityfilter": 5000000,
        "Shape_Length": 353.69386163329943,
        "globalid": "{7228648C-A976-4B07-A5ED-04E5B195CCB2}"
      }
    },
    {
      "type": "Feature",
      "id": 27949398,
      "geometry": {
        "type": "LineString",
        "coordinates": [
          [
            -116.33236397784194,
            43.68174848151549
          ],
          [
            -116.33260296245403,
            43.681810225675335
          ],
          [
            -116.33291705071842,
            43.68200534107686
          ],
          [
            -116.33393546177875,
            43.68275725221323
          ],
          [
            -116.33473020176363,
            43.683490125994695
          ],
          [
            -116.33537564595167,
            43.683669081013505
          ],
          [
            -116.33569911879084,
            43.68375376919197
          ],
          [
            -116.33675017972234,
            43.68379188056398
          ],
          [
            -116.33740281295873,
            43.683820394849405
          ]
        ]
      },
      "properties": {
        "OBJECTID": 27949398,
        "permanent_identifier": "54066097",
        "fdate": 1441065600000,
        "resolution": 2,
        "gnis_id": "00378007",
        "gnis_name": "Boise River",
        "lengthkm": 0.49473957,
        "reachcode": "17050114000306",
        "flowdir": 1,
        "wbarea_permanent_identifier": "120008043",
        "ftype": 558,
        "fcode": 55800,
        "innetwork": 1,
        "mainpath": 0,
        "visibilityfilter": 5000000,
        "Shape_Length": 684.9036852551471,
        "globalid": "{89E04F87-4C82-11E1-BCF4-0021280458E6}"
      }
    },
    {
      "type": "Feature",
      "id": 28174822,
      "geometry": {
        "type": "LineString",
        "coordinates": [
          [
            -116.16089759593082,
            43.58647375534782
          ],
          [
            -116.16118419641248,
            43.58674835510103
          ],
          [
            -116.1616855297838,
            43.58722888865379
          ],
          [
            -116.16294654963565,
            43.58839764417555
          ],
          [
            -116.16416364439155,
            43.589043667575446
          ],
          [
            -116.1655484908932,
            43.589457693681794
          ],
          [
            -116.16656039757642,
            43.58974575515283
          ]
        ]
      },
      "properties": {
        "OBJECTID": 28174822,
        "permanent_identifier": "54066121",
        "fdate": 1441065600000,
        "resolution": 2,
        "gnis_id": "00378007",
        "gnis_name": "Boise River",
        "lengthkm": 0.6001994,
        "reachcode": "17050114000334",
        "flowdir": 1,
        "wbarea_permanent_identifier": "120008049",
        "ftype": 558,
        "fcode": 55800,
        "innetwork": 1,
        "mainpath": 0,
        "visibilityfilter": 5000000,
        "Shape_Length": 829.2234208083146,
        "globalid": "{18DE7A88-4C7F-11E1-BCF4-0021280458E6}"
      }
    }
  ]
}