{
  "type": "FeatureCollection",
  "features": [
    {
      "type": "Feature",
      "properties": {
        "name": "ui-test-channel-boundary"
      },
      "geometry": {
        "type": "Polygon",
        "coordinates": [
          [
            [-113.9503, 45.0197],
            [-113.9493, 45.0199],
            [-113.9483, 45.0205],
            [-113.9481, 45.0212],
            [-113.9489, 45.0214],
            [-113.9497, 45.0208],
            [-113.9504, 45.0203],
            [-113.9503, 45.0197]
          ]
        ]
      }
    }
  ]
}
